arm26_elbow_motion
version=1
nRows=160
nColumns=2
inDegrees=no
endheader
time	r_elbow_flex
40.674562	2.00869397
40.684263	2.02288117
40.698338	2.03309330
40.708205	2.03828980
40.717717	2.06802687
40.725532	2.08397042
40.751991	2.09900433
40.784733	2.12703067
40.788959	2.13554404
40.835570	2.17096687
40.843423	2.21117000
40.931444	2.25320426
40.942682	2.28716024
40.964933	2.32433446
40.980839	2.34696149
40.990655	2.37974784
41.017690	2.39188654
41.033067	2.39665806
41.039296	2.38395556
41.050287	2.37312526
41.062119	2.34162741
41.071666	2.31722564
41.073687	2.29065272
41.092124	2.26238820
41.104079	2.23159627
41.128081	2.19834732
41.134114	2.16354398
41.159672	2.12322010
41.167830	2.07168394
41.177203	2.02796020
41.192862	2.00833069
41.201601	1.99673910
41.226877	1.98147750
41.253437	1.93931595
41.262099	1.90272365
41.281754	1.87906622
41.297881	1.87027055
41.347894	1.85618584
41.354946	1.83389484
41.363161	1.78782012
41.378993	1.74726747
41.388806	1.72832729
41.414605	1.71252533
41.430509	1.68584649
41.440126	1.65302523
41.462802	1.62019929
41.483323	1.58765093
41.489357	1.55387747
41.499070	1.52219755
41.511695	1.49225204
41.519834	1.45670607
41.561186	1.41586777
41.571919	1.39368754
41.597783	1.39077736
41.604832	1.38567851
41.612916	1.36739827
41.628911	1.34924983
41.640045	1.33857806
41.647665	1.32796732
41.672026	1.31209325
41.747832	1.29183345
41.764386	1.27154877
41.775943	1.25333614
41.797799	1.23995145
41.806736	1.23342772
41.821949	1.22321304
41.833465	1.21447096
41.850265	1.20689108
41.859811	1.20260340
41.875786	1.19663301
41.884056	1.18946061
41.900625	1.18539216
41.910870	1.18031141
41.927391	1.16952506
41.945655	1.15044305
41.970695	1.14078142
41.977723	1.13349438
41.994520	1.13404796
42.009007	1.14171565
42.033984	1.15139206
42.049246	1.15863155
42.067569	1.16231391
42.083838	1.16587508
42.096302	1.16866001
42.103477	1.17229866
42.126497	1.17751095
42.142389	1.18453094
42.184081	1.18811856
42.199721	1.18789351
42.209705	1.18505568
42.233346	1.18317239
42.240166	1.18256189
42.255457	1.18043239
42.276993	1.17561419
42.292275	1.16845924
42.300008	1.15949185
42.361649	1.15224924
42.400929	1.14609836
42.409235	1.13833987
42.415586	1.12972103
42.431423	1.12547013
42.439621	1.12003969
42.448914	1.10591415
42.463984	1.09393725
42.473105	1.08215397
42.500823	1.06998727
42.515973	1.05614068
42.534297	1.04176775
42.546850	1.02972537
42.556079	1.01964453
42.567215	1.01101453
42.606525	1.00380169
42.612957	0.99754651
42.623449	0.99188311
42.649597	0.98715654
42.663997	0.98305507
42.672540	0.97896539
42.694896	0.97370693
42.714279	0.96895238
42.724384	0.96620113
42.751148	0.96353091
42.759485	0.96168920
42.786709	0.96444213
42.813850	0.97060649
42.824814	0.97715147
42.840073	0.98443040
42.852356	0.99259399
42.867864	1.00762059
42.881016	1.01725588
42.897600	1.02659962
42.914023	1.03458393
42.923469	1.04016832
42.947435	1.04421886
42.964061	1.04783777
42.974914	1.05170595
42.999370	1.05684730
43.009185	1.06154955
43.020086	1.06553206
43.025207	1.06841754
43.051721	1.07054793
43.067312	1.07254422
43.081441	1.07488990
43.100736	1.07613516
43.116522	1.07632740
43.135802	1.07570984
43.149470	1.07479411
43.164280	1.07472311
43.172111	1.07447080
43.196888	1.07264300
43.212464	1.07019942
43.228261	1.06922966
43.232821	1.06955435
43.264553	1.06998595
43.280243	1.06946592
43.298529	1.06798279
43.314624	1.06561250
43.322713	1.06216801
43.348260	1.05821418
43.365433	1.05405443
43.398196	1.05084841
