arm26_elbow_motion
version=1
nRows=160
nColumns=2
inDegrees=no
endheader
time	r_elbow_flex
63.352187	0.24186564
63.367398	0.24219856
63.383639	0.24292457
63.397872	0.24321262
63.416200	0.24326059
63.447771	0.24310600
63.450100	0.24290035
63.481701	0.24274285
63.496249	0.24281825
63.498687	0.24296051
63.514045	0.24288096
63.529554	0.24272320
63.532029	0.24283237
63.564482	0.24340686
63.600563	0.24425861
63.616589	0.24419222
63.632668	0.24328648
63.647337	0.24220886
63.662760	0.24187179
63.679421	0.24206681
63.696095	0.24217482
63.712831	0.24189967
63.716376	0.24122379
63.750042	0.24043194
63.768981	0.24010316
63.782367	0.24008320
63.799456	0.24031216
63.813095	0.24027884
63.817880	0.24033907
63.847420	0.24062186
63.864090	0.24133800
63.867100	0.24203033
63.901926	0.24229644
63.932222	0.24221938
63.949732	0.24180647
63.966814	0.24171425
63.979750	0.24201633
63.997817	0.24241983
64.002628	0.24246134
64.018727	0.24231243
64.034465	0.24235777
64.048275	0.24240887
64.051635	0.24247174
64.069822	0.24242983
64.082678	0.24253910
64.099463	0.24277744
64.113087	0.24271076
64.129799	0.24252896
64.146070	0.24189315
64.222569	0.24193011
64.230410	0.24235002
64.232818	0.24306038
64.249545	0.24307682
64.264016	0.24286682
64.280802	0.24400767
64.283937	0.24441414
64.297478	0.24506144
64.301486	0.24537497
64.348150	0.24526306
64.363595	0.24462863
64.370603	0.24386723
64.379799	0.24381563
64.398089	0.24424486
64.413632	0.24483946
64.431255	0.24482439
64.446733	0.24443906
64.464231	0.24417419
64.469383	0.24419783
64.497539	0.24423039
64.512875	0.24476426
64.517923	0.24517788
64.529592	0.24545138
64.562526	0.24553033
64.596797	0.24560043
64.613329	0.24575626
64.619023	0.24522531
64.622524	0.24533159
64.650637	0.24553912
64.663139	0.24587752
64.679692	0.24606446
64.697673	0.24614711
64.714108	0.24605028
64.729710	0.24582856
64.740612	0.24567534
64.770870	0.24576118
64.780071	0.24576070
64.798476	0.24575165
64.812458	0.24581745
64.829088	0.24591441
64.847355	0.24605688
64.864135	0.24603164
64.866449	0.24589559
64.898466	0.24578070
64.923939	0.24556621
64.932436	0.24556414
64.950031	0.24550601
64.965424	0.24546091
64.981159	0.24533805
64.985949	0.24511263
65.013543	0.24462689
65.029532	0.24445299
65.080508	0.24431443
65.085263	0.24401210
65.098398	0.24391862
65.101583	0.24404418
65.115309	0.24449893
65.129673	0.24497153
65.133618	0.24521283
65.180240	0.24523534
65.195900	0.24536007
65.212374	0.24519720
65.230246	0.24496257
65.246777	0.24484037
65.263350	0.24490386
65.267344	0.24487551
65.313053	0.24471521
65.316796	0.24459739
65.346923	0.24456518
65.352455	0.24445970
65.370589	0.24404407
65.381684	0.24384252
65.397033	0.24361339
65.414480	0.24363935
65.436390	0.24376305
65.446120	0.24441433
65.462500	0.24483511
65.479528	0.24464281
65.484886	0.24413228
65.496985	0.24381596
65.512186	0.24387925
65.529934	0.24389635
65.565635	0.24375664
65.568410	0.24356736
65.581208	0.24363235
65.598197	0.24389780
65.615066	0.24413759
65.630394	0.24408785
65.663363	0.24375919
65.680697	0.24323489
65.696690	0.24300229
65.714259	0.24349180
65.730238	0.24416593
65.747407	0.24427129
65.763618	0.24354155
65.780254	0.24257504
65.796931	0.24128991
65.813725	0.24080919
65.829255	0.24098253
65.846504	0.24124025
65.863415	0.24109330
65.878849	0.24063931
65.896759	0.24008309
65.899751	0.23984832
65.907912	0.23969835
65.912263	0.23971978
65.946008	0.23960112
65.980146	0.23953905
65.995264	0.23931069
66.000631	0.23973213
66.002849	0.24083361
