arm26_elbow_motion
version=1
nRows=160
nColumns=2
inDegrees=no
endheader
time	r_elbow_flex
46.832093	0.64587677
46.842453	0.64484511
46.865452	0.64431240
46.880044	0.64383133
46.890958	0.64346271
46.905845	0.64341200
46.931976	0.64394703
46.949716	0.64538093
46.968059	0.64709114
46.983826	0.64947761
47.000395	0.65262193
47.017164	0.65602794
47.024308	0.65903606
47.048701	0.66118828
47.071115	0.66215761
47.079759	0.66209747
47.101685	0.66119614
47.117510	0.65970739
47.143008	0.65827347
47.152381	0.65699181
47.182153	0.65582335
47.199616	0.65464735
47.219166	0.65364938
47.232137	0.65250664
47.240418	0.65150176
47.250559	0.65047860
47.312485	0.64900758
47.321192	0.64731153
47.335828	0.64588685
47.350304	0.64460305
47.363677	0.64354418
47.378867	0.64254367
47.399635	0.64162371
47.416949	0.64083262
47.433465	0.64044335
47.442145	0.64044545
47.452341	0.64110372
47.468862	0.64140323
47.475260	0.64111616
47.484974	0.63988978
47.521005	0.63826427
47.530082	0.63579634
47.540558	0.63326602
47.551613	0.63023147
47.562132	0.62650145
47.584114	0.62272691
47.591648	0.61940741
47.609706	0.61649265
47.633701	0.61395505
47.641093	0.61218339
47.649894	0.61099267
47.685105	0.60995422
47.700725	0.60933316
47.716162	0.60913940
47.733383	0.60926362
47.742072	0.60948417
47.757986	0.60978770
47.802018	0.60991121
47.817487	0.60978375
47.833523	0.60984931
47.847253	0.61040700
47.862902	0.61111193
47.878644	0.61150678
47.899884	0.61180448
47.915740	0.61218351
47.933176	0.61274961
47.939413	0.61262308
47.954958	0.61159213
47.979086	0.60978517
47.997496	0.60752850
48.010840	0.60540009
48.022102	0.60369503
48.033724	0.60258142
48.041854	0.60136890
48.057956	0.60055405
48.084914	0.59983486
48.092779	0.59887463
48.112541	0.59832988
48.128531	0.59822154
48.199679	0.59817762
48.216474	0.59828639
48.225205	0.59828600
48.241130	0.59848886
48.251546	0.59869298
48.260451	0.59861613
48.281759	0.59889531
48.291685	0.59928568
48.307690	0.59991265
48.323477	0.60055223
48.349526	0.60169371
48.366886	0.60276061
48.383835	0.60335985
48.391592	0.60366064
48.400186	0.60345002
48.417061	0.60317862
48.430309	0.60228815
48.441817	0.60148829
48.457762	0.60067996
48.477025	0.60021607
48.482594	0.59991797
48.493411	0.60016127
48.544833	0.60049662
48.560653	0.60097834
48.570438	0.60142973
48.581872	0.60206841
48.599725	0.60207593
48.607835	0.60154591
48.623842	0.60098286
48.643030	0.60053338
48.659047	0.60029817
48.672314	0.60011899
48.678087	0.59963105
48.686509	0.59879606
48.702683	0.59806183
48.749787	0.59753048
48.767702	0.59699765
48.774581	0.59667966
48.816853	0.59657782
48.828852	0.59662072
48.844100	0.59710752
48.860101	0.59801566
48.897156	0.59901990
48.958339	0.59956229
48.963600	0.60012823
48.973721	0.60101446
48.996172	0.60203123
49.004352	0.60326459
49.012761	0.60472443
49.022251	0.60675528
49.030536	0.60810404
49.038793	0.60992384
49.049165	0.61120854
49.064902	0.61151629
49.083346	0.61116159
49.100042	0.61046988
49.116022	0.60939673
49.124197	0.60791960
49.132299	0.60604091
49.165615	0.60383058
49.179526	0.60145830
49.195649	0.59899840
49.204444	0.59742053
49.216306	0.59735154
49.242999	0.59799976
49.259690	0.59896688
49.274681	0.60003069
49.285510	0.60090080
49.300103	0.60143066
49.309291	0.60208607
49.395243	0.60259491
49.415571	0.60304136
49.424364	0.60373106
49.432564	0.60456118
49.448962	0.60551343
49.456055	0.60650671
49.472031	0.60670220
49.481950	0.60634042
49.489805	0.60569563
49.498814	0.60449171
49.514602	0.60256256
