DataRate=60.000000
DataType=Quaternion
OpenSimVersion=4.4
nRows=603
nColumns=9
endheader
time	IMU_UpperArm_q0	IMU_UpperArm_q1	IMU_UpperArm_q2	IMU_UpperArm_q3	IMU_Forearm_q0	IMU_Forearm_q1	IMU_Forearm_q2	IMU_Forearm_q3
0.0000	0.72020	-0.17990	0.53760	-0.03700	0.30690	-0.60390	0.46890	0.08690
0.0000	0.72020	-0.18020	0.53740	-0.00080	0.30700	-0.60440	0.46870	0.01370
0.0000	0.72020	-0.18040	0.53730	-0.01680	0.30710	-0.60480	0.46850	-0.07200
0.0000	0.72020	-0.18080	0.53710	0.02070	0.30710	-0.60500	0.46840	-0.14260
0.0000	0.72020	-0.18090	0.53700	0.01760	0.30710	-0.60500	0.46840	-0.10630
0.0000	0.72020	-0.18090	0.53710	0.00020	0.30730	-0.60500	0.46840	-0.05610
0.0000	0.72020	-0.18110	0.53700	-0.02030	0.30750	-0.60530	0.46820	-0.09450
0.0000	0.72020	-0.18130	0.53690	-0.02770	0.30770	-0.60550	0.46810	-0.11120
0.0000	0.72020	-0.18150	0.53690	-0.02190	0.30780	-0.60560	0.46810	-0.11100
0.0000	0.72010	-0.18180	0.53680	-0.03600	0.30800	-0.60560	0.46810	-0.09460
0.0000	0.72000	-0.18210	0.53680	-0.01020	0.30810	-0.60570	0.46810	-0.05080
0.0000	0.71990	-0.18240	0.53670	0.04310	0.30830	-0.60580	0.46800	-0.08000
0.0000	0.71990	-0.18250	0.53660	0.02850	0.30840	-0.60600	0.46790	-0.10550
0.0000	0.72000	-0.18260	0.53660	0.01930	0.30860	-0.60610	0.46790	-0.10220
0.0000	0.72000	-0.18280	0.53660	0.04220	0.30870	-0.60620	0.46790	-0.11910
0.0000	0.72000	-0.18300	0.53660	0.03630	0.30880	-0.60620	0.46800	-0.08160
0.0000	0.72000	-0.18320	0.53660	-0.01960	0.30900	-0.60640	0.46790	-0.09140
-0.0000	0.72010	-0.18340	0.53650	-0.06740	0.30910	-0.60660	0.46780	-0.09430
-0.0000	0.72020	-0.18360	0.53650	-0.09210	0.30930	-0.60670	0.46790	-0.09940
-0.0000	0.72010	-0.18390	0.53640	-0.12240	0.30940	-0.60680	0.46790	-0.11360
0.0000	0.71990	-0.18430	0.53640	-0.07610	0.30950	-0.60710	0.46780	-0.15290
0.0000	0.71980	-0.18460	0.53640	-0.01550	0.30970	-0.60730	0.46780	-0.12280
0.0000	0.71980	-0.18480	0.53630	0.01150	0.30980	-0.60730	0.46780	-0.12590
0.0000	0.71990	-0.18490	0.53630	0.02190	0.30990	-0.60750	0.46780	-0.10690
-0.0000	0.72000	-0.18500	0.53630	-0.05100	0.30990	-0.60760	0.46780	-0.10980
-0.0000	0.72000	-0.18520	0.53630	-0.10290	0.31000	-0.60760	0.46780	-0.06400
-0.0000	0.71990	-0.18540	0.53620	-0.05900	0.31030	-0.60760	0.46790	-0.05850
-0.0000	0.71980	-0.18570	0.53620	-0.04040	0.31050	-0.60780	0.46790	-0.08330
-0.0000	0.71980	-0.18590	0.53620	-0.05920	0.31060	-0.60810	0.46780	-0.15620
-0.0000	0.71980	-0.18600	0.53610	-0.09190	0.31080	-0.60860	0.46760	-0.24000
-0.0000	0.71980	-0.18590	0.53610	-0.07250	0.31090	-0.60900	0.46750	-0.28170
0.0000	0.71970	-0.18600	0.53620	-0.09620	0.31100	-0.60920	0.46750	-0.28100
0.0000	0.71950	-0.18600	0.53620	-0.08720	0.31100	-0.60900	0.46770	-0.21610
0.0000	0.71950	-0.18600	0.53620	-0.07680	0.31100	-0.60880	0.46790	-0.13600
0.0000	0.71950	-0.18600	0.53620	-0.11080	0.31110	-0.60880	0.46800	-0.02990
0.0000	0.71950	-0.18610	0.53610	-0.15720	0.31120	-0.60910	0.46790	-0.05810
0.0000	0.71940	-0.18630	0.53600	-0.12800	0.31130	-0.60950	0.46780	-0.12430
0.0000	0.71920	-0.18670	0.53590	-0.03530	0.31150	-0.61000	0.46760	-0.20780
0.0000	0.71900	-0.18710	0.53590	-0.00940	0.31170	-0.61040	0.46760	-0.32010
0.0000	0.71880	-0.18740	0.53600	0.00370	0.31180	-0.61070	0.46750	-0.34380
0.0000	0.71850	-0.18770	0.53620	-0.03400	0.31180	-0.61110	0.46740	-0.29170
0.0000	0.71840	-0.18800	0.53630	-0.09390	0.31160	-0.61140	0.46710	-0.24130
0.0000	0.71840	-0.18840	0.53630	-0.11770	0.31150	-0.61180	0.46700	-0.17800
0.0000	0.71850	-0.18870	0.53620	-0.11810	0.31140	-0.61230	0.46660	-0.18470
0.0000	0.71860	-0.18910	0.53610	-0.08290	0.31070	-0.61320	0.46570	-0.12140
0.0000	0.71830	-0.18960	0.53630	-0.08850	0.30990	-0.61440	0.46470	-0.16860
0.0000	0.71790	-0.19010	0.53650	-0.09260	0.30940	-0.61510	0.46410	-0.21160
0.0000	0.71760	-0.19070	0.53660	-0.05930	0.30900	-0.61530	0.46410	-0.18800
0.0000	0.71760	-0.19120	0.53650	0.04500	0.30880	-0.61510	0.46450	-0.23240
0.0000	0.71780	-0.19140	0.53650	0.03370	0.30850	-0.61520	0.46460	-0.17130
-0.0000	0.71820	-0.19110	0.53670	-0.11720	0.30810	-0.61620	0.46390	-0.14650
-0.0000	0.71830	-0.19090	0.53710	-0.18750	0.30800	-0.61730	0.46320	-0.19640
-0.0000	0.71790	-0.19120	0.53740	-0.21430	0.30810	-0.61760	0.46320	-0.25550
-0.0000	0.71770	-0.19160	0.53740	-0.18270	0.30820	-0.61720	0.46370	-0.28600
-0.0000	0.71800	-0.19170	0.53740	-0.29290	0.30820	-0.61670	0.46430	-0.26930
-0.0000	0.71840	-0.19170	0.53700	-0.53070	0.30810	-0.61690	0.46450	-0.25660
-0.0000	0.71860	-0.19220	0.53620	-0.61560	0.30800	-0.61770	0.46410	-0.28940
-0.0000	0.71850	-0.19300	0.53530	-0.38970	0.30790	-0.61830	0.46370	-0.30750
0.0000	0.71790	-0.19410	0.53480	-0.01640	0.30790	-0.61780	0.46400	-0.20060
0.0000	0.71670	-0.19550	0.53460	0.21550	0.30810	-0.61720	0.46440	-0.11790
0.0000	0.71540	-0.19690	0.53470	0.36160	0.30820	-0.61760	0.46430	-0.19280
0.0000	0.71460	-0.19760	0.53490	0.43300	0.30800	-0.61930	0.46330	-0.38740
0.0000	0.71450	-0.19770	0.53500	0.33600	0.30730	-0.62090	0.46210	-0.45520
0.0000	0.71480	-0.19770	0.53510	0.21070	0.30650	-0.62160	0.46170	-0.55070
0.0000	0.71490	-0.19780	0.53520	0.04740	0.30580	-0.62270	0.46080	-0.56640
0.0000	0.71470	-0.19800	0.53560	-0.04880	0.30490	-0.62510	0.45860	-0.61280
0.0000	0.71430	-0.19820	0.53610	-0.22650	0.30400	-0.62650	0.45740	-0.71800
0.0000	0.71400	-0.19860	0.53630	-0.33860	0.30360	-0.62510	0.45860	-0.39390
0.0000	0.71370	-0.19900	0.53630	-0.15420	0.30290	-0.62240	0.46070	0.09340
0.0000	0.71370	-0.19940	0.53650	0.02730	0.30210	-0.62210	0.46160	0.60320
0.0000	0.71380	-0.19960	0.53670	-0.20650	0.30150	-0.62420	0.46130	0.15060
0.0000	0.71330	-0.20010	0.53710	-0.44560	0.30100	-0.62630	0.46070	-0.26610
0.0000	0.71210	-0.20110	0.53750	-0.34600	0.30090	-0.62690	0.46130	-0.41990
0.0000	0.71090	-0.20220	0.53770	-0.01960	0.30100	-0.62590	0.46240	-0.21330
0.0000	0.70980	-0.20300	0.53810	0.24660	0.30120	-0.62420	0.46410	-0.02340
0.0000	0.70890	-0.20370	0.53870	0.22710	0.30160	-0.62390	0.46510	0.08810
0.0000	0.70800	-0.20420	0.53940	0.10660	0.30160	-0.62560	0.46480	-0.49150
0.0000	0.70710	-0.20480	0.54020	0.10060	0.30110	-0.62840	0.46330	-0.61770
0.0000	0.70620	-0.20560	0.54110	0.18130	0.30110	-0.62850	0.46400	-0.76530
0.0000	0.70520	-0.20650	0.54200	0.24450	0.30090	-0.62560	0.46680	-0.50720
0.0000	0.70430	-0.20730	0.54310	0.20300	0.30080	-0.62450	0.46820	0.02160
0.0000	0.70360	-0.20790	0.54430	0.00340	0.30070	-0.62630	0.46790	-0.33610
0.0000	0.70290	-0.20850	0.54550	-0.04830	0.29920	-0.62790	0.46790	-0.53790
0.0000	0.70210	-0.20910	0.54670	-0.01680	0.29800	-0.62750	0.46950	-0.40020
0.0000	0.70140	-0.20970	0.54790	-0.09780	0.29630	-0.62760	0.47100	0.06500
0.0000	0.70060	-0.21050	0.54890	-0.22460	0.29500	-0.62850	0.47190	0.01560
0.0000	0.70010	-0.21110	0.54970	-0.09050	0.29340	-0.62930	0.47310	-0.00240
0.0000	0.69990	-0.21140	0.55050	-0.03550	0.29160	-0.63010	0.47440	0.08050
0.0000	0.69990	-0.21160	0.55110	-0.23720	0.28970	-0.63070	0.47590	0.04380
0.0000	0.69960	-0.21210	0.55170	-0.41950	0.28770	-0.63150	0.47750	-0.13930
0.0000	0.69900	-0.21280	0.55210	-0.40890	0.28530	-0.63250	0.47870	-0.21300
0.0000	0.69840	-0.21360	0.55250	-0.17830	0.28340	-0.63360	0.47970	-0.12890
0.0000	0.69740	-0.21450	0.55300	-0.10080	0.28170	-0.63420	0.48120	0.00410
0.0000	0.69640	-0.21550	0.55350	0.03270	0.28060	-0.63480	0.48320	-0.31030
0.0000	0.69550	-0.21660	0.55410	0.19270	0.27970	-0.63580	0.48450	-0.89330
0.0000	0.69470	-0.21720	0.55490	0.24910	0.27870	-0.63670	0.48550	-0.95160
0.0000	0.69430	-0.21750	0.55570	0.12550	0.27790	-0.63630	0.48700	-0.39280
0.0000	0.69400	-0.21770	0.55660	-0.10530	0.27800	-0.63580	0.48880	-0.21950
0.0000	0.69350	-0.21810	0.55750	-0.22220	0.27860	-0.63550	0.49060	-0.70290
0.0000	0.69280	-0.21890	0.55830	-0.15900	0.27910	-0.63530	0.49220	-0.90280
0.0000	0.69200	-0.21960	0.55910	-0.07590	0.27800	-0.63540	0.49320	-0.53190
0.0000	0.69130	-0.22030	0.55990	0.02140	0.27600	-0.63630	0.49360	-0.17570
-0.0000	0.69090	-0.22080	0.56060	-0.07360	0.27450	-0.63720	0.49450	0.04060
-0.0000	0.69060	-0.22130	0.56120	-0.20180	0.27280	-0.63820	0.49560	0.19900
-0.0000	0.69030	-0.22190	0.56160	-0.27530	0.27210	-0.63960	0.49650	-0.24960
-0.0000	0.68990	-0.22260	0.56200	-0.20870	0.27150	-0.64040	0.49790	-0.58100
-0.0000	0.68940	-0.22310	0.56250	-0.05870	0.27090	-0.64090	0.49960	-0.67180
-0.0000	0.68890	-0.22350	0.56300	-0.10220	0.27020	-0.64140	0.50090	-0.52870
-0.0000	0.68840	-0.22390	0.56350	-0.16570	0.26960	-0.64140	0.50240	-0.37840
-0.0000	0.68800	-0.22410	0.56390	-0.10650	0.26930	-0.64120	0.50420	-0.35470
-0.0000	0.68790	-0.22420	0.56420	-0.01350	0.26910	-0.64130	0.50570	-0.53730
-0.0000	0.68790	-0.22430	0.56450	-0.19690	0.26810	-0.64130	0.50700	-0.46080
-0.0000	0.68790	-0.22430	0.56480	-0.29800	0.26740	-0.64140	0.50810	-0.40110
-0.0000	0.68770	-0.22440	0.56500	-0.24770	0.26670	-0.64160	0.50900	-0.46430
-0.0000	0.68740	-0.22450	0.56510	-0.18370	0.26610	-0.64180	0.51000	-0.60340
-0.0000	0.68700	-0.22480	0.56530	-0.16500	0.26540	-0.64190	0.51090	-0.67870
-0.0000	0.68650	-0.22520	0.56550	-0.12610	0.26460	-0.64170	0.51190	-0.50920
-0.0000	0.68610	-0.22570	0.56550	-0.04370	0.26420	-0.64150	0.51280	-0.39590
-0.0000	0.68600	-0.22600	0.56550	-0.08750	0.26410	-0.64160	0.51360	-0.48420
-0.0000	0.68610	-0.22630	0.56540	-0.18510	0.26390	-0.64140	0.51450	-0.72100
-0.0000	0.68590	-0.22670	0.56530	-0.19770	0.26360	-0.64120	0.51500	-0.63380
-0.0000	0.68570	-0.22710	0.56530	-0.14350	0.26370	-0.64110	0.51540	-0.50320
-0.0000	0.68540	-0.22740	0.56530	-0.07870	0.26390	-0.64080	0.51570	-0.51620
-0.0000	0.68510	-0.22780	0.56520	-0.10790	0.26390	-0.64050	0.51630	-0.50660
-0.0000	0.68490	-0.22820	0.56500	-0.22460	0.26400	-0.64050	0.51660	-0.48110
-0.0000	0.68470	-0.22870	0.56480	-0.10400	0.26400	-0.64070	0.51680	-0.54660
0.0000	0.68460	-0.22910	0.56460	-0.04680	0.26400	-0.64070	0.51710	-0.43090
0.0000	0.68430	-0.22940	0.56460	-0.05460	0.26410	-0.64070	0.51730	-0.38180
0.0000	0.68410	-0.22970	0.56460	-0.06940	0.26410	-0.64070	0.51750	-0.34940
0.0000	0.68400	-0.22970	0.56450	-0.11460	0.26410	-0.64070	0.51770	-0.41840
0.0000	0.68390	-0.22980	0.56450	-0.20380	0.26400	-0.64080	0.51780	-0.35280
0.0000	0.68380	-0.22990	0.56440	-0.17990	0.26380	-0.64070	0.51810	-0.27450
0.0000	0.68360	-0.23020	0.56440	-0.16280	0.26400	-0.64070	0.51850	-0.23340
0.0000	0.68320	-0.23070	0.56440	-0.14190	0.26440	-0.64090	0.51890	-0.47430
0.0000	0.68260	-0.23160	0.56430	-0.03980	0.26470	-0.64080	0.51930	-0.64370
0.0000	0.68210	-0.23230	0.56430	0.01350	0.26480	-0.64080	0.51960	-0.48650
0.0000	0.68190	-0.23290	0.56430	-0.04160	0.26500	-0.64070	0.52000	-0.39750
0.0000	0.68190	-0.23340	0.56410	-0.05850	0.26560	-0.64060	0.52040	-0.46700
0.0000	0.68180	-0.23370	0.56410	-0.08700	0.26590	-0.64070	0.52060	-0.40410
0.0000	0.68150	-0.23390	0.56420	-0.09460	0.26630	-0.64090	0.52070	-0.29810
0.0000	0.68110	-0.23420	0.56440	-0.06940	0.26670	-0.64100	0.52080	-0.39910
0.0000	0.68050	-0.23470	0.56450	-0.06070	0.26700	-0.64110	0.52110	-0.30520
0.0000	0.68000	-0.23530	0.56470	-0.03400	0.26720	-0.64110	0.52150	-0.34400
0.0000	0.67970	-0.23560	0.56490	0.03090	0.26740	-0.64140	0.52170	-0.35360
0.0000	0.67940	-0.23570	0.56530	0.04450	0.26720	-0.64170	0.52180	-0.34990
0.0000	0.67930	-0.23570	0.56580	-0.04990	0.26670	-0.64190	0.52180	-0.06540
0.0000	0.67900	-0.23580	0.56620	-0.12600	0.26640	-0.64230	0.52190	-0.13270
0.0000	0.67830	-0.23680	0.56630	-0.15640	0.26610	-0.64270	0.52200	-0.41840
0.0000	0.67720	-0.23800	0.56650	-0.14480	0.26560	-0.64320	0.52210	-0.16680
0.0000	0.67660	-0.23850	0.56680	-0.15310	0.26530	-0.64350	0.52260	-0.13200
0.0000	0.67660	-0.23850	0.56700	-0.20890	0.26490	-0.64390	0.52310	-0.33930
0.0000	0.67650	-0.23880	0.56710	-0.41380	0.26470	-0.64420	0.52360	-0.31510
0.0000	0.67650	-0.23890	0.56710	-0.31290	0.26420	-0.64430	0.52410	-0.33470
0.0000	0.67640	-0.23900	0.56720	-0.16760	0.26370	-0.64450	0.52460	-0.50960
0.0000	0.67610	-0.23930	0.56740	-0.18970	0.26320	-0.64470	0.52500	-0.43610
0.0000	0.67580	-0.23960	0.56750	-0.22110	0.26290	-0.64490	0.52530	-0.36280
0.0000	0.67530	-0.24020	0.56770	-0.21590	0.26260	-0.64500	0.52550	-0.31680
0.0000	0.67460	-0.24120	0.56770	-0.08010	0.26250	-0.64500	0.52590	-0.45250
0.0000	0.67370	-0.24220	0.56790	-0.06640	0.26220	-0.64500	0.52600	-0.48910
0.0000	0.67300	-0.24300	0.56800	-0.06610	0.26180	-0.64470	0.52620	-0.63480
0.0000	0.67240	-0.24380	0.56820	-0.05710	0.26110	-0.64450	0.52610	-0.57310
0.0000	0.67180	-0.24440	0.56840	-0.07010	0.26090	-0.64420	0.52620	-0.28890
0.0000	0.67140	-0.24490	0.56850	-0.08830	0.26080	-0.64390	0.52660	-0.36750
0.0000	0.67100	-0.24540	0.56860	-0.11710	0.26060	-0.64390	0.52690	-0.60160
0.0000	0.67070	-0.24590	0.56870	-0.13040	0.26010	-0.64400	0.52700	-0.46610
0.0000	0.67050	-0.24660	0.56880	-0.11760	0.25970	-0.64430	0.52700	-0.29560
0.0000	0.67030	-0.24710	0.56890	-0.13600	0.25920	-0.64450	0.52720	-0.40850
0.0000	0.67010	-0.24760	0.56890	-0.13100	0.25840	-0.64460	0.52750	-0.33340
0.0000	0.66960	-0.24810	0.56910	-0.12730	0.25770	-0.64470	0.52780	-0.10100
0.0000	0.66900	-0.24870	0.56920	-0.12920	0.25720	-0.64490	0.52820	-0.15700
0.0000	0.66840	-0.24930	0.56950	-0.01600	0.25640	-0.64520	0.52850	-0.43940
0.0000	0.66780	-0.24980	0.56980	0.00790	0.25520	-0.64580	0.52850	-0.44240
0.0000	0.66730	-0.25030	0.57010	-0.08020	0.25410	-0.64630	0.52860	-0.17990
0.0000	0.66680	-0.25080	0.57030	-0.12730	0.25340	-0.64640	0.52910	-0.10180
0.0000	0.66630	-0.25140	0.57060	-0.15370	0.25260	-0.64640	0.53000	-0.25520
0.0000	0.66570	-0.25190	0.57090	-0.20590	0.25150	-0.64660	0.53060	-0.55760
0.0000	0.66510	-0.25230	0.57140	-0.18780	0.24990	-0.64720	0.53090	-0.48840
0.0000	0.66420	-0.25280	0.57190	-0.23360	0.24810	-0.64800	0.53100	-0.23690
0.0000	0.66330	-0.25350	0.57210	-0.31070	0.24640	-0.64860	0.53160	-0.18270
0.0000	0.66220	-0.25440	0.57240	-0.26390	0.24490	-0.64900	0.53230	-0.25530
0.0000	0.66090	-0.25600	0.57220	-0.16780	0.24350	-0.64930	0.53320	-0.39000
0.0000	0.65950	-0.25750	0.57210	-0.15660	0.24200	-0.64950	0.53400	-0.31870
0.0000	0.65800	-0.25870	0.57230	-0.25550	0.24040	-0.64950	0.53490	-0.21850
0.0000	0.65690	-0.25960	0.57250	-0.21070	0.23880	-0.64960	0.53590	-0.40230
0.0000	0.65610	-0.26030	0.57260	-0.20060	0.23690	-0.64990	0.53670	-0.56500
0.0000	0.65570	-0.26080	0.57260	-0.21460	0.23480	-0.65030	0.53730	-0.38540
0.0000	0.65540	-0.26120	0.57250	-0.20240	0.23290	-0.65070	0.53790	-0.29770
0.0000	0.65480	-0.26180	0.57250	-0.16480	0.23140	-0.65100	0.53870	-0.36800
0.0000	0.65400	-0.26240	0.57260	-0.19020	0.23000	-0.65100	0.53980	-0.55120
0.0000	0.65330	-0.26310	0.57260	-0.21120	0.22830	-0.65100	0.54080	-0.56690
0.0000	0.65290	-0.26370	0.57250	-0.26940	0.22650	-0.65100	0.54180	-0.30840
0.0000	0.65260	-0.26420	0.57230	-0.24810	0.22460	-0.65110	0.54280	-0.51210
0.0000	0.65200	-0.26490	0.57210	-0.17900	0.22260	-0.65110	0.54380	-0.77390
0.0000	0.65130	-0.26570	0.57190	-0.21480	0.22040	-0.65140	0.54420	-0.77990
0.0000	0.65050	-0.26660	0.57160	-0.21490	0.21810	-0.65160	0.54470	-0.67470
0.0000	0.64970	-0.26750	0.57140	-0.10710	0.21590	-0.65160	0.54520	-0.47510
0.0000	0.64890	-0.26840	0.57140	0.00680	0.21380	-0.65150	0.54590	-0.31960
0.0000	0.64840	-0.26910	0.57140	-0.09720	0.21180	-0.65140	0.54680	-0.30560
0.0000	0.64790	-0.26960	0.57130	-0.13480	0.21000	-0.65150	0.54750	-0.33450
0.0000	0.64720	-0.27050	0.57110	-0.18960	0.20810	-0.65180	0.54800	-0.36880
0.0000	0.64620	-0.27130	0.57100	-0.07500	0.20610	-0.65230	0.54840	-0.34880
0.0000	0.64540	-0.27230	0.57070	-0.14320	0.20430	-0.65290	0.54870	-0.19800
0.0000	0.64490	-0.27330	0.57040	-0.15360	0.20270	-0.65340	0.54940	-0.19120
0.0000	0.64460	-0.27410	0.57020	-0.02880	0.20130	-0.65380	0.55020	-0.27600
0.0000	0.64410	-0.27470	0.57000	-0.09610	0.20000	-0.65430	0.55090	-0.38880
0.0000	0.64360	-0.27520	0.57000	-0.22600	0.19860	-0.65490	0.55150	-0.41430
0.0000	0.64300	-0.27550	0.57010	-0.31120	0.19710	-0.65560	0.55210	-0.24140
0.0000	0.64230	-0.27590	0.56990	-0.27070	0.19590	-0.65620	0.55280	-0.16060
0.0000	0.64130	-0.27620	0.57000	-0.04630	0.19480	-0.65700	0.55350	-0.29090
0.0000	0.64000	-0.27630	0.57030	0.02860	0.19360	-0.65770	0.55420	-0.40840
0.0000	0.63860	-0.27580	0.57110	-0.08620	0.19230	-0.65840	0.55490	-0.32370
0.0000	0.63660	-0.27480	0.57240	-0.09970	0.19110	-0.65900	0.55570	-0.31560
0.0000	0.63520	-0.27340	0.57350	-0.06970	0.18980	-0.65940	0.55660	-0.42820
0.0000	0.63440	-0.27180	0.57430	-0.09430	0.18820	-0.65990	0.55740	-0.40060
0.0000	0.63370	-0.27040	0.57470	-0.27150	0.18660	-0.66050	0.55810	-0.42390
0.0000	0.63270	-0.26950	0.57510	-0.53200	0.18500	-0.66130	0.55850	-0.53810
0.0000	0.63110	-0.26910	0.57530	-0.57500	0.18330	-0.66220	0.55900	-0.49680
0.0000	0.62950	-0.26930	0.57530	-0.34270	0.18160	-0.66290	0.55960	-0.29720
0.0000	0.62780	-0.26990	0.57510	-0.24060	0.18040	-0.66310	0.56070	-0.27710
0.0000	0.62660	-0.27070	0.57480	-0.22790	0.17940	-0.66320	0.56200	-0.43590
0.0000	0.62520	-0.27150	0.57440	-0.21280	0.17800	-0.66320	0.56270	-0.38870
0.0000	0.62360	-0.27240	0.57420	-0.03760	0.17710	-0.66330	0.56290	-0.41710
0.0000	0.62190	-0.27330	0.57400	0.23610	0.17620	-0.66290	0.56370	-0.71420
0.0000	0.62030	-0.27460	0.57370	0.20730	0.17580	-0.66180	0.56500	-0.96560
0.0000	0.61920	-0.27590	0.57340	-0.01410	0.17590	-0.65970	0.56670	-0.67260
0.0000	0.61860	-0.27710	0.57270	-0.15950	0.17630	-0.65820	0.56850	-0.16790
0.0000	0.61870	-0.27810	0.57180	-0.30800	0.17660	-0.65710	0.57030	-0.48810
0.0000	0.61870	-0.27920	0.57090	-0.36650	0.17580	-0.65650	0.57180	-0.63370
0.0000	0.61810	-0.28010	0.57030	-0.27710	0.17410	-0.65630	0.57250	-0.35290
0.0000	0.61700	-0.28090	0.57010	0.02440	0.17220	-0.65720	0.57240	-0.23900
0.0000	0.61580	-0.28210	0.56970	-0.04330	0.16960	-0.65750	0.57320	0.25010
0.0000	0.61500	-0.28300	0.56930	-0.01780	0.16850	-0.65860	0.57370	0.30360
0.0000	0.61440	-0.28320	0.56920	0.17400	0.16710	-0.65880	0.57530	0.28850
0.0000	0.61340	-0.28310	0.56940	0.20800	0.16620	-0.65970	0.57650	-0.19430
0.0000	0.61240	-0.28320	0.56960	-0.08040	0.16480	-0.66080	0.57700	-0.35820
0.0000	0.61180	-0.28330	0.56960	-0.26740	0.16350	-0.66200	0.57730	-0.37310
0.0000	0.61150	-0.28340	0.56940	-0.29850	0.16180	-0.66300	0.57790	-0.23580
0.0000	0.61090	-0.28370	0.56920	-0.25410	0.16000	-0.66430	0.57840	-0.50200
0.0000	0.61010	-0.28410	0.56900	-0.13400	0.15750	-0.66570	0.57890	-0.63870
0.0000	0.60940	-0.28470	0.56890	-0.03010	0.15510	-0.66690	0.57940	-0.48420
0.0000	0.60890	-0.28540	0.56870	-0.02410	0.15320	-0.66740	0.58040	-0.31860
0.0000	0.60860	-0.28610	0.56860	-0.00210	0.15180	-0.66750	0.58160	-0.32940
0.0000	0.60810	-0.28690	0.56850	-0.05440	0.15050	-0.66730	0.58310	-0.50860
0.0000	0.60770	-0.28780	0.56820	-0.22760	0.14960	-0.66730	0.58410	-0.38900
0.0000	0.60750	-0.28840	0.56790	-0.27020	0.14870	-0.66720	0.58500	-0.32000
0.0000	0.60700	-0.28910	0.56780	-0.18760	0.14820	-0.66730	0.58570	-0.41710
0.0000	0.60600	-0.28960	0.56780	-0.19150	0.14730	-0.66720	0.58660	-0.28230
0.0000	0.60420	-0.29020	0.56800	-0.22490	0.14650	-0.66760	0.58710	-0.00920
0.0000	0.60260	-0.29050	0.56830	-0.18020	0.14540	-0.66810	0.58790	0.06810
0.0000	0.60050	-0.29140	0.56840	-0.22040	0.14400	-0.66870	0.58870	0.04700
0.0000	0.59820	-0.29220	0.56860	-0.30250	0.14280	-0.66940	0.58950	0.00240
0.0000	0.59640	-0.29260	0.56880	-0.07730	0.14160	-0.67030	0.59020	-0.16140
0.0000	0.59570	-0.29280	0.56900	-0.03620	0.14040	-0.67100	0.59090	-0.23270
0.0000	0.59530	-0.29280	0.56910	-0.07970	0.13940	-0.67170	0.59160	-0.38330
0.0000	0.59460	-0.29310	0.56910	-0.15800	0.13800	-0.67240	0.59220	-0.49160
0.0000	0.59380	-0.29360	0.56900	-0.14560	0.13660	-0.67300	0.59290	-0.49380
0.0000	0.59320	-0.29410	0.56880	-0.22000	0.13550	-0.67340	0.59380	-0.23710
0.0000	0.59280	-0.29460	0.56860	-0.25970	0.13540	-0.67350	0.59490	-0.25390
0.0000	0.59240	-0.29520	0.56830	-0.18550	0.13560	-0.67290	0.59680	-0.36980
0.0000	0.59230	-0.29580	0.56790	-0.20270	0.13580	-0.67280	0.59830	-0.58600
0.0000	0.59270	-0.29630	0.56730	-0.24810	0.13550	-0.67310	0.59910	-0.56150
0.0000	0.59300	-0.29670	0.56680	-0.17190	0.13520	-0.67360	0.59970	-0.06220
0.0000	0.59280	-0.29740	0.56640	-0.18290	0.13510	-0.67310	0.60140	-0.04620
0.0000	0.59230	-0.29820	0.56610	-0.26690	0.13520	-0.67260	0.60310	-0.33040
0.0000	0.59180	-0.29910	0.56590	-0.09390	0.13520	-0.67220	0.60450	-0.48520
0.0000	0.59130	-0.29980	0.56570	0.08550	0.13510	-0.67200	0.60540	-0.49990
0.0000	0.59120	-0.30030	0.56540	-0.05800	0.13450	-0.67200	0.60600	-0.42640
0.0000	0.59100	-0.30060	0.56540	0.02250	0.13390	-0.67260	0.60610	-0.48880
0.0000	0.59060	-0.30090	0.56550	-0.06400	0.13320	-0.67300	0.60620	-0.36980
0.0000	0.58950	-0.30130	0.56590	-0.01550	0.13260	-0.67320	0.60640	-0.12840
0.0000	0.58800	-0.30180	0.56640	0.01120	0.13230	-0.67310	0.60690	-0.22800
0.0000	0.58690	-0.30230	0.56680	0.13770	0.13170	-0.67320	0.60740	-0.42220
0.0000	0.58620	-0.30260	0.56730	0.10550	0.13040	-0.67380	0.60750	-0.12900
0.0000	0.58590	-0.30250	0.56780	-0.02670	0.12910	-0.67470	0.60750	-0.04100
0.0000	0.58550	-0.30240	0.56820	-0.31850	0.12800	-0.67560	0.60750	0.02190
0.0000	0.58500	-0.30230	0.56860	-0.41050	0.12660	-0.67620	0.60780	-0.08680
0.0000	0.58450	-0.30210	0.56890	-0.19750	0.12510	-0.67670	0.60850	-0.06680
0.0000	0.58380	-0.30220	0.56910	-0.19720	0.12410	-0.67730	0.60900	0.04550
0.0000	0.58290	-0.30290	0.56910	-0.43240	0.12290	-0.67770	0.60990	0.24760
0.0000	0.58180	-0.30360	0.56890	-0.45370	0.12200	-0.67790	0.61130	0.19030
0.0000	0.58130	-0.30400	0.56850	-0.43460	0.12170	-0.67780	0.61290	-0.06150
0.0000	0.58150	-0.30440	0.56790	-0.41810	0.12170	-0.67730	0.61460	-0.19640
0.0000	0.58150	-0.30450	0.56750	-0.18060	0.12190	-0.67680	0.61620	-0.32680
0.0000	0.58130	-0.30490	0.56720	-0.02190	0.12200	-0.67670	0.61720	-0.67080
0.0000	0.58040	-0.30570	0.56700	-0.03700	0.12200	-0.67720	0.61750	-0.57100
0.0000	0.57900	-0.30650	0.56710	0.05550	0.12210	-0.67760	0.61780	-0.51330
0.0000	0.57830	-0.30700	0.56730	0.16930	0.12240	-0.67730	0.61860	-0.13500
0.0000	0.57800	-0.30710	0.56760	0.19580	0.12270	-0.67680	0.61980	-0.26320
0.0000	0.57830	-0.30700	0.56800	0.08800	0.12270	-0.67720	0.62000	-0.79920
0.0000	0.57870	-0.30700	0.56830	-0.13170	0.12210	-0.67890	0.61870	-0.70080
0.0000	0.57930	-0.30710	0.56830	-0.26960	0.12110	-0.68070	0.61740	-0.13380
0.0000	0.57950	-0.30730	0.56840	-0.26650	0.12030	-0.68200	0.61690	0.00870
0.0000	0.57960	-0.30760	0.56840	-0.20070	0.11950	-0.68230	0.61750	0.12250
0.0000	0.57990	-0.30780	0.56840	-0.12910	0.11850	-0.68210	0.61890	0.26410
0.0000	0.58030	-0.30810	0.56830	-0.15590	0.11790	-0.68210	0.62010	0.09960
0.0000	0.58060	-0.30830	0.56820	-0.23620	0.11710	-0.68290	0.62060	-0.02300
0.0000	0.58090	-0.30840	0.56810	-0.24460	0.11620	-0.68400	0.62080	0.15710
0.0000	0.58130	-0.30840	0.56810	-0.26570	0.11580	-0.68480	0.62130	0.32840
0.0000	0.58140	-0.30840	0.56810	-0.24960	0.11600	-0.68490	0.62250	0.18400
0.0000	0.58130	-0.30820	0.56820	-0.27570	0.11670	-0.68480	0.62390	-0.10750
0.0000	0.58110	-0.30810	0.56830	-0.19020	0.11750	-0.68500	0.62480	-0.25210
0.0000	0.58080	-0.30810	0.56830	-0.13260	0.11810	-0.68570	0.62530	-0.26660
0.0000	0.58050	-0.30790	0.56850	-0.10810	0.11800	-0.68660	0.62570	-0.32720
0.0000	0.58050	-0.30770	0.56860	-0.22520	0.11770	-0.68760	0.62590	-0.19190
0.0000	0.58040	-0.30760	0.56860	-0.29330	0.11760	-0.68840	0.62620	-0.29660
0.0000	0.58010	-0.30780	0.56860	-0.34030	0.11760	-0.68920	0.62650	-0.47290
0.0000	0.57970	-0.30790	0.56870	-0.20970	0.11750	-0.68980	0.62670	-0.44740
0.0000	0.57950	-0.30820	0.56860	-0.16780	0.11740	-0.69030	0.62700	-0.35660
0.0000	0.08510	-0.65100	-0.07380	-0.13690	-0.66060	-0.23330	-0.22800	0.25860
0.0000	0.08490	-0.65130	-0.07360	-0.24360	-0.66070	-0.23310	-0.22670	0.26620
0.0000	0.08480	-0.65160	-0.07340	-0.25250	-0.66080	-0.23280	-0.22550	0.30110
0.0000	0.08470	-0.65170	-0.07340	-0.23660	-0.66060	-0.23270	-0.22460	0.16920
0.0000	0.08460	-0.65180	-0.07340	-0.28890	-0.66030	-0.23270	-0.22380	-0.00380
0.0000	0.08470	-0.65200	-0.07340	-0.27250	-0.65980	-0.23280	-0.22280	0.06540
0.0000	0.08470	-0.65190	-0.07350	-0.30950	-0.66010	-0.23300	-0.22180	0.30480
0.0000	0.08460	-0.65170	-0.07370	-0.24370	-0.66060	-0.23280	-0.22100	0.26920
0.0000	0.08460	-0.65170	-0.07380	-0.20100	-0.66100	-0.23250	-0.22020	0.05450
0.0000	0.08480	-0.65180	-0.07390	-0.17990	-0.66100	-0.23220	-0.21930	-0.15690
0.0000	0.08480	-0.65180	-0.07390	-0.22500	-0.66100	-0.23200	-0.21800	0.09920
0.0000	0.08480	-0.65190	-0.07390	-0.24170	-0.66130	-0.23170	-0.21700	0.19210
0.0000	0.08450	-0.65160	-0.07400	-0.15550	-0.66190	-0.23130	-0.21610	0.04190
0.0000	0.08420	-0.65150	-0.07410	-0.11890	-0.66220	-0.23140	-0.21500	0.01780
0.0000	0.08410	-0.65160	-0.07410	-0.20890	-0.66210	-0.23150	-0.21400	-0.01510
0.0000	0.08420	-0.65180	-0.07380	-0.36120	-0.66180	-0.23160	-0.21280	0.06420
0.0000	0.08430	-0.65180	-0.07350	-0.23980	-0.66190	-0.23200	-0.21160	0.21050
0.0000	0.08440	-0.65180	-0.07310	-0.12130	-0.66200	-0.23210	-0.21050	0.15200
0.0000	0.08480	-0.65210	-0.07280	-0.15600	-0.66210	-0.23220	-0.20950	-0.01260
0.0000	0.08520	-0.65230	-0.07240	-0.25520	-0.66220	-0.23230	-0.20840	0.01580
0.0000	0.08560	-0.65250	-0.07200	-0.31710	-0.66270	-0.23220	-0.20730	0.19310
0.0000	0.08590	-0.65270	-0.07180	-0.24160	-0.66360	-0.23170	-0.20630	-0.02390
0.0000	0.08590	-0.65280	-0.07180	-0.09980	-0.66430	-0.23160	-0.20490	-0.19610
0.0000	0.08600	-0.65280	-0.07180	-0.06500	-0.66430	-0.23130	-0.20340	-0.27890
0.0000	0.08620	-0.65310	-0.07180	-0.12670	-0.66400	-0.23110	-0.20170	-0.02380
0.0000	0.08610	-0.65320	-0.07190	-0.27980	-0.66430	-0.23100	-0.20020	0.14170
0.0000	0.08590	-0.65340	-0.07170	-0.30250	-0.66520	-0.23080	-0.19870	0.04500
0.0000	0.08590	-0.65350	-0.07140	-0.20140	-0.66620	-0.23100	-0.19700	-0.03380
0.0000	0.08590	-0.65350	-0.07110	-0.10510	-0.66620	-0.23110	-0.19560	-0.05110
0.0000	0.08600	-0.65360	-0.07080	-0.09310	-0.66580	-0.23150	-0.19390	0.00660
0.0000	0.08630	-0.65380	-0.07040	-0.26090	-0.66560	-0.23190	-0.19230	0.23970
0.0000	0.08650	-0.65380	-0.07010	-0.32600	-0.66610	-0.23230	-0.19050	0.17770
0.0000	0.08660	-0.65370	-0.06990	-0.27740	-0.66720	-0.23230	-0.18850	0.19250
0.0000	0.08630	-0.65340	-0.06990	-0.03570	-0.66830	-0.23210	-0.18650	-0.03130
0.0000	0.08620	-0.65330	-0.06990	-0.00870	-0.66870	-0.23180	-0.18410	-0.18270
0.0000	0.08620	-0.65340	-0.06980	-0.16560	-0.66860	-0.23160	-0.18170	-0.11380
0.0000	0.08640	-0.65360	-0.06960	-0.23540	-0.66870	-0.23130	-0.17930	-0.06570
0.0000	0.08650	-0.65370	-0.06940	-0.21780	-0.66950	-0.23100	-0.17690	0.08480
0.0000	0.08680	-0.65390	-0.06910	-0.14890	-0.67070	-0.23060	-0.17460	0.04150
0.0000	0.08720	-0.65410	-0.06880	-0.22450	-0.67160	-0.23030	-0.17260	-0.06640
0.0000	0.08760	-0.65430	-0.06850	-0.22310	-0.67170	-0.23010	-0.17040	-0.07350
0.0000	0.08790	-0.65440	-0.06820	-0.18070	-0.67190	-0.23020	-0.16800	0.05220
0.0000	0.08810	-0.65460	-0.06800	-0.09360	-0.67240	-0.23000	-0.16560	0.16270
0.0000	0.08820	-0.65480	-0.06780	-0.08260	-0.67320	-0.22980	-0.16320	0.11990
0.0000	0.08820	-0.65500	-0.06760	-0.16660	-0.67380	-0.22960	-0.16100	0.08090
0.0000	0.08820	-0.65510	-0.06740	-0.20160	-0.67420	-0.22940	-0.15890	0.07000
0.0000	0.08810	-0.65530	-0.06720	-0.13620	-0.67460	-0.22930	-0.15700	0.10380
0.0000	0.08790	-0.65530	-0.06700	-0.16010	-0.67510	-0.22920	-0.15530	0.08060
0.0000	0.08770	-0.65540	-0.06680	-0.23540	-0.67580	-0.22910	-0.15370	0.08700
0.0000	0.08750	-0.65540	-0.06660	-0.26950	-0.67660	-0.22910	-0.15210	0.07470
0.0000	0.08740	-0.65540	-0.06650	-0.22430	-0.67730	-0.22880	-0.15060	0.00550
0.0000	0.08730	-0.65530	-0.06640	-0.11910	-0.67800	-0.22860	-0.14900	-0.05970
0.0000	0.08720	-0.65540	-0.06620	-0.12280	-0.67860	-0.22850	-0.14740	-0.08620
0.0000	0.08710	-0.65530	-0.06610	-0.18730	-0.67910	-0.22840	-0.14570	-0.06410
0.0000	0.08690	-0.65510	-0.06610	-0.25030	-0.67990	-0.22800	-0.14380	0.00860
0.0000	0.08680	-0.65490	-0.06610	-0.24120	-0.68080	-0.22750	-0.14200	-0.03180
0.0000	0.08670	-0.65480	-0.06600	-0.13580	-0.68150	-0.22700	-0.14010	-0.18330
0.0000	0.08680	-0.65490	-0.06600	-0.06410	-0.68170	-0.22660	-0.13820	-0.11850
0.0000	0.08710	-0.65490	-0.06590	-0.12800	-0.68190	-0.22630	-0.13630	-0.00510
0.0000	0.08730	-0.65490	-0.06600	-0.20000	-0.68230	-0.22610	-0.13450	0.04160
0.0000	0.08710	-0.65490	-0.06620	-0.14710	-0.68280	-0.22600	-0.13260	0.12020
0.0000	0.08680	-0.65500	-0.06650	-0.10480	-0.68330	-0.22560	-0.13080	0.14020
0.0000	0.08660	-0.65500	-0.06680	-0.10010	-0.68380	-0.22540	-0.12900	0.05570
0.0000	0.08650	-0.65510	-0.06700	-0.12840	-0.68400	-0.22510	-0.12750	0.02670
0.0000	0.08640	-0.65520	-0.06730	-0.22530	-0.68400	-0.22490	-0.12600	0.02680
0.0000	0.08620	-0.65510	-0.06750	-0.21250	-0.68430	-0.22480	-0.12460	0.13980
0.0000	0.08610	-0.65510	-0.06770	-0.12370	-0.68470	-0.22480	-0.12360	0.17770
0.0000	0.08600	-0.65510	-0.06790	-0.09290	-0.68510	-0.22480	-0.12270	0.07780
0.0000	0.08590	-0.65510	-0.06800	-0.16600	-0.68550	-0.22490	-0.12170	0.05290
0.0000	0.08590	-0.65520	-0.06800	-0.28150	-0.68560	-0.22460	-0.12080	0.09620
0.0000	0.08590	-0.65520	-0.06800	-0.19630	-0.68570	-0.22430	-0.12010	0.04360
0.0000	0.08580	-0.65520	-0.06800	-0.08320	-0.68610	-0.22430	-0.11910	0.03570
0.0000	0.08560	-0.65520	-0.06820	-0.13270	-0.68660	-0.22420	-0.11820	0.01030
0.0000	0.08540	-0.65510	-0.06840	-0.20190	-0.68700	-0.22390	-0.11720	-0.07100
0.0000	0.08520	-0.65510	-0.06830	-0.21500	-0.68730	-0.22380	-0.11600	-0.04360
0.0000	0.08480	-0.65510	-0.06830	-0.15820	-0.68760	-0.22360	-0.11480	0.00020
0.0000	0.08420	-0.65510	-0.06840	-0.06380	-0.68790	-0.22360	-0.11360	-0.04420
0.0000	0.08370	-0.65510	-0.06840	-0.10810	-0.68800	-0.22370	-0.11240	-0.04050
0.0000	0.08350	-0.65530	-0.06830	-0.22000	-0.68790	-0.22370	-0.11130	-0.04340
0.0000	0.08340	-0.65550	-0.06800	-0.23070	-0.68790	-0.22380	-0.11020	0.02880
0.0000	0.08310	-0.65570	-0.06780	-0.16600	-0.68820	-0.22390	-0.10940	0.06640
0.0000	0.08280	-0.65590	-0.06770	-0.15090	-0.68880	-0.22400	-0.10850	-0.03570
0.0000	0.08240	-0.65600	-0.06780	-0.22690	-0.68910	-0.22440	-0.10750	-0.01460
0.0000	0.08220	-0.65600	-0.06780	-0.21690	-0.68900	-0.22460	-0.10640	-0.07960
0.0000	0.08210	-0.65600	-0.06780	-0.11920	-0.68870	-0.22440	-0.10530	-0.12110
0.0000	0.08190	-0.65600	-0.06780	-0.10720	-0.68870	-0.22430	-0.10410	-0.04940
0.0000	0.08170	-0.65600	-0.06800	-0.18150	-0.68910	-0.22430	-0.10300	-0.00040
0.0000	0.08150	-0.65590	-0.06800	-0.19420	-0.68940	-0.22430	-0.10200	0.03040
0.0000	0.08130	-0.65590	-0.06810	-0.09550	-0.68960	-0.22420	-0.10120	-0.10210
0.0000	0.08110	-0.65600	-0.06810	-0.04140	-0.68970	-0.22400	-0.10010	-0.08370
0.0000	0.08100	-0.65600	-0.06810	-0.11330	-0.68970	-0.22380	-0.09910	0.03860
0.0000	0.08090	-0.65600	-0.06810	-0.24510	-0.68990	-0.22370	-0.09820	0.10650
0.0000	0.08060	-0.65590	-0.06820	-0.21780	-0.69030	-0.22360	-0.09720	0.05780
0.0000	0.08030	-0.65600	-0.06820	-0.12190	-0.69060	-0.22350	-0.09620	0.05680
0.0000	0.08010	-0.65590	-0.06820	-0.17850	-0.69060	-0.22350	-0.09510	-0.01770
0.0000	0.07980	-0.65580	-0.06830	-0.13160	-0.69030	-0.22350	-0.09420	-0.04230
0.0000	0.07950	-0.65570	-0.06840	-0.10250	-0.68990	-0.22350	-0.09320	0.05180
0.0000	0.07920	-0.65560	-0.06850	-0.11440	-0.68990	-0.22350	-0.09220	0.10490
0.0000	0.07880	-0.65550	-0.06850	-0.16890	-0.69060	-0.22330	-0.09140	0.04350
0.0000	0.07850	-0.65530	-0.06850	-0.15460	-0.69110	-0.22330	-0.09060	-0.03240
0.0000	0.07820	-0.65510	-0.06840	-0.14970	-0.69110	-0.22320	-0.08990	-0.10160
0.0000	0.07790	-0.65490	-0.06850	-0.13580	-0.69080	-0.22300	-0.08920	-0.03230
0.0000	0.07780	-0.65470	-0.06840	-0.16980	-0.69070	-0.22290	-0.08850	-0.00730
0.0000	0.07770	-0.65460	-0.06830	-0.17160	-0.69120	-0.22280	-0.08790	0.05480
0.0000	0.07750	-0.65450	-0.06810	-0.13600	-0.69190	-0.22290	-0.08720	-0.04550
0.0000	0.07740	-0.65450	-0.06780	-0.07620	-0.69210	-0.22260	-0.08630	-0.08020
0.0000	0.07730	-0.65440	-0.06760	-0.10650	-0.69220	-0.22240	-0.08520	-0.10400
0.0000	0.07700	-0.65440	-0.06750	-0.12550	-0.69210	-0.22230	-0.08410	-0.06510
0.0000	0.07670	-0.65440	-0.06750	-0.14650	-0.69220	-0.22200	-0.08290	-0.08790
0.0000	0.07640	-0.65440	-0.06760	-0.18650	-0.69230	-0.22190	-0.08160	-0.12170
0.0000	0.07610	-0.65440	-0.06760	-0.16550	-0.69260	-0.22180	-0.08030	-0.05370
0.0000	0.07600	-0.65450	-0.06750	-0.11260	-0.69270	-0.22170	-0.07910	0.01620
0.0000	0.07610	-0.65440	-0.06710	-0.15690	-0.69260	-0.22170	-0.07790	-0.05850
0.0000	0.07590	-0.65420	-0.06710	-0.18310	-0.69240	-0.22150	-0.07680	-0.07390
0.0000	0.07590	-0.65410	-0.06700	-0.20320	-0.69240	-0.22170	-0.07560	-0.04390
0.0000	0.07590	-0.65400	-0.06680	-0.14580	-0.69230	-0.22180	-0.07440	-0.00810
0.0000	0.07580	-0.65390	-0.06660	-0.16360	-0.69220	-0.22170	-0.07310	0.04980
0.0000	0.07560	-0.65360	-0.06650	-0.11320	-0.69240	-0.22160	-0.07190	0.07460
0.0000	0.07530	-0.65340	-0.06650	-0.01320	-0.69270	-0.22140	-0.07060	0.06910
0.0000	0.07500	-0.65330	-0.06650	-0.07820	-0.69300	-0.22110	-0.06930	-0.00520
0.0000	0.07470	-0.65310	-0.06650	-0.19000	-0.69310	-0.22090	-0.06780	-0.05650
0.0000	0.07440	-0.65290	-0.06640	-0.19510	-0.69330	-0.22070	-0.06640	-0.04890
0.0000	0.07400	-0.65270	-0.06640	-0.11470	-0.69340	-0.22050	-0.06490	-0.06000
0.0000	0.07380	-0.65250	-0.06620	-0.06360	-0.69350	-0.22030	-0.06340	-0.00720
0.0000	0.07350	-0.65230	-0.06620	-0.10170	-0.69370	-0.22000	-0.06200	-0.01870
0.0000	0.07330	-0.65210	-0.06610	-0.21310	-0.69400	-0.21980	-0.06050	-0.03220
0.0000	0.07320	-0.65180	-0.06610	-0.20110	-0.69430	-0.21970	-0.05900	-0.02610
0.0000	0.07320	-0.65160	-0.06600	-0.11870	-0.69460	-0.21950	-0.05730	-0.04450
0.0000	0.07310	-0.65140	-0.06570	-0.05050	-0.69480	-0.21930	-0.05560	-0.07050
0.0000	0.07320	-0.65120	-0.06540	-0.09160	-0.69470	-0.21910	-0.05380	0.01240
0.0000	0.07310	-0.65100	-0.06520	-0.07140	-0.69470	-0.21880	-0.05200	0.02760
0.0000	0.07320	-0.65090	-0.06500	-0.09070	-0.69490	-0.21830	-0.05020	0.08420
0.0000	0.07310	-0.65080	-0.06490	-0.15020	-0.69530	-0.21820	-0.04840	0.02070
0.0000	0.07310	-0.65060	-0.06480	-0.14880	-0.69570	-0.21800	-0.04670	-0.05610
0.0000	0.07290	-0.65040	-0.06490	-0.11420	-0.69560	-0.21770	-0.04500	-0.02070
0.0000	0.07260	-0.65020	-0.06500	-0.13690	-0.69550	-0.21770	-0.04330	0.05370
0.0000	0.07240	-0.64990	-0.06510	-0.12370	-0.69550	-0.21740	-0.04170	0.04120
0.0000	0.07220	-0.64970	-0.06530	-0.10240	-0.69570	-0.21750	-0.04010	-0.04850
0.0000	0.07220	-0.64950	-0.06530	-0.08170	-0.69570	-0.21760	-0.03860	-0.01820
0.0000	0.07210	-0.64940	-0.06530	-0.03160	-0.69560	-0.21760	-0.03710	0.06100
0.0000	0.07190	-0.64940	-0.06550	-0.10900	-0.69570	-0.21760	-0.03590	0.11860
0.0000	0.07150	-0.64930	-0.06570	-0.10810	-0.69590	-0.21760	-0.03490	0.12720
0.0000	0.07090	-0.64910	-0.06610	-0.13260	-0.69600	-0.21750	-0.03400	0.01700
0.0000	0.07060	-0.64900	-0.06630	-0.14700	-0.69590	-0.21760	-0.03300	-0.05120
0.0000	0.07040	-0.64900	-0.06640	-0.22950	-0.69560	-0.21750	-0.03210	0.05660
0.0000	0.07040	-0.64890	-0.06640	-0.22020	-0.69530	-0.21740	-0.03120	0.02570
0.0000	0.07040	-0.64880	-0.06650	-0.18130	-0.69520	-0.21750	-0.03040	0.08850
0.0000	0.07030	-0.64870	-0.06660	-0.12550	-0.69510	-0.21750	-0.02970	0.05830
0.0000	0.07020	-0.64850	-0.06680	-0.07910	-0.69490	-0.21740	-0.02910	0.04060
0.0000	0.06980	-0.64830	-0.06720	-0.11540	-0.69480	-0.21730	-0.02840	-0.01510
0.0000	0.06970	-0.64810	-0.06740	-0.12320	-0.69490	-0.21720	-0.02770	0.00060
0.0000	0.06950	-0.64800	-0.06760	-0.13970	-0.69500	-0.21690	-0.02690	0.04010
0.0000	0.06950	-0.64790	-0.06790	-0.18930	-0.69530	-0.21650	-0.02620	-0.01150
0.0000	0.06940	-0.64770	-0.06800	-0.18060	-0.69560	-0.21620	-0.02560	-0.02100
0.0000	0.06940	-0.64750	-0.06820	-0.14210	-0.69570	-0.21600	-0.02500	-0.03240
0.0000	0.06930	-0.64730	-0.06830	-0.14660	-0.69570	-0.21600	-0.02440	-0.03590
0.0000	0.06930	-0.64710	-0.06830	-0.11950	-0.69560	-0.21600	-0.02370	0.03420
0.0000	0.06930	-0.64710	-0.06830	-0.13140	-0.69550	-0.21590	-0.02310	-0.04290
0.0000	0.06950	-0.64710	-0.06820	-0.11170	-0.69540	-0.21580	-0.02240	-0.00300
0.0000	0.06960	-0.64720	-0.06810	-0.09810	-0.69540	-0.21570	-0.02180	0.00830
0.0000	0.06960	-0.64720	-0.06800	-0.08340	-0.69540	-0.21540	-0.02130	-0.03290
0.0000	0.06940	-0.64730	-0.06800	-0.11790	-0.69540	-0.21540	-0.02090	-0.03200
0.0000	0.06930	-0.64740	-0.06800	-0.16790	-0.69530	-0.21520	-0.02040	-0.04260
0.0000	0.06920	-0.64750	-0.06810	-0.10760	-0.69490	-0.21500	-0.01980	-0.10080
0.0000	0.06910	-0.64760	-0.06810	-0.08810	-0.69460	-0.21490	-0.01920	-0.01400
0.0000	0.06910	-0.64780	-0.06810	-0.10680	-0.69440	-0.21500	-0.01880	-0.04060
0.0000	0.06890	-0.64800	-0.06820	-0.15340	-0.69430	-0.21510	-0.01840	-0.03800
0.0000	0.06870	-0.64800	-0.06850	-0.22930	-0.69420	-0.21520	-0.01820	0.03570
0.0000	0.06840	-0.64800	-0.06860	-0.24670	-0.69410	-0.21540	-0.01810	-0.01120
0.0000	0.06810	-0.64800	-0.06890	-0.21060	-0.69390	-0.21550	-0.01810	-0.03580
0.0000	0.06830	-0.64800	-0.06890	-0.15150	-0.69360	-0.21570	-0.01820	-0.03010
0.0000	0.06850	-0.64800	-0.06890	-0.16460	-0.69330	-0.21590	-0.01830	0.02770
0.0000	0.06870	-0.64800	-0.06900	-0.18250	-0.69310	-0.21620	-0.01840	0.10700
0.0000	0.06900	-0.64800	-0.06890	-0.14890	-0.69320	-0.21640	-0.01840	0.11870
0.0000	0.06910	-0.64810	-0.06900	-0.12980	-0.69330	-0.21650	-0.01830	0.04420
0.0000	0.06940	-0.64810	-0.06890	-0.04110	-0.69340	-0.21660	-0.01790	-0.00020
0.0000	0.06970	-0.64810	-0.06870	-0.02760	-0.69340	-0.21660	-0.01750	0.05180
0.0000	0.07020	-0.64790	-0.06830	-0.08300	-0.69340	-0.21660	-0.01720	-0.03580
0.0000	0.07070	-0.64750	-0.06820	-0.19800	-0.69350	-0.21690	-0.01680	-0.02900
0.0000	0.07100	-0.64710	-0.06840	-0.28020	-0.69350	-0.21710	-0.01640	-0.02120
0.0000	0.07110	-0.64660	-0.06880	-0.22820	-0.69340	-0.21730	-0.01610	-0.03140
0.0000	0.07160	-0.64630	-0.06920	-0.19620	-0.69310	-0.21760	-0.01590	0.00160
0.0000	0.07260	-0.64640	-0.06950	-0.03280	-0.69260	-0.21800	-0.01600	0.02730
0.0000	0.07390	-0.64670	-0.06960	0.10210	-0.69220	-0.21840	-0.01620	0.05580
0.0000	0.07480	-0.64690	-0.07010	-0.02230	-0.69180	-0.21870	-0.01660	0.02940
0.0000	0.07510	-0.64700	-0.07100	-0.07740	-0.69160	-0.21910	-0.01720	0.01880
0.0000	0.07540	-0.64710	-0.07170	-0.09440	-0.69120	-0.21940	-0.01820	0.09750
0.0000	0.07550	-0.64730	-0.07250	-0.08110	-0.69050	-0.21990	-0.01960	0.16680
0.0000	0.07630	-0.64740	-0.07270	-0.07350	-0.68960	-0.22050	-0.02170	0.15910
0.0000	0.07670	-0.64770	-0.07320	-0.04380	-0.68850	-0.22130	-0.02450	0.21650
0.0000	0.07710	-0.64820	-0.07360	-0.10080	-0.68780	-0.22280	-0.02790	0.37990
0.0000	0.07740	-0.64850	-0.07410	-0.16190	-0.68720	-0.22430	-0.03160	0.47670
0.0000	0.07790	-0.64900	-0.07440	-0.15250	-0.68610	-0.22530	-0.03530	0.41460
0.0000	0.07850	-0.64940	-0.07470	-0.17760	-0.68470	-0.22630	-0.03910	0.28090
0.0000	0.07910	-0.64960	-0.07490	-0.10720	-0.68310	-0.22710	-0.04290	0.17370
0.0000	0.07940	-0.64970	-0.07520	-0.05090	-0.68150	-0.22790	-0.04680	0.14870
0.0000	0.07970	-0.65000	-0.07560	0.07170	-0.68030	-0.22880	-0.05080	0.18280
0.0000	0.08040	-0.65050	-0.07600	-0.09380	-0.67900	-0.22940	-0.05460	0.15320
0.0000	0.08130	-0.65090	-0.07650	-0.18320	-0.67790	-0.23010	-0.05830	0.03600
0.0000	0.08220	-0.65140	-0.07710	-0.15090	-0.67670	-0.23070	-0.06200	0.03030
0.0000	0.08290	-0.65210	-0.07790	0.02430	-0.67550	-0.23140	-0.06570	0.00650
0.0000	0.08360	-0.65290	-0.07870	-0.08920	-0.67420	-0.23220	-0.06940	0.01460
0.0000	0.08460	-0.65320	-0.07960	-0.35300	-0.67280	-0.23320	-0.07310	-0.00580
0.0000	0.08600	-0.65330	-0.08040	-0.30360	-0.67130	-0.23430	-0.07660	0.11570
0.0000	0.08730	-0.65360	-0.08130	-0.15140	-0.66970	-0.23520	-0.08020	0.10300
0.0000	0.08850	-0.65390	-0.08220	-0.08760	-0.66780	-0.23640	-0.08430	0.12430
0.0000	0.08950	-0.65420	-0.08300	-0.07170	-0.66580	-0.23790	-0.08870	0.28600
0.0000	0.09060	-0.65450	-0.08370	-0.05510	-0.66390	-0.23940	-0.09360	0.54810
0.0000	0.09140	-0.65460	-0.08450	-0.06890	-0.66230	-0.24070	-0.09880	0.64790
0.0000	0.09170	-0.65460	-0.08560	-0.03200	-0.66090	-0.24200	-0.10420	0.50330
0.0000	0.09220	-0.65480	-0.08680	-0.05410	-0.65900	-0.24330	-0.11010	0.46660
0.0000	0.09270	-0.65470	-0.08810	-0.21400	-0.65660	-0.24470	-0.11630	0.34040
0.0000	0.09260	-0.65430	-0.08960	-0.21080	-0.65420	-0.24630	-0.12250	0.41570
0.0000	0.09250	-0.65370	-0.09080	-0.24770	-0.65210	-0.24830	-0.12890	0.33190
0.0000	0.09280	-0.65320	-0.09180	-0.27330	-0.65020	-0.25030	-0.13530	0.26870
0.0000	0.09370	-0.65300	-0.09250	-0.31240	-0.64780	-0.25210	-0.14150	0.15460
0.0000	0.09500	-0.65260	-0.09320	-0.26540	-0.64520	-0.25390	-0.14780	0.07180
0.0000	0.09630	-0.65210	-0.09400	-0.05780	-0.64240	-0.25570	-0.15400	-0.04070
0.0000	0.09710	-0.65150	-0.09500	0.16740	-0.63960	-0.25700	-0.16010	0.04050
0.0000	0.09770	-0.65130	-0.09600	0.18570	-0.63740	-0.25850	-0.16590	0.04440
0.0000	0.09860	-0.65160	-0.09650	0.04470	-0.63550	-0.25970	-0.17140	0.24350
0.0000	0.09950	-0.65200	-0.09690	-0.11020	-0.63350	-0.25980	-0.17650	0.11050
0.0000	0.10010	-0.65220	-0.09740	-0.15440	-0.63100	-0.25930	-0.18130	-0.03730
0.0000	0.10060	-0.65260	-0.09790	-0.12530	-0.62830	-0.25950	-0.18620	-0.12360
0.0000	0.10100	-0.65320	-0.09840	-0.06330	-0.62480	-0.26020	-0.19140	0.06360
0.0000	0.10150	-0.65370	-0.09880	-0.14630	-0.62170	-0.26200	-0.19660	0.29090
0.0000	0.10180	-0.65390	-0.09950	-0.26950	-0.61870	-0.26360	-0.20170	0.43750
0.0000	0.10220	-0.65410	-0.10030	-0.23570	-0.61570	-0.26540	-0.20660	0.29490
0.0000	0.10280	-0.65410	-0.10110	-0.18430	-0.61240	-0.26730	-0.21160	0.22400
0.0000	0.10350	-0.65420	-0.10190	-0.11060	-0.60870	-0.26940	-0.21670	0.08990
0.0000	0.10430	-0.65430	-0.10280	-0.01220	-0.60450	-0.27170	-0.22180	0.18810
0.0000	0.10540	-0.65460	-0.10350	-0.10040	-0.60120	-0.27340	-0.22710	0.36100
0.0000	0.10660	-0.65470	-0.10450	-0.22130	-0.59860	-0.27540	-0.23240	0.14240
0.0000	0.10760	-0.65470	-0.10570	-0.06660	-0.59590	-0.27710	-0.23730	-0.05290
0.0000	0.10820	-0.65460	-0.10690	-0.03830	-0.59310	-0.27840	-0.24190	0.07410
0.0000	0.10840	-0.65430	-0.10830	0.03440	-0.59070	-0.28030	-0.24610	-0.08180
0.0000	0.10880	-0.65440	-0.10950	-0.01290	-0.58860	-0.28220	-0.25010	-0.01230
0.0000	0.10970	-0.65440	-0.11060	-0.10890	-0.58610	-0.28410	-0.25380	0.14210
0.0000	0.11070	-0.65440	-0.11170	-0.10170	-0.58380	-0.28610	-0.25750	0.34910
0.0000	0.11180	-0.65440	-0.11270	-0.02900	-0.58150	-0.28810	-0.26140	0.36080
0.0000	0.11280	-0.65450	-0.11380	-0.01240	-0.57930	-0.29020	-0.26540	0.31070
0.0000	0.11360	-0.65440	-0.11480	-0.03810	-0.57710	-0.29210	-0.26950	0.42870
0.0000	0.11420	-0.65440	-0.11590	-0.05960	-0.57530	-0.29410	-0.27370	0.27130
0.0000	0.11470	-0.65430	-0.11690	-0.09360	-0.57280	-0.29570	-0.27750	-0.01610
0.0000	0.11540	-0.65430	-0.11760	-0.12440	-0.57040	-0.29770	-0.28120	0.04970
0.0000	0.11640	-0.65470	-0.11790	-0.07740	-0.56770	-0.29960	-0.28490	0.32550
0.0000	0.11730	-0.65510	-0.11820	-0.00380	-0.56530	-0.30140	-0.28890	0.43610
0.0000	0.11780	-0.65530	-0.11900	0.05720	-0.56360	-0.30290	-0.29300	0.45340
0.0000	0.11780	-0.65540	-0.12010	-0.02940	-0.56200	-0.30450	-0.29710	0.05260
0.0000	0.11790	-0.65550	-0.12090	-0.09930	-0.55980	-0.30640	-0.30070	-0.06830
0.0000	0.11800	-0.65600	-0.12140	-0.06850	-0.55730	-0.30840	-0.30400	0.12960
0.0000	0.11800	-0.65630	-0.12180	-0.11240	-0.55500	-0.31020	-0.30740	0.26970
0.0000	0.11780	-0.65650	-0.12230	-0.19610	-0.55300	-0.31180	-0.31100	0.04510
0.0000	0.11820	-0.65690	-0.12240	-0.32140	-0.55070	-0.31360	-0.31460	-0.04890
0.0000	0.11910	-0.65740	-0.12220	-0.29270	-0.54850	-0.31560	-0.31810	-0.02640
0.0000	0.11980	-0.65760	-0.12220	-0.13900	-0.54600	-0.31750	-0.32160	0.16090
0.0000	0.12030	-0.65800	-0.12220	-0.01380	-0.54420	-0.31920	-0.32500	0.14890
0.0000	0.12080	-0.65830	-0.12210	-0.11360	-0.54250	-0.32080	-0.32840	0.08880
0.0000	0.12140	-0.65860	-0.12200	-0.15410	-0.54100	-0.32220	-0.33130	-0.35190
0.0000	0.12170	-0.65880	-0.12210	-0.14230	-0.53910	-0.32330	-0.33370	-0.28140
0.0000	0.12180	-0.65900	-0.12230	-0.06550	-0.53790	-0.32440	-0.33590	-0.04910
0.0000	0.12180	-0.65930	-0.12240	0.00580	-0.53720	-0.32520	-0.33840	0.02150
0.0000	0.12180	-0.65970	-0.12240	-0.06400	-0.53670	-0.32590	-0.34080	-0.07360
0.0000	0.12170	-0.66030	-0.12220	-0.08750	-0.53580	-0.32690	-0.34320	-0.08270
0.0000	0.12120	-0.66100	-0.12210	-0.10230	-0.53440	-0.32810	-0.34540	0.00580
0.0000	0.12030	-0.66140	-0.12200	-0.01290	-0.53290	-0.32950	-0.34750	0.05460
0.0000	0.11920	-0.66180	-0.12200	-0.12110	-0.53100	-0.33100	-0.34960	0.03410
0.0000	0.11850	-0.66220	-0.12150	-0.20080	-0.52900	-0.33240	-0.35160	0.18210
0.0000	0.11820	-0.66290	-0.12070	-0.24830	-0.52740	-0.33360	-0.35380	0.30840
0.0000	0.11800	-0.66350	-0.12000	-0.19490	-0.52620	-0.33460	-0.35600	0.23390
0.0000	0.11770	-0.66380	-0.11950	-0.12160	-0.52500	-0.33530	-0.35830	0.04140
0.0000	0.11710	-0.66410	-0.11910	-0.03860	-0.52390	-0.33590	-0.36040	-0.17100
0.0000	0.11670	-0.66450	-0.11870	-0.08590	-0.52270	-0.33670	-0.36220	-0.09000
0.0000	0.11610	-0.66480	-0.11840	-0.21200	-0.52180	-0.33720	-0.36400	-0.09090
0.0000	0.11570	-0.66490	-0.11800	-0.37640	-0.52130	-0.33750	-0.36560	-0.05450
0.0000	0.11550	-0.66480	-0.11780	-0.29670	-0.52130	-0.33740	-0.36700	-0.26350
0.0000	0.11580	-0.66500	-0.11720	-0.05630	-0.52120	-0.33730	-0.36810	-0.56650
0.0000	0.11640	-0.66510	-0.11640	-0.01250	-0.52120	-0.33750	-0.36860	-0.30860
0.0000	0.11660	-0.66510	-0.11580	-0.04600	-0.52150	-0.33800	-0.36900	-0.14490
0.0000	0.11650	-0.66520	-0.11550	-0.07050	-0.52180	-0.33850	-0.36910	-0.26430
0.0000	0.11600	-0.66520	-0.11550	-0.03780	-0.52200	-0.33880	-0.36880	-0.27430
0.0000	0.11520	-0.66500	-0.11560	-0.08450	-0.52220	-0.33920	-0.36820	-0.19040
0.0000	0.11450	-0.66480	-0.11570	-0.16050	-0.52240	-0.33930	-0.36740	-0.07160
0.0000	0.11410	-0.66470	-0.11570	-0.18060	-0.52280	-0.33950	-0.36650	0.06000
0.0000	0.11360	-0.66450	-0.11560	-0.09770	-0.52320	-0.33970	-0.36560	0.24660
0.0000	0.11320	-0.66420	-0.11540	-0.10890	-0.52380	-0.33980	-0.36490	0.27720
0.0000	0.60610	-0.29340	0.52780	-0.12350	-0.52430	-0.33990	-0.36430	0.23000
0.0000	0.60560	-0.29370	0.52820	-0.15010	-0.52480	-0.34010	-0.36390	-0.03340
0.0000	0.60490	-0.29400	0.52860	-0.17430	-0.52460	-0.34020	-0.36330	-0.08970
0.0000	0.60440	-0.29430	0.52910	-0.14180	-0.52480	-0.34030	-0.36270	0.19840
0.0000	0.60410	-0.29440	0.52950	-0.04360	-0.52540	-0.33990	-0.36210	0.23340
0.0000	0.60390	-0.29440	0.52990	-0.07380	-0.52640	-0.33920	-0.36160	0.08400
0.0000	0.60370	-0.29390	0.53060	-0.17940	-0.52750	-0.33840	-0.36100	-0.07790
0.0000	0.60330	-0.29320	0.53140	-0.24960	0.24270	-0.57810	0.61930	0.28030
0.0000	0.60280	-0.29240	0.53220	-0.16210	0.24230	-0.57860	0.61970	0.32930
