arm26_elbow_motion
version=1
nRows=2907
nColumns=2
inDegrees=no
endheader
time	r_elbow_flex
0.111053	0.41273898
0.125137	0.40603102
0.141210	0.39864963
0.156363	0.39105270
0.169195	0.38380951
0.212080	0.37745162
0.237946	0.37140066
0.252772	0.36610276
0.262180	0.36692275
0.296938	0.36868954
0.320082	0.37101148
0.341514	0.37348915
0.355642	0.37568682
0.361032	0.37751372
0.374704	0.37927076
0.385864	0.38082964
0.395447	0.38216285
0.411034	0.38317156
0.442734	0.38364377
0.458678	0.38394309
0.471173	0.38416613
0.483644	0.38428652
0.504103	0.38435429
0.524119	0.38432928
0.533996	0.38426791
0.550579	0.38423331
0.567653	0.38416321
0.584080	0.38410326
0.592766	0.38404278
0.616620	0.38394778
0.632852	0.38387672
0.647816	0.38380809
0.659268	0.38369936
0.675912	0.38354341
0.692438	0.38330524
0.701216	0.38301289
0.716043	0.38271180
0.725477	0.38239112
0.749086	0.38208534
0.768220	0.38178852
0.778677	0.38154349
0.792014	0.38133460
0.809081	0.38119047
0.937666	0.38105132
0.946705	0.38066815
0.954789	0.38042648
0.974088	0.38017019
0.983301	0.37996120
0.999282	0.37977724
1.012470	0.37961375
1.027730	0.37950162
1.043734	0.37973533
1.064600	0.37982036
1.081226	0.37991949
1.098118	0.37998032
1.117424	0.38001186
1.124389	0.38000959
1.135835	0.38000427
1.147829	0.37993106
1.161705	0.37991452
1.168164	0.37993861
1.181033	0.37994464
1.189191	0.38005895
1.200975	0.38019703
1.243709	0.38034162
1.251740	0.38053626
1.264702	0.38074473
1.284263	0.38101130
1.292561	0.38133044
1.301880	0.38155455
1.309016	0.38172815
1.331072	0.38187908
1.350429	0.38196225
1.367020	0.38199700
1.392543	0.38196064
1.403049	0.38190021
1.433988	0.38187493
1.450397	0.38187646
1.458840	0.38187992
1.479638	0.38192082
1.487987	0.38194157
1.514267	0.38195046
1.529048	0.38197243
1.545581	0.38200136
1.562105	0.38204759
1.632883	0.38206327
1.647934	0.38205038
1.657820	0.38204003
1.675361	0.38203223
1.686284	0.38201940
1.699398	0.38201214
1.717437	0.38202701
1.733303	0.38210251
1.749036	0.38221925
1.770020	0.38235924
1.797616	0.38253281
1.814356	0.38265847
1.822789	0.38275723
1.849283	0.38278509
1.855002	0.38273677
1.863754	0.38263108
1.880937	0.38244305
1.895803	0.38219382
1.904428	0.38195699
1.914188	0.38171160
1.931608	0.38150922
1.984914	0.38133417
1.998822	0.38115936
2.009544	0.38095509
2.019120	0.38074827
2.034183	0.38054325
2.043785	0.38038151
2.051817	0.38025719
2.061879	0.38017962
2.069982	0.38014974
2.083422	0.38025139
2.101519	0.38040890
2.118157	0.38060604
2.134620	0.38081373
2.166246	0.38099205
2.198151	0.38114570
2.205278	0.38130217
2.215387	0.38143660
2.228026	0.38153004
2.238037	0.38158507
2.278727	0.38155963
2.293661	0.38151442
2.309473	0.38143541
2.350847	0.38128644
2.367960	0.38108061
2.400008	0.38089204
2.409939	0.38069521
2.430657	0.38053243
2.448153	0.38034397
2.466636	0.38019491
2.474346	0.38008914
2.485431	0.38003175
2.498750	0.37997224
2.508250	0.37993582
2.557588	0.37992436
2.621403	0.37993030
2.623892	0.37986136
2.639611	0.37981272
2.648426	0.37980898
2.665083	0.37982566
2.673851	0.37981277
2.683389	0.37975722
2.713917	0.37976027
2.731279	0.37984961
2.747117	0.37995895
2.764474	0.37999791
2.783064	0.37998853
2.795237	0.38001342
2.814067	0.38004005
2.821520	0.38001346
2.837973	0.37996013
2.847142	0.37985703
2.859870	0.37979102
2.865066	0.37978950
2.878947	0.37977809
2.894604	0.37981930
2.955266	0.37993204
2.986724	0.38004982
2.999462	0.38018213
3.009906	0.38031697
3.022164	0.38043166
3.048719	0.38053865
3.057955	0.38062944
3.096286	0.38068016
3.104811	0.38074188
3.129382	0.38080503
3.147344	0.38089872
3.155161	0.38098416
3.179471	0.38108174
3.195512	0.38116629
3.204090	0.38121644
3.212740	0.38127188
3.232285	0.38138092
3.236015	0.38146477
3.244648	0.38156422
3.265661	0.38165385
3.284959	0.38174066
3.309331	0.38186706
3.325192	0.38199613
3.341268	0.38210851
3.357181	0.38221984
3.373264	0.38229166
3.382610	0.38236945
3.399556	0.38244538
3.431622	0.38253386
3.438703	0.38263854
3.449117	0.38271712
3.465565	0.38278237
3.481540	0.38287585
3.515445	0.38301023
3.533270	0.38320028
3.549329	0.38342287
3.556103	0.38362627
3.565476	0.38385906
3.582258	0.38410354
3.589632	0.38434967
3.599085	0.38455350
3.616140	0.38466217
3.633029	0.38470841
3.639762	0.38472728
3.666197	0.38466956
3.682779	0.38452307
3.731893	0.38435059
3.747956	0.38414068
3.765493	0.38392766
3.785348	0.38367787
3.798208	0.38340562
3.830901	0.38316058
3.841513	0.38297386
3.857702	0.38279539
3.873668	0.38266464
3.881934	0.38256641
3.898025	0.38248634
3.914393	0.38243881
3.931778	0.38241053
3.949613	0.38239629
3.966036	0.38244981
3.990389	0.38251004
4.006410	0.38263158
4.015044	0.38274965
4.031872	0.38286125
4.049408	0.38299330
4.064624	0.38316838
4.067917	0.38337603
4.083260	0.38364879
4.093094	0.38396290
4.101614	0.38437196
4.110259	0.38483985
4.130871	0.38526297
4.139303	0.38548372
4.181584	0.38563928
4.189114	0.38586877
4.197837	0.38619141
4.239561	0.38674056
4.248316	0.38779391
4.265471	0.38964165
4.272385	0.39267459
4.298462	0.39705466
4.305313	0.40285216
4.315155	0.41022644
4.330269	0.41911080
4.352392	0.42924297
4.364687	0.43995894
4.384893	0.45077261
4.402015	0.46084151
4.408930	0.46987429
4.425975	0.47770578
4.442454	0.48412598
4.451511	0.48912118
4.477716	0.49278636
4.502863	0.49510332
4.519253	0.49637437
4.540576	0.49669160
4.552103	0.49602668
4.559279	0.49449752
4.570684	0.49238600
4.591488	0.49016529
4.616458	0.48819625
4.630130	0.48673991
4.654149	0.48556745
4.681299	0.48486373
4.700945	0.48497388
4.721460	0.48595321
4.732653	0.48797929
4.741163	0.49083482
4.753199	0.49443379
4.767867	0.49893373
4.781911	0.50420209
4.806580	0.51023717
4.820226	0.51698328
4.833525	0.53065129
4.853206	0.54510673
4.892835	0.56046679
4.919783	0.57691256
4.924711	0.59487346
4.948666	0.61423740
4.961053	0.63437872
4.977492	0.64775138
4.981673	0.65995250
5.035531	0.67052531
5.040551	0.67980453
5.048844	0.68825677
5.062164	0.69644975
5.077937	0.70489229
5.103095	0.71511730
5.118311	0.72882130
5.136618	0.74774783
5.151774	0.77258995
5.171150	0.80307677
5.176786	0.83865981
5.200434	0.87949492
5.215982	0.92515141
5.221021	0.97466308
5.254303	1.02681020
5.265991	1.07998171
5.295863	1.13250616
5.317211	1.18387436
5.334738	1.23322170
5.348729	1.28001076
5.378294	1.32404025
5.385561	1.36573262
5.400401	1.40457330
5.410218	1.44199058
5.426179	1.47810640
5.441986	1.51368927
5.457925	1.54859034
5.467601	1.58223843
5.477125	1.61392856
5.509011	1.64499398
5.519630	1.67523469
5.528887	1.70378914
5.552485	1.72937837
5.557968	1.75280473
5.609171	1.77508030
5.625301	1.79618662
5.642701	1.81532159
5.659203	1.83253997
5.668857	1.84920666
5.683345	1.86613320
5.699339	1.88329029
5.708453	1.90074338
5.733068	1.91783309
5.741430	1.93519493
5.751256	1.95298765
5.777439	1.97153698
5.785911	1.99081716
5.803797	2.00980961
5.828178	2.02687861
5.843528	2.04254299
5.859741	2.05629469
5.868232	2.06795038
5.875689	2.07690793
5.891371	2.08353709
5.907318	2.08893769
5.919871	2.09421589
5.943538	2.09922608
5.959406	2.10371960
5.978053	2.10715989
6.016869	2.10933538
6.031984	2.11012548
6.049258	2.10936454
6.059339	2.10698381
6.071024	2.10297965
6.110691	2.09722071
6.121501	2.08937633
6.143142	2.07900045
6.158831	2.06602863
6.167287	2.04961997
6.175701	2.02850520
6.192698	2.00355637
6.207666	1.97580216
6.223468	1.94488454
6.232835	1.91187734
6.241662	1.87930450
6.252582	1.84717655
6.268122	1.81517022
6.308201	1.78118114
6.318492	1.74730074
6.357344	1.71646814
6.373147	1.68627961
6.382994	1.65377540
6.392981	1.61880571
6.401559	1.58241183
6.428000	1.55237715
6.435489	1.52444887
6.450955	1.49336471
6.458737	1.46197574
6.483078	1.43403116
6.500200	1.41118927
6.524740	1.39200650
6.533502	1.36728600
6.541696	1.33905646
6.550776	1.31272283
6.582149	1.28784954
6.617118	1.26076347
6.633224	1.23073182
6.642834	1.19969621
6.657702	1.17037721
6.673594	1.14305734
6.686461	1.11657832
6.694163	1.08979106
6.728057	1.06259528
6.766122	1.03450129
6.770476	1.00514604
6.784503	0.97484677
6.791783	0.94371630
6.807508	0.91121190
6.825288	0.87883439
6.859407	0.84844185
6.882397	0.82029877
6.892268	0.79369738
6.910994	0.76650027
6.916612	0.73774261
6.932859	0.70862305
6.950583	0.67964670
6.954180	0.64933212
6.981699	0.61685387
6.990442	0.58413032
7.001508	0.55501758
7.016968	0.53188417
7.030821	0.51393551
7.063629	0.49879263
7.070574	0.48671941
7.080448	0.47917218
7.096322	0.47560520
7.132921	0.47442805
7.148963	0.47417805
7.156746	0.47417837
7.181115	0.47562206
7.191320	0.47928006
7.216051	0.48647561
7.220580	0.49919105
7.247877	0.51730468
7.254302	0.53848442
7.263689	0.56163697
7.279925	0.58732830
7.293923	0.61628184
7.315325	0.64740837
7.323904	0.67901209
7.354134	0.71164863
7.358941	0.74747848
7.380847	0.78736702
7.398692	0.83002713
7.417118	0.87364097
7.424296	0.91771694
7.450557	0.96240414
7.465733	1.00759560
7.516851	1.05335889
7.522137	1.09953617
7.532660	1.14592143
7.547118	1.19239479
7.564690	1.23853205
7.571017	1.28398959
7.580253	1.32875270
7.601196	1.37197065
7.608029	1.41329964
7.622111	1.45302189
7.656522	1.49149570
7.665899	1.52869822
7.681705	1.56405639
7.691528	1.59776556
7.714969	1.63102030
7.722645	1.66382102
7.770911	1.69535400
7.786791	1.72536463
7.799154	1.75446237
7.833592	1.78261097
7.845768	1.80854224
7.858218	1.83082492
7.868329	1.85091307
7.876276	1.87061096
7.886198	1.88964959
7.914727	1.90774680
7.920650	1.92546905
7.935171	1.94344802
7.952830	1.96339882
7.959896	1.98508842
7.991500	2.00746588
8.000214	2.03028123
8.007894	2.05293424
8.023855	2.07466573
8.039966	2.09508703
8.050984	2.11288094
8.075963	2.12733304
8.114890	2.13818714
8.123343	2.14514133
8.133550	2.14764122
8.147995	2.14572480
8.165836	2.13977951
8.174213	2.13024468
8.232937	2.11697380
8.254139	2.10033346
8.263623	2.08112757
8.281854	2.05995145
8.291108	2.03771774
8.298863	2.01358459
8.314987	1.98620522
8.324123	1.95613455
8.332087	1.92494035
8.348955	1.89393220
8.367620	1.86393133
8.385610	1.83341788
8.413419	1.80282364
8.423184	1.77401456
8.432252	1.74745019
8.448299	1.72233470
8.468119	1.69645786
8.482558	1.66889927
8.501123	1.64244587
8.507310	1.61704351
8.518135	1.59191577
8.547672	1.56535591
8.588829	1.53624164
8.604982	1.50644283
8.621316	1.47731848
8.633074	1.44751604
8.645521	1.41702066
8.664059	1.38492661
8.678377	1.35257120
8.686139	1.32149143
8.716779	1.28998692
8.720772	1.25616071
8.765358	1.21972762
8.779129	1.18218586
8.786969	1.14546655
8.796223	1.10899269
8.812034	1.07163354
8.828586	1.03471040
8.835685	0.99887906
8.862475	0.96387831
8.870305	0.92923020
8.881515	0.89399808
8.915349	0.85698577
8.930689	0.81905894
8.951099	0.78070409
8.957822	0.74380792
8.974566	0.70986172
8.990168	0.67786674
9.030362	0.64733473
9.037423	0.62012151
9.046701	0.59674142
9.060757	0.57701242
9.071059	0.55981441
9.082621	0.54412995
9.128447	0.53066754
9.135893	0.52043477
9.146435	0.51354911
9.161692	0.50928351
9.171542	0.50734571
9.182063	0.50798240
9.195628	0.51172157
9.229837	0.51932699
9.246797	0.53140892
9.263422	0.54755313
9.270864	0.56719704
9.312390	0.58976811
9.328798	0.61502602
9.345482	0.64267478
9.362798	0.67173368
9.373245	0.70105506
9.381629	0.73059534
9.390055	0.76069707
9.398632	0.79229776
9.412824	0.82578331
9.419759	0.86082763
9.453642	0.89697638
9.466176	0.93413933
9.482204	0.97212784
9.492386	1.01110399
9.512993	1.05115732
9.529758	1.09194353
9.537301	1.13344618
9.561884	1.17568465
9.574415	1.21843453
9.609681	1.26159984
9.626830	1.30525020
9.634271	1.34847943
9.658744	1.39048777
9.713820	1.43063922
9.719315	1.46936118
9.736621	1.50699729
9.751104	1.54377895
9.767250	1.57912456
9.775911	1.61262743
9.783639	1.64449340
9.790102	1.67636972
9.837387	1.70867651
9.848083	1.74040865
9.855063	1.77057784
9.867392	1.79957015
9.881548	1.82816743
9.890792	1.85579490
9.900789	1.88057796
9.913465	1.90166533
9.944781	1.92052312
9.961993	1.93864729
9.973789	1.95557298
9.983931	1.97159240
9.990224	1.98764478
10.005615	2.00368458
10.049533	2.01953812
10.059508	2.03504357
10.066641	2.05061454
10.083260	2.06605687
10.099098	2.08031625
10.153847	2.09319467
10.163719	2.10559486
10.181081	2.11860434
10.198974	2.13166843
10.212778	2.14352251
10.229429	2.15469085
10.240701	2.16575127
10.258035	2.17701597
10.272389	2.18840561
10.288724	2.19924589
10.291842	2.20910059
10.308692	2.21738744
10.323639	2.22304380
10.331084	2.22507749
10.348297	2.22276533
10.358288	2.21593723
10.380123	2.20484040
10.430165	2.19003711
10.439919	2.17199739
10.464573	2.15117965
10.478117	2.12651501
10.485862	2.09828648
10.509733	2.06825555
10.518524	2.03721285
10.526647	2.00438750
10.542667	1.97015062
10.559537	1.93597037
10.578473	1.90563587
10.594491	1.88016301
10.603528	1.85678151
10.612260	1.83151786
10.649099	1.80619490
10.658774	1.78330750
10.667967	1.76227066
10.692276	1.73931283
10.701288	1.71054293
10.709529	1.67727468
10.725636	1.64496629
10.774466	1.61270188
10.786276	1.57702301
10.794636	1.53719714
10.809200	1.49639650
10.814534	1.45813571
10.828080	1.42160699
10.847625	1.38370620
10.863662	1.34408931
10.878955	1.30457558
10.889447	1.26641366
10.913657	1.22751747
10.927357	1.18584628
10.961195	1.14133203
10.969393	1.09578292
10.994831	1.05084354
11.004393	1.00599957
11.012529	0.96043772
11.022052	0.91502820
11.040307	0.87099300
11.065243	0.82734636
11.071057	0.78273933
11.112013	0.73726676
11.120220	0.69240089
11.173994	0.64892536
11.190102	0.60611508
11.211012	0.56272055
11.219251	0.52086855
11.228517	0.48274255
11.244660	0.44853599
11.255649	0.41869963
11.282906	0.39244139
11.297618	0.37014036
11.316636	0.35444431
11.327804	0.34547740
11.344869	0.34148542
11.353875	0.34054793
11.367747	0.34081217
11.380417	0.34316071
11.389547	0.34909497
11.414040	0.35914831
11.423828	0.37360903
11.447501	0.39297224
11.456224	0.41768799
11.462371	0.44721752
11.470666	0.48130148
11.497531	0.51893349
11.545179	0.55841100
11.560620	0.59956072
11.577562	0.64161567
11.595541	0.68267324
11.611816	0.72240239
11.619290	0.76117333
11.627912	0.79990978
11.645493	0.84021854
11.660793	0.88222582
11.664855	0.92637346
11.680176	0.97458334
11.711041	1.02709163
11.726897	1.08269965
11.747805	1.14029173
11.765261	1.19845170
11.772130	1.25672835
11.794144	1.31524205
11.809111	1.37347776
11.826352	1.43010470
11.845282	1.48432204
11.851184	1.53645993
11.861693	1.58772012
11.896401	1.63800794
11.906500	1.68446087
11.914366	1.72546118
11.931028	1.76286398
11.949934	1.79831656
11.986823	1.83111216
12.008686	1.85983864
12.014466	1.88495422
12.026247	1.90905711
12.041970	1.93360305
12.060638	1.95763577
12.074771	1.97994847
12.097505	2.00068543
12.110970	2.01983185
12.127478	2.03788267
12.144302	2.05566147
12.160861	2.07364085
12.178363	2.09194176
12.194150	2.11033789
12.203823	2.12784873
12.248824	2.14399400
12.263831	2.15750150
12.275027	2.16737420
12.281293	2.17339769
12.290778	2.17542450
12.306573	2.17339086
12.327340	2.16733960
12.332196	2.15709119
12.356074	2.14262229
12.364941	2.12413995
12.371319	2.10220394
12.394427	2.07694697
12.412310	2.04816296
12.429742	2.01739736
12.460746	1.98634055
12.469113	1.95585738
12.478673	1.92517730
12.493790	1.89263644
12.512720	1.85964843
12.527066	1.82913453
12.549618	1.80076013
12.560801	1.77125203
12.579852	1.73789715
12.646496	1.70064574
12.650874	1.65970745
12.660374	1.61763333
12.677296	1.57222204
12.699823	1.52246211
12.730423	1.47048299
12.744026	1.41972448
12.762743	1.37195060
12.768361	1.32695397
12.778115	1.27982383
12.785573	1.23204673
12.797892	1.18553140
12.810749	1.13952961
12.819302	1.09201451
12.830482	1.04143103
12.848595	0.98954152
12.852214	0.93885120
12.878942	0.88901703
12.897611	0.83874612
12.911870	0.78860155
12.958516	0.73815483
12.969950	0.68832981
12.990638	0.63991434
13.006167	0.59396023
13.051223	0.55193475
13.063989	0.51519904
13.077199	0.48373347
13.096493	0.45874040
13.102834	0.44075487
13.112193	0.42914923
13.127787	0.42232264
13.144225	0.41899398
13.152758	0.41898040
13.162073	0.42373171
13.169432	0.43402501
13.181766	0.44946169
13.207906	0.47036258
13.211851	0.49603537
13.229593	0.52469411
13.244655	0.55554361
13.269635	0.58860272
13.277105	0.62353643
13.297869	0.65991377
13.304760	0.69716895
13.376211	0.73560661
13.385286	0.77638113
13.394843	0.81995283
13.407857	0.86485458
13.424120	0.90964253
13.444164	0.95405041
13.453168	0.99838083
13.466353	1.04278240
13.480275	1.08652238
13.496125	1.12894521
13.503334	1.17063950
13.513740	1.21247060
13.531193	1.25463343
13.538303	1.29712483
13.596808	1.33986643
13.607977	1.38242356
13.614740	1.42430665
13.631823	1.46512116
13.644216	1.50519619
13.654290	1.54523843
13.663889	1.58472711
13.730724	1.62291654
13.746232	1.65988553
13.761070	1.69588748
13.779334	1.73087824
13.787845	1.76417460
13.798166	1.79333270
13.809662	1.81807599
13.819005	1.83904300
13.829288	1.85772886
13.838825	1.87513963
13.860785	1.89134249
13.869795	1.90659092
13.878490	1.92228801
13.893448	1.93849767
13.910317	1.95537230
13.917324	1.97178155
13.958587	1.98725380
13.966887	2.00294351
13.984603	2.01898911
14.007658	2.03595095
14.023915	2.05425383
14.033943	2.07355924
14.044847	2.09409859
14.113822	2.11554365
14.130277	2.13658926
14.139057	2.15614409
14.164318	2.17305433
14.177819	2.18653259
14.195052	2.19664587
14.210587	2.20337175
14.218719	2.20671649
14.231844	2.20699435
14.247845	2.20513626
14.258565	2.20177543
14.276809	2.19716458
14.284373	2.19109044
14.300316	2.18325580
14.306721	2.17356457
14.347199	2.16229472
14.361776	2.14942176
14.378163	2.13426823
14.392270	2.11724246
14.428919	2.09949999
14.434538	2.08196024
14.479385	2.06467612
14.485572	2.04770972
14.497946	2.03101190
14.509959	2.01530230
14.527366	2.00072511
14.535089	1.98644594
14.546177	1.97186547
14.561245	1.95745899
14.568848	1.94255877
14.578745	1.92772216
14.593714	1.91264759
14.610250	1.89524815
14.628142	1.87552372
14.643516	1.85578790
14.654519	1.83650079
14.663644	1.81700510
14.677513	1.79567116
14.698323	1.77285800
14.714161	1.75091747
14.731938	1.72983170
14.781110	1.70765683
14.793936	1.68102332
14.800763	1.65286242
14.848662	1.62425178
14.853820	1.59477876
14.863747	1.56266525
14.876688	1.52840328
14.883074	1.49315254
14.907668	1.45912846
14.923821	1.42418987
14.945179	1.39002850
14.960339	1.35717560
14.978521	1.32572805
14.985071	1.29388040
15.011327	1.25992705
15.022027	1.22509635
15.041959	1.19033988
15.057012	1.15444552
15.066208	1.11731393
15.074025	1.07904303
15.091357	1.04016531
15.098658	1.00084270
15.123064	0.96011318
15.139146	0.91748979
15.176507	0.87384851
15.194139	0.82935127
15.211124	0.78466922
15.219467	0.74015814
15.244945	0.69609690
15.260433	0.65424523
15.279585	0.61607488
15.290704	0.58120020
15.310638	0.54964415
15.319307	0.52207603
15.338744	0.49962825
15.355964	0.48359558
15.373866	0.47278139
15.396174	0.46562148
15.404536	0.46139074
15.430625	0.46009825
15.443380	0.46128047
15.454076	0.46386282
15.463909	0.46633489
15.478295	0.46874764
15.487224	0.47121299
15.495734	0.47368792
15.512408	0.47598625
15.628905	0.47796233
15.640929	0.47988299
15.659401	0.48144148
15.666855	0.48233341
15.683599	0.48289231
15.700041	0.48300445
15.706449	0.48268012
15.723985	0.48208940
15.742388	0.48108981
15.763278	0.48029019
15.771667	0.48001839
15.793544	0.48012022
15.811574	0.48045171
15.828441	0.48083574
15.848844	0.48142453
15.850884	0.48247682
15.866341	0.48379691
15.877801	0.48482516
15.893509	0.48527302
15.926801	0.48533846
15.936444	0.48509298
15.944756	0.48434655
15.959473	0.48292256
15.978178	0.48096528
15.984090	0.47875510
15.993908	0.47650926
16.009363	0.47454430
16.033988	0.47307840
16.082538	0.47217184
16.088614	0.47194837
16.100601	0.47241778
16.110045	0.47344716
16.127684	0.47467205
16.137932	0.47573157
16.162088	0.47647691
16.176521	0.47689811
16.196789	0.47706442
16.203064	0.47695227
16.218472	0.47653455
16.228466	0.47589058
16.237668	0.47511677
16.262918	0.47428911
16.271673	0.47356866
16.287074	0.47304414
16.305933	0.47260070
16.322136	0.47232197
16.382805	0.47218233
16.393034	0.47213302
16.410830	0.47205641
16.428909	0.47199915
16.444817	0.47183509
16.456534	0.47159661
16.462638	0.47129132
16.477607	0.47102196
16.492961	0.47083840
16.502989	0.47084797
16.516187	0.47089229
16.564305	0.47094287
16.593319	0.47108337
16.606325	0.47131559
16.621973	0.47160252
16.642554	0.47196301
16.664659	0.47242330
16.690578	0.47288763
16.706595	0.47341878
16.722311	0.47400367
16.738779	0.47459663
16.754408	0.47520340
16.770082	0.47566361
16.785882	0.47581565
16.802073	0.47582876
16.811697	0.47575443
16.826642	0.47550359
16.837395	0.47510110
16.869158	0.47461337
16.885797	0.47410625
16.909948	0.47380342
16.926466	0.47367972
16.934113	0.47359176
16.959479	0.47355780
16.977079	0.47353910
16.993409	0.47349691
17.050478	0.47345573
17.075603	0.47329571
17.092383	0.47305146
17.108162	0.47274218
17.123710	0.47242089
17.135816	0.47210769
17.151576	0.47174700
17.161674	0.47139138
17.178128	0.47110108
17.186239	0.47081247
17.195665	0.47048122
17.223213	0.47010604
17.228190	0.46975278
17.243998	0.46942995
17.252056	0.46914619
17.268052	0.46891611
17.279191	0.46868270
17.294068	0.46848398
17.310840	0.46840395
17.330104	0.46835301
17.345772	0.46836619
17.360668	0.46850614
17.372851	0.46871710
17.388752	0.46890308
17.411310	0.46915378
17.419393	0.46939912
17.437409	0.46959907
17.451343	0.46962070
17.477587	0.46936314
17.483699	0.46895765
17.499950	0.46859631
17.536177	0.46812991
17.544580	0.46749755
17.570420	0.46679133
17.578048	0.46614211
17.586139	0.46554823
17.602412	0.46497031
17.613033	0.46440242
17.624009	0.46394449
17.636441	0.46362949
17.652386	0.46342502
17.676885	0.46332897
17.697221	0.46334606
17.704964	0.46342826
17.728648	0.46354352
17.771233	0.46363922
17.795328	0.46366266
17.809812	0.46363338
17.835856	0.46356774
17.845802	0.46352941
17.853712	0.46344861
17.877771	0.46326600
17.917271	0.46299329
17.926242	0.46269795
17.942511	0.46242182
17.952286	0.46216917
17.960222	0.46184050
17.971097	0.46141947
17.976813	0.46101182
17.992166	0.46069767
18.041404	0.46041047
18.060438	0.46008899
18.069296	0.45971318
18.082105	0.45931949
18.090828	0.45901292
18.109673	0.45874876
18.123855	0.45844343
18.136127	0.45817112
18.145557	0.45795786
18.154692	0.45776277
18.171422	0.45761690
18.179896	0.45742122
18.188258	0.45721972
18.215277	0.45705426
18.223957	0.45689957
18.240283	0.45672129
18.254718	0.45660914
18.287167	0.45649043
18.297986	0.45639042
18.310145	0.45624195
18.345511	0.45610434
18.361478	0.45598433
18.376208	0.45592026
18.384353	0.45578409
18.400765	0.45550009
18.413293	0.45516690
18.436384	0.45493660
18.452410	0.45468681
18.463537	0.45439281
18.522446	0.45397972
18.534924	0.45354312
18.550158	0.45324074
18.559970	0.45295910
18.571547	0.45263292
18.594027	0.45236524
18.601650	0.45209966
18.609448	0.45185528
18.630191	0.45158162
18.642315	0.45132913
18.658738	0.45115902
18.667094	0.45104285
18.695476	0.45088106
18.700094	0.45070896
18.733806	0.45058735
18.758634	0.45053993
18.777653	0.45051348
18.786906	0.45054135
18.793727	0.45057148
18.826817	0.45063745
18.844479	0.45072552
18.850087	0.45082818
18.878505	0.45086333
18.893348	0.45082501
18.905332	0.45076914
18.917596	0.45070268
18.926939	0.45057847
18.967582	0.45039560
18.993659	0.45008838
19.002043	0.44981490
19.017979	0.44962943
19.028335	0.44945693
19.044025	0.44927372
19.053923	0.44913428
19.070614	0.44895954
19.079802	0.44874314
19.094322	0.44840098
19.102430	0.44793629
19.118049	0.44743922
19.126859	0.44694962
19.142756	0.44630558
19.154319	0.44566871
19.167039	0.44527463
19.201175	0.44510430
19.212583	0.44505066
19.269190	0.44504359
19.284992	0.44509108
19.301301	0.44533062
19.316478	0.44562944
19.338190	0.44583534
19.347871	0.44601565
19.358895	0.44614589
19.377244	0.44619987
19.387023	0.44619990
19.395844	0.44614333
19.421012	0.44606413
19.428257	0.44593642
19.445562	0.44569033
19.485863	0.44539241
19.496016	0.44506885
19.509967	0.44469165
19.542737	0.44431495
19.551461	0.44396011
19.560364	0.44366379
19.576502	0.44345943
19.606719	0.44331323
19.622499	0.44321746
19.627634	0.44320216
19.634511	0.44317323
19.658288	0.44315458
19.675015	0.44315854
19.683072	0.44313959
19.708311	0.44308652
19.722154	0.44301832
19.731972	0.44286196
19.743240	0.44262313
19.751641	0.44233208
19.761940	0.44200034
19.776042	0.44166187
19.802108	0.44137740
19.828750	0.44114470
19.836236	0.44103842
19.844696	0.44102484
19.863713	0.44105254
19.878479	0.44112744
19.887984	0.44126480
19.905495	0.44140307
19.925889	0.44135945
19.994379	0.44111124
20.002931	0.44072791
20.028446	0.44007014
20.034841	0.43870364
20.043213	0.43649338
20.058396	0.43369395
20.066815	0.43058947
20.080053	0.42727421
20.129082	0.42389360
20.145537	0.42095893
20.168844	0.41918107
20.178707	0.41907918
20.194748	0.42068071
20.205230	0.42384523
20.215209	0.42925311
20.224872	0.43796248
20.233639	0.45069782
20.255534	0.46758709
20.267212	0.48879807
20.279779	0.51498660
20.323688	0.54706690
20.338218	0.58452338
20.357843	0.62590101
20.370897	0.67052775
20.386774	0.71824152
20.396634	0.76877873
20.412851	0.82122709
20.421808	0.87424171
20.437789	0.92748463
20.441846	0.98198984
20.458939	1.03721629
20.475329	1.09239607
20.492747	1.14661701
20.504005	1.19960282
20.508819	1.25276172
20.545660	1.30621995
20.558884	1.35784500
20.576233	1.40688339
20.591842	1.45428358
20.607365	1.50147460
20.624006	1.54843529
20.632720	1.59339285
20.660942	1.63517623
20.665053	1.67508878
20.720104	1.71289096
20.730439	1.74796431
20.746769	1.77972182
20.752845	1.80893236
20.758546	1.83655208
20.772829	1.86386778
20.789041	1.89138321
20.797547	1.92019455
20.808684	1.94884684
20.832661	1.97741172
20.861555	2.00523099
20.867094	2.03138589
20.893000	2.05503405
20.910907	2.07579656
20.926442	2.09399492
20.947509	2.11126664
20.959686	2.12708424
20.970590	2.14134391
20.977738	2.15405283
21.002221	2.16541554
21.010961	2.17475462
21.092006	2.18099524
21.149436	2.18130106
21.177737	2.17692959
21.188442	2.16600936
21.195704	2.14672476
21.203874	2.12348466
21.221296	2.09786786
21.227347	2.07096821
21.257975	2.04408902
21.266348	2.01416549
21.282246	1.98425956
21.287677	1.95843550
21.301632	1.93246735
21.317724	1.90365996
21.333568	1.87175511
21.350006	1.83856451
21.357726	1.80751943
21.375599	1.77792416
21.383950	1.74642200
21.435758	1.71002295
21.451325	1.67127066
21.467657	1.63047849
21.478172	1.58736064
21.492742	1.54105464
21.511518	1.49073217
21.522116	1.43805925
21.535984	1.38582865
21.545362	1.33311168
21.584381	1.28048673
21.594919	1.22727853
21.629041	1.17135349
21.641633	1.11345886
21.658838	1.05522471
21.676677	0.99741332
21.684256	0.94012118
21.699706	0.88372421
21.718315	0.82930517
21.734127	0.77881094
21.742469	0.73313824
21.754040	0.68914970
21.770378	0.64559905
21.786782	0.60366878
21.820005	0.56614963
21.828340	0.53475301
21.837002	0.50654213
21.853234	0.47987447
21.878361	0.45862107
21.892627	0.44489234
21.908945	0.43639274
21.920695	0.42906134
21.929343	0.42246830
21.942121	0.42017704
21.951031	0.42238962
21.971651	0.42673025
21.983109	0.43242598
22.011440	0.44104049
22.025755	0.45358404
22.033208	0.46933317
22.058687	0.48746507
22.074186	0.50852625
22.090742	0.53312228
22.107924	0.56140753
22.127225	0.59315252
22.144568	0.62757788
22.195465	0.66421108
22.209193	0.70291837
22.227471	0.74309393
22.242232	0.78389386
22.258890	0.82473869
22.275317	0.86555850
22.293684	0.90641451
22.301789	0.94727611
22.319295	0.98867569
22.334423	1.03097397
22.345130	1.07409403
22.358640	1.11817906
22.375785	1.16364975
22.390464	1.21079961
22.398487	1.25937630
22.406662	1.30841384
22.422460	1.35764173
22.432211	1.40776458
22.450961	1.45872840
22.477254	1.50906843
22.489830	1.55845408
22.534960	1.60696150
22.543432	1.65324745
22.559440	1.69616086
22.577918	1.73480766
22.603179	1.76927622
22.625118	1.80007347
22.645451	1.82719565
22.659761	1.85054755
22.676028	1.87154042
22.685767	1.89131370
22.693906	1.91043760
22.707693	1.92907518
22.724486	1.94786285
22.734517	1.96793019
22.745091	1.98894906
22.748806	2.01080429
22.764281	2.03323552
22.791737	2.05638725
22.801443	2.07939987
22.810109	2.10200622
22.841253	2.12277901
22.860325	2.14191998
22.905114	2.15934183
22.929194	2.17510123
22.934757	2.18891705
22.943908	2.20166459
22.957538	2.21181730
22.966627	2.21886527
22.976873	2.22217541
23.026110	2.22164033
23.044211	2.21757164
23.051157	2.20992260
23.066820	2.19799469
23.077464	2.18309810
23.084923	2.16525245
23.107885	2.14404255
23.126482	2.12062894
23.140250	2.09617057
23.148205	2.07065201
23.156601	2.04334759
23.174238	2.01470380
23.190404	1.98522310
23.227404	1.95622836
23.240696	1.92729842
23.258667	1.89691553
23.275595	1.86472869
23.307057	1.83139423
23.338505	1.79947017
23.355011	1.77202235
23.370702	1.74514306
23.397159	1.71546855
23.407953	1.68302876
23.425257	1.65138784
23.445935	1.62282480
23.456915	1.59426545
23.476075	1.56078011
23.484765	1.52527351
23.497363	1.49220379
23.506375	1.46218374
23.518770	1.43160785
23.534737	1.39758511
23.545500	1.36040746
23.560202	1.32282013
23.577579	1.28638681
23.593609	1.25005694
23.603189	1.21301108
23.611799	1.17522193
23.619716	1.13738992
23.653997	1.09974141
23.668367	1.06144213
23.680190	1.02088110
23.704018	0.97776357
23.711881	0.93261290
23.727470	0.88465397
23.744206	0.83339239
23.774719	0.77999805
23.793631	0.72708241
23.801341	0.67710166
23.824235	0.63020739
23.841718	0.58724236
23.873928	0.55102159
23.883459	0.52305487
23.909798	0.50171510
23.916091	0.48378958
23.926558	0.46763707
23.952240	0.45475209
23.954768	0.44586097
23.970455	0.43948472
24.002332	0.43493153
24.019015	0.43371916
24.040685	0.43625631
24.073524	0.44186357
24.085990	0.44998239
24.110810	0.46038664
24.124188	0.47397129
24.131442	0.49081623
24.139746	0.50982765
24.159824	0.53120754
24.173328	0.55555559
24.190007	0.58185443
24.213082	0.60930315
24.238415	0.63810887
24.259294	0.66949494
24.265367	0.70385871
24.279933	0.74051676
24.288378	0.77880100
24.296875	0.81903690
24.306572	0.86218490
24.313555	0.90756749
24.337539	0.95343517
24.398409	0.99898080
24.417279	1.04455069
24.461992	1.09126768
24.478108	1.13920551
24.486667	1.18718821
24.493205	1.23447663
24.506505	1.28142119
24.521492	1.32852517
24.538241	1.37546823
24.556505	1.42676933
24.563239	1.47498601
24.579577	1.52074536
24.596299	1.56497077
24.608403	1.60739112
24.614044	1.64771075
24.626922	1.68604897
24.642398	1.71729049
24.648919	1.74830490
24.659917	1.77791090
24.676701	1.80556417
24.700429	1.83117403
24.710930	1.85458644
24.796113	1.87687042
24.819073	1.89803582
24.834951	1.92041426
24.852346	1.94088451
24.867573	1.96025735
24.878076	1.98005276
24.887215	2.00054470
24.893249	2.02089026
24.901482	2.04132882
24.910165	2.06006084
24.928460	2.07981044
24.953124	2.09871178
24.976598	2.11553520
24.986911	2.13014887
24.993951	2.14251552
25.010845	2.15177986
25.020832	2.15675820
25.030251	2.15769123
25.059029	2.15494454
25.073673	2.14820888
25.109274	2.13743726
25.123563	2.12265054
25.142995	2.10470640
25.157351	2.08431150
25.168015	2.06199200
25.183995	2.03827199
25.212463	2.01392652
25.226974	1.98957719
25.237601	1.96485270
25.243668	1.93869440
25.256295	1.91062836
25.274544	1.88186779
25.289480	1.85380064
25.297410	1.82544322
25.306108	1.79483069
25.322834	1.76212407
25.360253	1.72838551
25.373190	1.69589318
25.388548	1.66301261
25.396171	1.62507694
25.420150	1.58592411
25.428654	1.54759441
25.467696	1.51098583
25.477153	1.47388935
25.495806	1.43413641
25.506228	1.39292489
25.515792	1.35419874
25.536990	1.31518021
25.545644	1.27566287
25.559953	1.23488852
25.571364	1.19494260
25.598185	1.15661453
25.601643	1.11940026
25.618157	1.08265348
25.653354	1.04509181
25.669463	1.00610649
25.695805	0.96654856
25.716622	0.92690319
25.739935	0.88725904
25.753835	0.84735840
25.765131	0.80701264
25.780311	0.76653848
25.797090	0.72619723
25.857957	0.68680535
25.890929	0.64872394
25.917978	0.61175924
25.936730	0.57248083
25.950394	0.53694035
25.960478	0.50301353
25.972583	0.47378928
25.989173	0.44845810
25.998444	0.42710443
26.008904	0.41026873
26.023799	0.40246291
26.039488	0.39921609
26.056055	0.40446975
26.072129	0.41601491
26.081136	0.43335022
26.106082	0.45536550
26.114812	0.48203759
26.139584	0.51304916
26.148004	0.54756027
26.168196	0.58481936
26.176380	0.62508124
26.189779	0.66879408
26.239738	0.71579536
26.257051	0.76517431
26.265651	0.81631615
26.273594	0.86922854
26.289435	0.92358973
26.306228	0.97821239
26.314687	1.03272240
26.329844	1.08733885
26.339301	1.14253913
26.349437	1.19839730
26.372531	1.25435805
26.389329	1.30972190
26.396562	1.36443920
26.424479	1.41861927
26.446911	1.47222677
26.471658	1.52555827
26.478360	1.57792512
26.486884	1.62790630
26.512305	1.67550396
26.523959	1.72044358
26.539840	1.76203581
26.558512	1.80068182
26.589997	1.83628380
26.609925	1.86930761
26.614126	1.90031024
26.624180	1.92990919
26.634212	1.95836447
26.686762	1.98599056
26.702989	2.01178001
26.721981	2.03489764
26.735535	2.05547683
26.751632	2.07462616
26.776657	2.09272288
26.790914	2.11052583
26.801998	2.12833204
26.843560	2.14618081
26.851556	2.16411527
26.868559	2.18150661
26.877960	2.19766527
26.892188	2.21111809
26.926325	2.22020077
26.935354	2.22395916
26.941826	2.22272597
26.951046	2.21669352
26.967046	2.20681665
26.978163	2.19367509
26.992576	2.17770187
27.007324	2.15842558
27.017616	2.13541774
27.032585	2.10964547
27.051354	2.08240911
27.067096	2.05332574
27.083190	2.02101633
27.092928	1.98571878
27.109029	1.95069672
27.126789	1.91816678
27.132983	1.88719998
27.158431	1.85572937
27.177202	1.82340327
27.211197	1.79281667
27.223917	1.76434815
27.235867	1.73486838
27.242825	1.70110411
27.252249	1.66546882
27.261884	1.62894789
27.352107	1.59163393
27.362031	1.55185198
27.373473	1.50248851
27.385216	1.45313130
27.398696	1.40654899
27.411493	1.35943415
27.421121	1.31106451
27.430510	1.26161043
27.438609	1.21160016
27.448708	1.16885151
27.474016	1.12485280
27.487214	1.07872222
27.522367	1.03162804
27.536412	0.98449346
27.556636	0.93762895
27.572555	0.89138959
27.579906	0.84510868
27.588446	0.79911528
27.638656	0.75356302
27.656078	0.70831640
27.665334	0.66339689
27.675557	0.62003539
27.690410	0.57903034
27.701865	0.54144180
27.715465	0.50773790
27.727020	0.47860951
27.736105	0.45527573
27.758792	0.43776147
27.764723	0.42458968
27.780460	0.41504346
27.822784	0.40855056
27.839738	0.40485788
27.857000	0.40413468
27.864642	0.40602567
27.913225	0.41097146
27.921878	0.41910271
27.939199	0.43001270
27.956424	0.44366467
27.962948	0.46038292
27.971910	0.48074198
27.989026	0.50499787
28.003600	0.53098018
28.019746	0.55742969
28.036430	0.58496856
28.054154	0.61440591
28.062474	0.64579702
28.077002	0.67794499
28.095215	0.70980635
28.111401	0.74213759
28.138549	0.77625732
28.156045	0.81259284
28.173350	0.84997990
28.181007	0.88716677
28.189829	0.92375935
28.269512	0.96012485
28.285650	0.99597250
28.306003	1.03199475
28.314308	1.06549185
28.322528	1.09735084
28.338788	1.12780419
28.357847	1.15735564
28.363730	1.18622530
28.373453	1.21566187
28.389069	1.24482053
28.409507	1.27523853
28.421451	1.30555315
28.431009	1.33628147
28.439830	1.36771062
28.454848	1.39952592
28.463806	1.43118736
28.490082	1.46312757
28.496682	1.49565177
28.538323	1.52933921
28.556744	1.56468280
28.566476	1.60093227
28.575290	1.63652011
28.587003	1.67178557
28.603034	1.70659366
28.622436	1.74070756
28.629473	1.77392538
28.637182	1.80496413
28.659747	1.83354350
28.689112	1.86022604
28.699546	1.88546455
28.725732	1.90995552
28.743607	1.93412469
28.824156	1.95784271
28.828132	1.98410501
28.838212	2.01324179
28.859793	2.04196488
28.871721	2.07000043
28.881766	2.09659093
28.891784	2.12162998
28.903748	2.14553870
28.913805	2.16569117
28.921781	2.18187481
28.940657	2.19772769
28.979628	2.21267132
28.987944	2.22589709
29.006179	2.23617894
29.012600	2.24263452
29.021292	2.24533842
29.038017	2.24467548
29.054749	2.24120026
29.088587	2.23502261
29.097016	2.22617159
29.104921	2.21463174
29.123002	2.20093470
29.138074	2.18570552
29.174138	2.16925965
29.188346	2.15142437
29.206672	2.13215549
29.231240	2.11138073
29.242280	2.08982849
29.260693	2.06838052
29.276914	2.04709023
29.291392	2.02486206
29.300336	2.00091061
29.316072	1.97552538
29.331581	1.95128197
29.342499	1.92938407
29.401167	1.90758408
29.422695	1.88380744
29.430063	1.85886712
29.455052	1.83613787
29.471462	1.81778504
29.488771	1.80048125
29.495257	1.78205254
29.504874	1.76396486
29.512279	1.74769543
29.529709	1.73334593
29.538105	1.71640352
29.548845	1.69409962
29.569957	1.66859946
29.590268	1.64204223
29.607300	1.61525495
29.621255	1.58912470
29.638283	1.56284714
29.654823	1.53760413
29.671586	1.51414228
29.679702	1.49158617
29.690922	1.46823420
29.706389	1.44320370
29.724066	1.41616444
29.741077	1.38836203
29.754496	1.36079415
29.771574	1.33383184
29.788250	1.30767342
29.804840	1.28253728
29.821450	1.25784456
29.833398	1.23284427
29.921936	1.20696121
29.938031	1.18077453
29.954725	1.15348119
29.961705	1.12449133
29.977751	1.09395547
29.987150	1.06225275
29.995680	1.02980727
30.004629	0.99714207
30.022019	0.96372497
30.031180	0.92980140
30.041912	0.89594144
30.073513	0.86281834
30.090096	0.83064022
30.107032	0.79934621
30.112690	0.76896584
30.125176	0.74004576
30.139388	0.71294412
30.147968	0.68762321
30.162727	0.66454351
30.207499	0.64441205
30.216012	0.62744439
30.289816	0.61345389
30.300557	0.60058894
30.327229	0.58878642
30.337698	0.57926709
30.356327	0.57167866
30.369138	0.56558356
30.421043	0.56079740
30.437701	0.55665982
30.445778	0.55457517
30.454194	0.55416729
30.471843	0.55432924
30.480088	0.55485327
30.487736	0.55556960
30.509835	0.55654404
30.512273	0.55828810
30.538313	0.56048856
30.554932	0.56322761
30.571661	0.56609001
30.613393	0.56878814
30.683902	0.57137244
30.710927	0.57293849
30.737664	0.57410849
30.749861	0.57409000
30.758547	0.57338188
30.770950	0.57231474
30.787526	0.57110643
30.795675	0.56993470
30.819508	0.56933192
30.837612	0.56844240
30.841737	0.56803360
30.854273	0.56780699
30.871611	0.56769372
30.887762	0.56765614
30.904486	0.56734456
30.913969	0.56693421
30.925723	0.56659068
30.938930	0.56630574
31.005659	0.56596457
31.013154	0.56555694
31.038752	0.56508561
31.045878	0.56462609
31.054185	0.56417339
31.071383	0.56372564
31.078389	0.56340974
31.104455	0.56307908
31.113238	0.56261867
31.134871	0.56196576
31.151610	0.56121451
31.166497	0.56063349
31.182174	0.56003439
31.206665	0.55907138
31.215107	0.55775624
31.239331	0.55638999
31.246120	0.55517099
31.254559	0.55397966
31.272293	0.55263173
31.280662	0.55146032
31.290947	0.55084475
31.304876	0.55080795
31.313110	0.55111018
31.356832	0.55165512
31.376442	0.55253329
31.390217	0.55370132
31.400562	0.55505593
31.419688	0.55637473
31.425314	0.55758335
31.438154	0.55864843
31.454973	0.55958255
31.461625	0.56035188
31.486364	0.56096072
31.540911	0.56128792
31.548038	0.56143333
31.570829	0.56152163
31.579354	0.56165465
31.590845	0.56174836
31.606149	0.56172177
31.614987	0.56160025
31.624118	0.56149421
31.638485	0.56128764
31.648524	0.56096019
31.658366	0.56045530
31.691571	0.55978845
31.755883	0.55888728
31.764854	0.55785165
31.790311	0.55671737
31.806846	0.55549702
31.822685	0.55403650
31.832333	0.55247873
31.857849	0.55098828
31.867521	0.54988932
31.888144	0.54909674
31.896157	0.54846412
31.921970	0.54793726
31.939032	0.54780000
31.945956	0.54802007
31.971695	0.54839934
31.978614	0.54865764
31.989544	0.54875585
32.000425	0.54876771
32.039225	0.54880494
32.045689	0.54881643
32.057703	0.54872681
32.071100	0.54855079
32.079367	0.54827317
32.091701	0.54785377
32.111268	0.54728317
32.121568	0.54654288
32.130972	0.54564582
32.140589	0.54474933
32.148246	0.54387682
32.173522	0.54311065
32.180275	0.54243962
32.229121	0.54180525
32.255109	0.54128868
32.264039	0.54075313
32.274119	0.54014272
32.290828	0.53946225
32.300320	0.53865868
32.320733	0.53771818
32.329063	0.53667802
32.348607	0.53550329
32.359022	0.53422030
32.368601	0.53284828
32.377640	0.53131615
32.401138	0.52969339
32.418126	0.52815990
32.443675	0.52684185
32.459172	0.52569990
32.470713	0.52474909
32.477487	0.52398778
32.502619	0.52348117
32.510221	0.52318773
32.534534	0.52295786
32.559685	0.52270384
32.572618	0.52263797
32.598008	0.52276955
32.621017	0.52296199
32.636076	0.52323969
32.652447	0.52351711
32.669154	0.52388391
32.678234	0.52437647
32.687646	0.52470702
32.706600	0.52480647
32.716034	0.52485829
32.747844	0.52487117
32.771509	0.52479673
32.777585	0.52443681
32.786759	0.52386108
32.822370	0.52323799
32.837396	0.52266698
32.846626	0.52197555
32.870869	0.52104893
32.878770	0.52004174
32.896317	0.51910384
32.924603	0.51810169
32.938802	0.51701994
32.944616	0.51586522
32.968429	0.51466288
32.978139	0.51344255
33.003755	0.51208487
33.020412	0.51068488
33.042500	0.50929153
33.057527	0.50780414
33.066003	0.50627048
33.088018	0.50475823
33.096579	0.50330725
33.120744	0.50196391
33.137278	0.50071178
33.155433	0.49962148
33.171453	0.49873342
33.196295	0.49802023
33.220612	0.49731117
33.227358	0.49669424
33.237008	0.49630696
33.251678	0.49600245
33.266989	0.49564405
33.282860	0.49531792
33.298808	0.49497604
33.314687	0.49479091
33.326511	0.49460337
33.348548	0.49423879
33.357558	0.49380099
33.373937	0.49340713
33.389714	0.49299245
33.440381	0.49256314
33.455097	0.49215494
33.469670	0.49186926
33.478188	0.49175616
33.490254	0.49172567
33.536686	0.49173648
33.544614	0.49174608
33.567984	0.49170693
33.583279	0.49164472
33.600402	0.49152334
33.609042	0.49122319
33.623695	0.49083070
33.638790	0.49035085
33.648752	0.48988425
33.664521	0.48949715
33.689135	0.48906832
33.696118	0.48864462
33.712123	0.48832114
33.718150	0.48802487
33.727121	0.48781591
33.753902	0.48760537
33.772207	0.48737305
33.789653	0.48716129
33.797144	0.48695583
33.808050	0.48673827
33.824470	0.48656079
33.840219	0.48634631
33.848305	0.48610074
33.871122	0.48587104
33.882364	0.48567601
33.905343	0.48545562
33.944243	0.48524679
33.968271	0.48504517
33.986694	0.48487321
33.992636	0.48476372
34.007970	0.48467354
34.016742	0.48459127
34.032322	0.48456277
34.040905	0.48457058
34.056470	0.48457001
34.105287	0.48454450
34.113268	0.48442983
34.124248	0.48426682
34.142739	0.48407257
34.149794	0.48378049
34.172894	0.48337677
34.189302	0.48292239
34.205128	0.48240767
34.213704	0.48193095
34.248542	0.48148149
34.264196	0.48105044
34.274525	0.48064103
34.298081	0.48028416
34.314358	0.47997563
34.322795	0.47971531
34.330859	0.47953446
34.340137	0.47936777
34.356319	0.47914468
34.374509	0.47891421
34.392274	0.47875261
34.406874	0.47861430
34.455160	0.47846631
34.471321	0.47820980
34.482372	0.47795248
34.504123	0.47775087
34.522900	0.47755779
34.537442	0.47738312
34.555086	0.47719993
34.569465	0.47704066
34.579478	0.47694559
34.600544	0.47682860
34.615548	0.47671270
34.631563	0.47663841
34.640498	0.47657967
34.656737	0.47653280
34.672286	0.47646287
34.696660	0.47639853
34.721550	0.47631416
34.731044	0.47620737
34.750729	0.47608150
34.767548	0.47592242
34.775023	0.47576934
34.790168	0.47565962
34.800920	0.47552979
34.810003	0.47539676
34.832987	0.47524487
34.849143	0.47507364
34.864987	0.47489678
34.874299	0.47471081
34.889853	0.47448010
34.900999	0.47426775
34.915764	0.47403129
34.936284	0.47381015
34.955901	0.47361685
34.970445	0.47338653
34.994220	0.47314137
35.056918	0.47290274
35.073433	0.47266969
35.090339	0.47253453
35.108320	0.47240044
35.122141	0.47223616
35.137762	0.47207570
35.173658	0.47193080
35.201922	0.47169076
35.210585	0.47133181
35.236705	0.47092802
35.253334	0.47048201
35.262856	0.47005894
35.273555	0.46968461
35.290730	0.46932692
35.330405	0.46910558
35.371996	0.46906363
35.407834	0.47134284
35.429958	0.47570332
35.434907	0.48608986
35.446104	0.50159121
35.462552	0.52295077
35.474222	0.55042887
35.486896	0.58463481
35.503892	0.62443493
35.513513	0.67082117
35.536150	0.72024841
35.553032	0.77410542
35.561908	0.83256048
35.587770	0.89604388
35.603243	0.96468377
35.620564	1.03772779
35.637309	1.11410910
35.646206	1.19355538
35.655022	1.27546974
35.669788	1.35879172
35.683390	1.44228860
35.687275	1.52528446
35.704698	1.60734642
35.714083	1.68640622
35.795176	1.76150927
35.804322	1.83323300
35.810993	1.90262770
35.837608	1.97016415
35.856652	2.03286219
35.863316	2.08766924
35.872527	2.13475170
35.896872	2.17210828
35.909847	2.19679097
35.931127	2.20738462
35.946984	2.20346575
35.963739	2.18721797
35.986898	2.16194091
36.003235	2.12935465
36.014441	2.09114792
36.031338	2.04997089
36.046900	2.00757528
36.062530	1.96446575
36.078740	1.92033668
36.091096	1.87494137
36.098332	1.82844383
36.113587	1.78136730
36.164537	1.73196403
36.189889	1.68040424
36.197336	1.61985645
36.214279	1.55867566
36.223189	1.49549436
36.230136	1.43023013
36.248647	1.36453454
36.256414	1.30236033
36.279398	1.24241958
36.294779	1.18989814
36.303226	1.13656845
36.313587	1.08383557
36.330605	1.03280729
36.347549	0.98180058
36.362069	0.92791026
36.379968	0.87205285
36.394938	0.81663696
36.406318	0.76166888
36.420900	0.70623562
36.428135	0.65051778
36.462720	0.59743753
36.474160	0.54989802
36.523810	0.50774225
36.529342	0.47066619
36.547012	0.44024015
36.563625	0.41768941
36.572705	0.40260468
36.581018	0.39287913
36.586947	0.38630694
36.604035	0.38228060
36.622977	0.38034276
36.641862	0.38022655
36.647026	0.38246794
36.669926	0.38713822
36.679743	0.39474463
36.691304	0.40580012
36.718673	0.42070488
36.735770	0.43999961
36.753888	0.46386629
36.786235	0.49197522
36.804949	0.52405536
36.811517	0.56037202
36.822684	0.60175046
36.885645	0.64766581
36.902458	0.69716670
36.917431	0.74975235
36.934398	0.80509149
36.943109	0.86330890
36.959484	0.92368714
36.968817	0.98553108
36.987646	1.04981571
36.999239	1.11717980
37.018932	1.18705372
37.027187	1.25911300
37.037852	1.34566156
37.052364	1.43286013
37.071238	1.51866746
37.085979	1.60177878
37.095876	1.68132650
37.118906	1.75620238
37.127399	1.82601671
37.152221	1.87735042
37.160062	1.92310497
37.184378	1.96572175
37.235444	2.00606423
37.254687	2.04222891
37.271586	2.07416158
37.289921	2.10222455
37.302056	2.12657590
37.311282	2.14701253
37.322920	2.16092016
37.332234	2.16759876
37.338039	2.16934221
37.350615	2.16728725
37.355148	2.16071736
37.385283	2.14912274
37.393612	2.13212250
37.418659	2.11038478
37.438480	2.08304560
37.451963	2.04855233
37.460199	2.00664304
37.485137	1.95899622
37.502023	1.90759182
37.518566	1.85340899
37.526961	1.79621216
37.535266	1.73735072
37.595997	1.67973953
37.619041	1.62204072
37.627764	1.56143620
37.638531	1.49962647
37.652211	1.43759136
37.683496	1.37570271
37.691700	1.31249444
37.716017	1.24653018
37.737235	1.18008387
37.750722	1.11626126
37.760368	1.05334725
37.769595	0.98865091
37.785271	0.92193383
37.809700	0.85457087
37.820857	0.78870815
37.827947	0.72651685
37.838118	0.66828858
37.861350	0.61338681
37.871423	0.56530419
37.882607	0.52496298
37.893941	0.49058074
37.918951	0.46290532
37.952820	0.44114298
37.967260	0.42240149
37.971634	0.40723137
38.001409	0.39624339
38.012706	0.38933735
38.021546	0.38722374
38.037530	0.38790631
38.047244	0.39107532
38.055038	0.39916050
38.073395	0.41174968
38.119245	0.42704956
38.137688	0.44589612
38.151778	0.46954644
38.163135	0.49834533
38.189346	0.53181404
38.201769	0.56974203
38.219000	0.61225135
38.234655	0.65934422
38.251893	0.71088130
38.259196	0.76663029
38.285142	0.82573114
38.299693	0.88765203
38.309441	0.95247965
38.333177	1.02040708
38.380094	1.09109098
38.397700	1.16305986
38.404715	1.23566361
38.414249	1.30888512
38.426864	1.38107285
38.450657	1.45078756
38.460057	1.51783788
38.468101	1.58307421
38.482202	1.64586868
38.498181	1.70464264
38.515793	1.75977632
38.536901	1.81243974
38.555360	1.86404176
38.564256	1.91446390
38.586472	1.96284724
38.596792	2.01174516
38.613068	2.06216066
38.628511	2.11171411
38.638883	2.15747572
38.655145	2.19626483
38.663641	2.22654373
38.705326	2.24787420
38.714108	2.25869331
38.722960	2.25969398
38.768897	2.25279824
38.787513	2.24130773
38.795371	2.22735936
38.805652	2.21122737
38.819247	2.19216586
38.835402	2.16850317
38.845736	2.13974283
38.855110	2.10607562
38.863979	2.06861064
38.880556	2.02827912
38.920830	1.98374366
38.936827	1.93436958
38.947388	1.88432995
38.963338	1.83720080
38.987741	1.79263055
39.004212	1.74615023
39.020799	1.69177147
39.028487	1.63148430
39.061509	1.57269952
39.119499	1.51436116
39.135378	1.44045246
39.147171	1.35997167
39.157509	1.27558860
39.171462	1.19310545
39.182258	1.11256140
39.202095	1.02798117
39.211312	0.93806264
39.220296	0.85789276
39.226642	0.78124703
39.237529	0.71032988
39.251677	0.64701453
39.268149	0.59134151
39.276150	0.54314647
39.300047	0.50365026
39.320362	0.47184955
39.340627	0.44577346
39.351877	0.42441099
39.369671	0.40673986
39.386544	0.39371104
39.401858	0.38556240
39.418773	0.38204240
39.436312	0.38269545
39.455146	0.38634135
39.469914	0.39224179
39.479225	0.39962347
39.501366	0.40883643
39.518312	0.42106477
39.526777	0.43581387
39.538985	0.45334298
39.552124	0.47512246
39.584819	0.50243381
39.635482	0.53641311
39.649565	0.57652556
39.668945	0.62205677
39.704024	0.67358166
39.720158	0.72961975
39.730438	0.79033296
39.747400	0.85287148
39.757017	0.91716768
39.774495	0.98259125
39.778907	1.04933092
39.862984	1.11723172
39.890425	1.18712872
39.917968	1.24848947
39.939137	1.33706414
39.949321	1.44607002
39.964674	1.55146263
39.984344	1.65263045
39.994985	1.74842407
40.005400	1.83808601
40.016966	1.93263622
40.034582	1.99914123
40.042009	2.04313413
40.066931	2.08719691
40.081603	2.13043880
40.097051	2.17167258
40.107300	2.20907877
40.113901	2.23933079
40.122370	2.26038463
40.137740	2.27106595
40.169230	2.27257247
40.179959	2.26582104
40.195836	2.25230051
40.222373	2.23398375
40.241385	2.21197678
40.253059	2.18591004
40.259374	2.15348387
40.274598	2.11418853
40.284664	2.07057722
40.301565	2.02390715
40.310374	1.97386550
40.319769	1.91942470
40.354801	1.86201702
40.370788	1.80492927
40.381344	1.74872545
40.400152	1.68706009
40.416043	1.62057595
40.438226	1.54987571
40.452039	1.47805874
40.469870	1.40451242
40.486459	1.32908278
40.497136	1.25219825
40.506560	1.17746956
40.531847	1.10312290
40.617895	1.02955275
40.627495	0.94653680
40.637497	0.86745850
40.652943	0.79344560
40.669513	0.72480960
40.686069	0.66218285
40.695374	0.60566784
40.704892	0.55523754
40.721039	0.51988908
40.736907	0.48814009
40.751844	0.46001770
40.768085	0.43618807
40.784630	0.41723810
40.801063	0.40333153
40.816902	0.39439421
40.826904	0.39058209
40.858781	0.39079602
40.874831	0.39388105
40.884293	0.39889838
40.891814	0.40594110
40.901047	0.41603671
40.917613	0.43006163
40.967661	0.44837849
40.986572	0.47158463
41.005547	0.50041008
41.020054	0.54363108
41.038280	0.59319442
41.051600	0.64847282
41.059263	0.70896959
41.068455	0.77448644
41.084456	0.84459359
41.115828	0.91843864
41.123956	0.98675997
41.135188	1.05676961
41.151653	1.12808049
41.165163	1.20004214
41.176003	1.27208836
41.199733	1.34356981
41.208092	1.41372801
41.232518	1.48263018
41.258300	1.55093673
41.269114	1.61823176
41.279664	1.68372560
41.303402	1.74842007
41.311081	1.81028649
41.321192	1.86809483
41.344723	1.92240647
41.354239	1.97331658
41.371715	2.02199860
41.403041	2.06849328
41.412102	2.11110932
41.427300	2.14972610
41.441354	2.18384389
41.462975	2.21150451
41.470203	2.23033554
41.500737	2.23853503
41.508421	2.23620664
41.534756	2.22336439
41.550882	2.20142591
41.570112	2.17191284
41.585220	2.13523766
41.602465	2.09246360
41.651190	2.04363235
41.666186	1.99593314
41.672430	1.94749241
41.683217	1.89668278
41.703093	1.84229466
41.734286	1.78729187
41.752834	1.73442493
41.760272	1.68011423
41.768681	1.61827403
41.784662	1.53987669
41.792802	1.46095777
41.803713	1.38515063
41.828179	1.30974320
41.851812	1.23068582
41.869262	1.15112724
41.884565	1.07049335
41.896344	1.00125382
41.919315	0.92036557
41.933408	0.83857812
41.942076	0.75825289
41.973698	0.68354085
41.997857	0.61708150
42.006547	0.55996298
42.049802	0.51290382
42.072495	0.48661511
42.091829	0.46871149
42.104424	0.45705129
42.120371	0.44958818
42.130755	0.44604388
42.140146	0.44651723
42.155685	0.44992868
42.170273	0.45564505
42.181357	0.46451480
42.200385	0.47762915
42.208782	0.49527579
42.223450	0.51734661
42.243831	0.54407768
42.253802	0.57632863
42.270462	0.61493049
42.304174	0.66046758
42.319310	0.71406474
42.337006	0.77592812
42.352618	0.84412770
42.358644	0.91617322
42.367560	0.99031194
42.400330	1.06574727
42.419176	1.14280411
42.426119	1.22048989
42.468689	1.29756925
42.479962	1.37347243
42.488665	1.44824622
42.496338	1.52329080
42.521278	1.60030134
42.533579	1.67811517
42.550736	1.75232600
42.560048	1.82265440
42.583854	1.89218862
42.598980	1.96150204
42.604194	2.02607566
42.633730	2.08177219
42.652691	2.12587575
42.657279	2.16012666
42.672519	2.18461632
42.690778	2.19699792
42.717612	2.19810215
42.723734	2.19148912
42.750823	2.17950050
42.757864	2.16498134
42.784590	2.14972285
42.791370	2.13361760
42.817253	2.11632974
42.829412	2.09689485
42.852067	2.07441124
42.868110	2.04785882
42.883767	2.01618614
42.900452	1.97990492
42.917122	1.93976292
42.937670	1.89643921
42.944028	1.85070650
42.960389	1.80461641
42.969303	1.75850681
42.986532	1.71099551
43.002866	1.66037634
43.020421	1.60531566
43.070863	1.54860281
43.075951	1.49157238
43.117921	1.43209166
43.124657	1.36880596
43.134567	1.30342959
43.168777	1.23724837
43.184930	1.17130072
43.202081	1.10414324
43.218528	1.03388830
43.228105	0.96270188
43.236953	0.89296303
43.251679	0.82601263
43.262850	0.76385333
43.276809	0.70797778
43.296424	0.65750349
43.312671	0.61442638
43.334057	0.57890837
43.342717	0.55070816
43.353663	0.52872705
43.369251	0.51112007
43.377563	0.49665458
43.402731	0.48594324
43.437034	0.47836198
43.453563	0.47320626
43.470171	0.47040084
43.514897	0.47094206
43.527751	0.47573918
43.544821	0.48562729
43.553807	0.50087262
43.569050	0.52074910
43.579120	0.54441663
43.603549	0.57189572
43.620154	0.60344668
43.636896	0.63913036
43.644926	0.67814237
43.657330	0.71977155
43.663458	0.76373278
43.683668	0.80985951
43.691738	0.85762784
43.699499	0.90637065
43.735530	0.95564908
43.751336	1.00574125
43.767362	1.05698167
43.785455	1.11021551
43.793530	1.16574163
43.803533	1.22326917
43.820144	1.28282868
43.902688	1.34395780
43.919796	1.41766173
43.934477	1.49397797
43.943436	1.57118329
43.955721	1.64672939
43.969643	1.72150777
43.973636	1.79581458
43.981371	1.87068841
43.999847	1.93250031
44.020051	1.98873256
44.026771	2.03898899
44.050801	2.08364317
44.068138	2.11965169
44.074810	2.14445899
44.098312	2.15502339
44.106124	2.15265820
44.116257	2.13887053
44.158048	2.11435723
44.170530	2.08025070
44.177420	2.03868653
44.233299	1.99141327
44.241367	1.94056523
44.252883	1.88841062
44.262431	1.83641331
44.269998	1.78437387
44.283345	1.73021154
44.300012	1.67165840
44.328061	1.61147187
44.351337	1.55006236
44.367116	1.48574591
44.374943	1.41601840
44.407156	1.34195184
44.461920	1.26743062
44.488540	1.19427887
44.502029	1.10732800
44.516030	1.01012747
44.525829	0.91485437
44.545569	0.82476601
44.550184	0.74198101
44.565291	0.66666641
44.581109	0.59979428
44.589065	0.55452322
44.605390	0.52724658
44.647813	0.50644789
44.663525	0.49069335
44.672003	0.47872505
44.696795	0.46989673
44.717373	0.46407271
44.733136	0.46115725
44.742834	0.46147078
44.750444	0.46487250
44.766731	0.47174988
44.784551	0.48236185
44.793888	0.49833802
44.810092	0.52101882
44.828453	0.55078553
44.842262	0.58807029
44.858051	0.63411197
44.877565	0.68864983
44.883880	0.75009093
44.893930	0.81531810
44.900259	0.88248879
44.981679	0.95233114
44.998119	1.02424335
45.007613	1.11204781
45.033067	1.20000399
45.040395	1.28806090
45.049113	1.37745289
45.068074	1.46980299
45.074799	1.56420549
45.086747	1.65585892
45.100505	1.72849805
45.108316	1.79963926
45.117787	1.87241366
45.127476	1.94601897
45.170115	2.01709171
45.179603	2.08158297
45.190724	2.14010734
45.211101	2.18977861
45.227023	2.22557508
45.253072	2.24257355
45.260284	2.24069559
45.275860	2.22204278
45.286447	2.18937552
45.334732	2.14492733
45.344318	2.09207473
45.366066	2.03374265
45.375035	1.97242606
45.400376	1.90942260
45.409537	1.84441357
45.418076	1.77791016
45.434394	1.70663155
45.443651	1.63271464
45.452982	1.55778944
45.456577	1.48395623
45.483640	1.41024036
45.493899	1.33456325
45.519151	1.25527408
45.535918	1.17657661
45.551208	1.09782201
45.561241	1.01821580
45.569512	0.93589005
45.610540	0.85214433
45.620272	0.77036703
45.653109	0.69454122
45.669441	0.62825023
45.684260	0.57255223
45.694855	0.52656816
45.711057	0.49070123
45.733976	0.46584536
45.752913	0.45157947
45.769902	0.44467462
45.784803	0.44158933
45.795040	0.44108358
45.810111	0.44348359
45.830861	0.44774258
45.851699	0.45252973
45.870344	0.45780245
45.880889	0.46454152
45.914574	0.47336367
45.932420	0.48407499
45.941258	0.49668061
45.957870	0.51194678
45.967526	0.52983892
45.975101	0.54983058
45.986555	0.57146208
45.999530	0.59810612
46.017580	0.62500844
46.063454	0.65129072
46.075684	0.67599302
46.081758	0.69854680
46.090795	0.71857640
46.114291	0.73585740
46.122564	0.74639268
46.146786	0.75417182
46.155392	0.75932907
46.180481	0.76220014
46.202110	0.76289474
46.220626	0.76172030
46.242002	0.75920966
46.261627	0.75569194
46.279370	0.75138110
46.286819	0.74645253
46.304757	0.74086310
46.319231	0.73471594
46.332258	0.72792269
46.351238	0.72037905
46.365515	0.71228522
46.396170	0.70389762
46.413787	0.69555382
46.457011	0.68766595
46.467505	0.68048556
46.483013	0.67424045
46.492608	0.66902690
46.503091	0.66462629
46.516209	0.66082438
46.532204	0.65740561
46.541954	0.65413740
46.549115	0.65091667
46.569482	0.64772978
46.581001	0.64470414
46.596157	0.64209595
46.601868	0.64005728
46.630624	0.63868199
46.646583	0.63798484
46.654970	0.63788099
46.716085	0.63825143
46.732042	0.63897776
46.739593	0.64000817
46.756613	0.64125433
46.768867	0.64248870
46.782585	0.64354335
46.791671	0.64435683
46.805044	0.64490722
46.814030	0.64524697
46.832093	0.64527570
46.842453	0.64500336
46.865452	0.64459336
46.880044	0.64424105
46.890958	0.64417021
46.905845	0.64449107
46.931976	0.64522896
46.949716	0.64648476
46.968059	0.64827979
46.983826	0.65051180
47.000395	0.65297484
47.017164	0.65537151
47.024308	0.65751527
47.048701	0.65918935
47.071115	0.66020155
47.079759	0.66052234
47.101685	0.66023031
47.117510	0.65946389
47.143008	0.65839100
47.152381	0.65718412
47.182153	0.65594277
47.199616	0.65477053
47.219166	0.65365698
47.232137	0.65251638
47.240418	0.65130040
47.250559	0.65004890
47.312485	0.64875657
47.321192	0.64747622
47.335828	0.64619649
47.350304	0.64493151
47.363677	0.64376366
47.378867	0.64278249
47.399635	0.64200515
47.416949	0.64150524
47.433465	0.64119939
47.442145	0.64099546
47.452341	0.64074776
47.468862	0.64038085
47.475260	0.63971699
47.484974	0.63869136
47.521005	0.63713818
47.530082	0.63500936
47.540558	0.63238232
47.551613	0.62945627
47.562132	0.62634603
47.584114	0.62322585
47.591648	0.62021405
47.609706	0.61746565
47.633701	0.61510176
47.641093	0.61318836
47.649894	0.61172150
47.685105	0.61068879
47.700725	0.61005009
47.716162	0.60970785
47.733383	0.60955335
47.742072	0.60952900
47.757986	0.60960273
47.802018	0.60978382
47.817487	0.61004786
47.833523	0.61033681
47.847253	0.61062492
47.862902	0.61094954
47.878644	0.61137323
47.899884	0.61176949
47.915740	0.61193879
47.933176	0.61174925
47.939413	0.61118093
47.954958	0.61026601
47.979086	0.60905337
47.997496	0.60760077
48.010840	0.60599303
48.022102	0.60441616
48.033724	0.60299469
48.041854	0.60175842
48.057956	0.60074839
48.084914	0.59996647
48.092779	0.59933736
48.112541	0.59889700
48.128531	0.59857299
48.199679	0.59838071
48.216474	0.59835476
48.225205	0.59839565
48.241130	0.59849190
48.251546	0.59865019
48.260451	0.59888252
48.281759	0.59920626
48.291685	0.59966410
48.307690	0.60024519
48.323477	0.60092286
48.349526	0.60160362
48.366886	0.60219853
48.383835	0.60266510
48.391592	0.60291309
48.400186	0.60288374
48.417061	0.60258650
48.430309	0.60213739
48.441817	0.60160272
48.457762	0.60113290
48.477025	0.60074976
48.482594	0.60056264
48.493411	0.60055428
48.544833	0.60075263
48.560653	0.60101832
48.570438	0.60125089
48.581872	0.60136826
48.599725	0.60137351
48.607835	0.60127634
48.623842	0.60108910
48.643030	0.60074090
48.659047	0.60027235
48.672314	0.59977462
48.678087	0.59928142
48.686509	0.59877632
48.702683	0.59825939
48.749787	0.59775351
48.767702	0.59732346
48.774581	0.59708224
48.816853	0.59707564
48.828852	0.59728842
48.844100	0.59765479
48.860101	0.59814745
48.897156	0.59878125
48.958339	0.59955419
48.963600	0.60043377
48.973721	0.60139216
48.996172	0.60249722
49.004352	0.60371747
49.012761	0.60511684
49.022251	0.60657314
49.030536	0.60792815
49.038793	0.60905629
49.049165	0.60987706
49.064902	0.61025441
49.083346	0.61022806
49.100042	0.60967336
49.116022	0.60861936
49.124197	0.60718251
49.132299	0.60544491
49.165615	0.60358072
49.179526	0.60185998
49.195649	0.60044286
49.204444	0.59943228
49.216306	0.59888944
49.242999	0.59880980
49.259690	0.59915727
49.274681	0.59982377
49.285510	0.60057282
49.300103	0.60129305
49.309291	0.60197365
49.395243	0.60262086
49.415571	0.60327981
49.424364	0.60400496
49.432564	0.60466441
49.448962	0.60519948
49.456055	0.60557866
49.472031	0.60568733
49.481950	0.60540181
49.489805	0.60498026
49.498814	0.60441681
49.514602	0.60382543
