arm26_elbow_motion
version=1
nRows=1952
nColumns=2
inDegrees=no
endheader
time	r_elbow_flex
0.105396	0.31736850
0.116480	0.31618478
0.150153	0.31484501
0.284386	0.31332670
0.314185	0.31194109
0.330712	0.31055403
0.346052	0.30954093
0.361995	0.30868814
0.374140	0.30793942
0.390281	0.30732623
0.407073	0.30685787
0.423914	0.30625794
0.434014	0.30598227
0.444559	0.30576240
0.457126	0.30560915
0.468772	0.30542099
0.477760	0.30528942
0.489175	0.30510501
0.506457	0.30483239
0.518130	0.30451084
0.537509	0.30417147
0.552421	0.30380547
0.570179	0.30343707
0.579937	0.30290536
0.607639	0.30241483
0.623480	0.30200155
0.640877	0.30144483
0.656845	0.30097145
0.695840	0.30047690
0.723857	0.30005670
0.741401	0.29978030
0.753793	0.29955466
0.769996	0.29929586
0.786224	0.29922121
0.802531	0.29915362
0.813626	0.29914608
0.836571	0.29914099
0.844932	0.29907581
0.861487	0.29896643
0.870491	0.29891130
0.882957	0.29883757
0.893102	0.29872038
0.902544	0.29856884
0.912233	0.29840012
0.937217	0.29824913
0.953268	0.29810741
0.962366	0.29793594
0.970938	0.29782774
1.024874	0.29765206
1.042933	0.29747832
1.054683	0.29726546
1.071027	0.29708292
1.080250	0.29691128
1.103749	0.29673050
1.132356	0.29641970
1.165957	0.29614286
1.190157	0.29579985
1.211585	0.29545511
1.247638	0.29513965
1.252142	0.29541093
1.281599	0.29596579
1.307420	0.29683562
1.321917	0.29805365
1.330910	0.29954985
1.341481	0.30125647
1.351444	0.30299243
1.357570	0.30422831
1.383370	0.30530515
1.406658	0.30625934
1.426089	0.30706485
1.435853	0.30816968
1.456971	0.30965522
1.473409	0.31160283
1.490342	0.31419096
1.497603	0.31750772
1.513325	0.32172913
1.524569	0.32676182
1.540484	0.33224006
1.551208	0.33826798
1.560934	0.34491242
1.573005	0.35206369
1.591138	0.35957434
1.608155	0.36724322
1.616531	0.37544949
1.631066	0.38445211
1.677131	0.39413920
1.692959	0.40431065
1.707643	0.41509989
1.716083	0.42670662
1.726073	0.43921011
1.736689	0.45236235
1.760635	0.46629720
1.773400	0.48130686
1.791384	0.49761244
1.809129	0.51479022
1.831921	0.53249285
1.844233	0.55079627
1.859927	0.56966847
1.893628	0.58866244
1.917619	0.60737972
1.927235	0.62597816
1.941893	0.64473574
1.952344	0.66379465
1.960291	0.68308035
2.009784	0.70257483
2.014103	0.72253415
2.029832	0.74323812
2.040115	0.76461932
2.052639	0.78663679
2.058152	0.80924796
2.071840	0.83236260
2.088065	0.85590755
2.107918	0.87985440
2.141988	0.90407948
2.149504	0.92838351
2.158854	0.95277194
2.174610	0.97720426
2.209293	1.00172031
2.216967	1.02648835
2.257362	1.05145382
2.266021	1.07632250
2.292409	1.10091027
2.300333	1.12490667
2.309459	1.14839660
2.323925	1.17153397
2.339569	1.19414849
2.358577	1.21600638
2.367433	1.23731389
2.455015	1.25840299
2.474532	1.27871250
2.489598	1.29805685
2.504943	1.32085603
2.520404	1.34342947
2.535541	1.36959523
2.557387	1.39561613
2.575935	1.42134803
2.585804	1.44754560
2.593819	1.47469807
2.608963	1.49808996
2.622819	1.52133101
2.631853	1.54064929
2.640512	1.55985852
2.667513	1.57892054
2.683594	1.59779620
2.699969	1.61618392
2.715903	1.63420805
2.732711	1.65191767
2.740645	1.66923895
2.759005	1.68615192
2.762446	1.70286959
2.778450	1.71939339
2.789449	1.73531274
2.807102	1.75022559
2.836699	1.76443084
2.889555	1.77816820
2.906950	1.79122157
2.924825	1.80344151
2.932576	1.81496200
2.947956	1.82610266
2.956947	1.83716375
2.974153	1.84765500
2.976852	1.85754789
2.992409	1.86737682
3.009147	1.87728112
3.020418	1.88705733
3.040843	1.89689300
3.050643	1.90701881
3.061080	1.91780435
3.074739	1.92909657
3.085139	1.94023037
3.092738	1.95098049
3.117092	1.96155944
3.127519	1.97190021
3.150414	1.98215506
3.177586	1.99226866
3.199049	2.00233368
3.208484	2.01272771
3.226447	2.02344962
3.240377	2.03458993
3.248689	2.04606090
3.274573	2.05766591
3.307005	2.06914840
3.314861	2.08029262
3.340634	2.09074971
3.358032	2.10046133
3.364416	2.10916893
3.373022	2.11695546
3.390520	2.12366795
3.406852	2.12954620
3.422731	2.13474167
3.440298	2.13954861
3.456045	2.14400258
3.483119	2.14818664
3.493658	2.15230227
3.534012	2.15628207
3.576780	2.15987944
3.598641	2.16305968
3.623948	2.16571895
3.639241	2.16807362
3.655497	2.16980509
3.675214	2.17035403
3.683147	2.16949629
3.706998	2.16718442
3.718584	2.16345311
3.739354	2.15636601
3.756063	2.14721895
3.772623	2.13615288
3.789354	2.12356202
3.799213	2.10969480
3.809581	2.09457314
3.826470	2.07824488
3.841009	2.06300363
3.849102	2.04751743
3.856749	2.03180761
3.873143	2.01549008
3.885030	1.99914611
3.892931	1.98301232
3.905195	1.96640802
3.962719	1.94915363
3.987554	1.93206113
4.002740	1.91502608
4.009917	1.89749973
4.025900	1.87982610
4.039147	1.86262603
4.056138	1.84648557
4.066773	1.83075078
4.077047	1.81464337
4.092075	1.79836233
4.107742	1.78326263
4.123099	1.76915163
4.133392	1.75543234
4.144115	1.74132741
4.183926	1.72722973
4.209390	1.71354594
4.217347	1.69966106
4.240465	1.68503037
4.249099	1.66891672
4.260885	1.65191165
4.274594	1.63523606
4.292694	1.61901029
4.301150	1.60223683
4.329851	1.58573399
4.342393	1.56966985
4.359966	1.55387848
4.376572	1.53775641
4.390431	1.52155105
4.403235	1.50568433
4.412004	1.49017660
4.436285	1.47404003
4.445312	1.45712086
4.453003	1.43936760
4.472329	1.42094516
4.491160	1.40123910
4.505947	1.37885046
4.540561	1.35417714
4.559233	1.32860296
4.572756	1.30268118
4.582817	1.27635015
4.599015	1.24853959
4.611955	1.21925518
4.658332	1.19056743
4.664790	1.16288610
4.672992	1.13467186
4.733001	1.10442180
4.755466	1.07290973
4.771421	1.04242624
4.787511	1.01381077
4.803573	0.98498416
4.819261	0.95646161
4.835062	0.93066672
4.851033	0.90827733
4.865490	0.88790046
4.876959	0.86849314
4.886752	0.84990571
4.895355	0.83261294
4.919868	0.81492487
4.936157	0.79528004
4.946638	0.77423059
4.954187	0.75368309
4.970880	0.73418070
4.982094	0.71529026
4.990954	0.69784613
4.999860	0.68323513
5.025641	0.67270357
5.040400	0.66662871
5.051287	0.66463164
5.073741	0.66609061
5.089418	0.67069615
5.124501	0.67802472
5.130082	0.68691176
5.142954	0.69638365
5.155988	0.70615098
5.170960	0.71554645
5.179636	0.72451409
5.193420	0.73391137
5.208838	0.74375386
5.225400	0.75412570
5.257638	0.76566301
5.265494	0.77913346
5.294151	0.79482954
5.307347	0.81222913
5.313602	0.83092822
5.357395	0.85171730
5.364358	0.87551030
5.388798	0.90176871
5.405723	0.92973293
5.426877	0.95941331
5.433121	0.99089004
5.458212	1.02342911
5.465374	1.05617822
5.500389	1.08869639
5.510669	1.12088301
5.526480	1.15258726
5.533164	1.18430534
5.542325	1.21656013
5.559539	1.24975930
5.575492	1.28383818
5.583074	1.31847378
5.593558	1.35332284
5.617952	1.38874401
5.632613	1.42384156
5.644139	1.45816669
5.658752	1.49210627
5.700276	1.52559076
5.709786	1.55853856
5.720706	1.59094612
5.736933	1.62243034
5.756559	1.65331979
5.819229	1.68380769
5.852101	1.71828092
5.873474	1.75210451
5.888939	1.78453308
5.905105	1.81552276
5.921713	1.84517788
5.938325	1.87093709
5.953923	1.89888521
5.969023	1.92026593
5.977247	1.93987370
5.993579	1.95827701
6.005033	1.97571498
6.023356	1.99166639
6.041943	2.00871542
6.067546	2.02072958
6.083446	2.03190274
6.099346	2.04261815
6.107928	2.05351965
6.124290	2.06478042
6.133746	2.07647214
6.156637	2.08859567
6.173734	2.10110094
6.201554	2.11383822
6.222173	2.12705295
6.226483	2.14112347
6.243298	2.15607876
6.249230	2.17199280
6.259468	2.18826695
6.275747	2.20456074
6.290338	2.22039110
6.298547	2.23476126
6.343356	2.24667351
6.346067	2.25522505
6.374524	2.25977982
6.381588	2.26048767
6.392900	2.25747455
6.407813	2.25106429
6.422299	2.24168026
6.430747	2.22975342
6.442277	2.21605346
6.457940	2.20142643
6.481359	2.18574746
6.506393	2.16856090
6.538733	2.15051395
6.552199	2.13169891
6.560940	2.11138981
6.569285	2.09040843
6.576862	2.06951216
6.601145	2.04904051
6.631998	2.02912953
6.640241	2.00999954
6.647771	1.99187556
6.663423	1.97567221
6.675022	1.96036874
6.692584	1.94526117
6.709133	1.93048210
6.717015	1.91678594
6.751669	1.90361507
6.761737	1.89119365
6.786449	1.87863477
6.811236	1.86514599
6.825196	1.85136949
6.840200	1.83747956
6.850263	1.82221341
6.857075	1.80560291
6.907010	1.78667434
6.915580	1.76672524
6.924657	1.74699881
6.940962	1.72590232
6.950606	1.70340341
6.960664	1.68178015
6.983074	1.66081765
6.992153	1.64018811
7.006074	1.61819149
7.027363	1.59471674
7.093332	1.57150225
7.123337	1.54817058
7.141719	1.52222726
7.168689	1.48812527
7.186434	1.44849516
7.192412	1.40952585
7.206992	1.36997607
7.221431	1.32950350
7.230767	1.28965262
7.242280	1.25209096
7.252992	1.22153169
7.263473	1.19473807
7.286654	1.16664079
7.304823	1.13936656
7.312284	1.11247732
7.336069	1.08365186
7.352130	1.05189604
7.371972	1.01874680
7.380418	0.98699958
7.392031	0.95721237
7.409874	0.92815825
7.416219	0.89960232
7.457144	0.87233536
7.473794	0.84668243
7.480013	0.82210645
7.504838	0.79698432
7.523706	0.77041002
7.538234	0.74239371
7.546209	0.71371703
7.602084	0.68544772
7.612402	0.65740362
7.634597	0.63091369
7.656087	0.60652614
7.665682	0.58492245
7.677088	0.56710594
7.685793	0.55278588
7.693141	0.54145564
7.724986	0.53392882
7.734768	0.52893579
7.740769	0.52636885
7.750604	0.52616453
7.758387	0.52732032
7.774369	0.52963799
7.791180	0.53324352
7.806013	0.53835544
7.840969	0.54498793
7.847254	0.55327687
7.874922	0.56362273
7.880965	0.57636004
7.905325	0.59234071
7.911025	0.61194075
7.919569	0.63417402
7.935829	0.65753132
7.961714	0.68153782
8.013589	0.70666487
8.025861	0.73396688
8.040683	0.76233473
8.055846	0.79044942
8.072385	0.81905299
8.084415	0.85027468
8.092051	0.88438206
8.100523	0.92058511
8.116781	0.95833105
8.132571	0.99758087
8.142833	1.03868283
8.166014	1.08156924
8.184582	1.12545248
8.207262	1.17013971
8.227280	1.21519268
8.242408	1.25996246
8.266485	1.30471893
8.276582	1.34952930
8.283686	1.39332974
8.293526	1.43564731
8.325593	1.47732326
8.343333	1.51915973
8.369747	1.56073789
8.386383	1.60121079
8.457586	1.64021334
8.479066	1.67786538
8.501867	1.71790066
8.517122	1.76189548
8.532808	1.80293958
8.547333	1.84088842
8.563972	1.87621548
8.573839	1.90942565
8.583671	1.94082011
8.599711	1.96707131
8.607632	1.98592079
8.624149	2.00327004
8.637686	2.01981567
8.656661	2.03603334
8.660372	2.05132708
8.672859	2.06615369
8.692177	2.08041836
8.699283	2.09389383
8.741837	2.10704927
8.746793	2.11997424
8.755075	2.13213403
8.771219	2.14429108
8.780522	2.15626676
8.794260	2.16817067
8.835914	2.18034669
8.844254	2.19303688
8.852617	2.20564452
8.861140	2.21783120
8.879251	2.22892640
8.890585	2.23841734
8.917488	2.24556277
8.949349	2.24962955
8.957454	2.24994076
8.975716	2.24672542
8.984140	2.24053311
9.000610	2.23179663
9.024863	2.22114985
9.037752	2.20916131
9.057526	2.19617840
9.067808	2.18249889
9.084507	2.16781115
9.099756	2.15229478
9.115915	2.13584211
9.138694	2.11815487
9.147759	2.09911961
9.158149	2.07889922
9.180932	2.05839557
9.188787	2.03732211
9.209628	2.01613457
9.221319	1.99551862
9.240909	1.97677291
9.258134	1.95826817
9.274104	1.94048290
9.282729	1.92437593
9.307579	1.91014534
9.340526	1.89752877
9.350093	1.88464253
9.364079	1.87062912
9.376514	1.85712478
9.390404	1.84339664
9.409152	1.82815892
9.431456	1.81078730
9.441633	1.79148861
9.459072	1.77191139
9.487184	1.75241974
9.541361	1.73289564
9.594862	1.71239904
9.605511	1.69039723
9.620474	1.67015148
9.634774	1.64865525
9.650515	1.62052260
9.665568	1.59057914
9.674792	1.55958978
9.689747	1.52780148
9.699551	1.49438702
9.715517	1.45819999
9.731511	1.42271995
9.740703	1.39261211
9.757285	1.36103076
9.772514	1.32728107
9.788531	1.29395935
9.806390	1.26275890
9.812974	1.23063393
9.844297	1.19602956
9.867445	1.16116159
9.888062	1.12859115
9.904727	1.09761886
9.921561	1.06635325
9.938025	1.03519959
9.947336	1.00731500
9.958946	0.98217842
9.964037	0.95575412
9.977298	0.92724730
10.005951	0.89882442
10.019494	0.87155798
10.040558	0.84368387
10.049916	0.81424945
10.070963	0.78540796
10.085900	0.75953084
10.110922	0.73574875
10.126153	0.71296574
10.130391	0.69203576
10.145984	0.67399961
10.157785	0.65898918
10.164814	0.64639088
10.240959	0.63665741
10.256200	0.63145905
10.267044	0.63108050
10.280566	0.63365827
10.290569	0.63832008
10.306708	0.64493530
10.323147	0.65332265
10.337142	0.66324757
10.345721	0.67391754
10.359442	0.68514438
10.375609	0.69780220
10.381560	0.71241888
10.416757	0.72925611
10.435204	0.74801909
10.443556	0.76866586
10.466448	0.79027665
10.482370	0.81251125
10.490722	0.83574622
10.507787	0.86030082
10.522128	0.88505933
10.532290	0.90920507
10.558088	0.93313529
10.573712	0.95866284
10.653403	0.98539250
10.670502	1.01233868
10.688163	1.04011369
10.694981	1.07019696
10.703419	1.10361760
10.723984	1.13990816
10.731527	1.17754806
10.753818	1.21708310
10.770613	1.25810344
10.786274	1.30379794
10.794322	1.34782324
10.804813	1.38942408
10.812011	1.42909679
10.838818	1.46721505
10.848632	1.50353140
10.858032	1.53851645
10.866893	1.56759081
10.891659	1.59602911
10.903465	1.62418479
10.920226	1.65165830
10.970146	1.67832191
10.988972	1.70452698
11.000553	1.73016034
11.017434	1.75519562
11.028053	1.77970849
11.040423	1.80396404
11.049765	1.82817230
11.059267	1.85315833
11.068362	1.87824891
11.073201	1.90214204
11.091553	1.92518736
11.103913	1.94767564
11.122806	1.96873725
11.139745	1.98810159
11.155935	2.00500900
11.172832	2.01971279
11.180853	2.03337878
11.196329	2.04577465
11.209064	2.05748808
11.246862	2.06949837
11.258649	2.08159814
11.273775	2.09373695
11.323319	2.10610201
11.359626	2.11869575
11.423992	2.13121378
11.431062	2.14315403
11.455338	2.15942783
11.469911	2.17430811
11.489973	2.18866504
11.502088	2.20264483
11.511203	2.21632880
11.534243	2.22996596
11.544034	2.24310209
11.553161	2.25026795
11.561595	2.25666262
11.586586	2.26108975
11.594001	2.26335772
11.603253	2.26346646
11.620261	2.26154411
11.627757	2.25775449
11.654108	2.25238387
11.684850	2.24593106
11.701681	2.23877896
11.720054	2.23080611
11.730904	2.22196637
11.746406	2.21215477
11.771969	2.20139797
11.780188	2.18963062
11.789223	2.17698458
11.797773	2.16383908
11.813273	2.15018262
11.828822	2.13571585
11.854137	2.12065220
11.871926	2.10597986
11.888213	2.09162000
11.900593	2.07771768
11.938161	2.06314613
11.953139	2.04818637
11.961031	2.03368924
11.984805	2.01967822
12.000500	2.00508228
12.008825	1.99001945
12.029920	1.97405282
12.038439	1.95806522
12.047814	1.94284463
12.055934	1.92864791
12.070043	1.91549694
12.079501	1.90251221
12.098176	1.88866746
12.104147	1.87438614
12.122401	1.86107998
12.156193	1.84704844
12.171814	1.83122166
12.223120	1.81324921
12.241227	1.79413841
12.246710	1.77569904
12.255024	1.75719796
12.270448	1.73657647
12.302912	1.71389639
12.310118	1.68948306
12.319902	1.66461861
12.338233	1.63897040
12.346945	1.61094467
12.362808	1.58248126
12.396573	1.55546891
12.417301	1.52947484
12.424955	1.50272694
12.434938	1.47398380
12.457712	1.44593864
12.465525	1.41989793
12.473217	1.39187245
12.487958	1.35968699
12.493975	1.32567237
12.521314	1.29247221
12.539414	1.25937333
12.559898	1.22240015
12.584932	1.18144915
12.616153	1.14139746
12.632161	1.10356054
12.648052	1.06584479
12.663788	1.02775871
12.679438	0.99142390
12.695460	0.95889853
12.707421	0.92867683
12.717719	0.89675305
12.733592	0.86261562
12.749597	0.82870193
12.759848	0.79554540
12.783977	0.76193625
12.800543	0.72779450
12.817178	0.69511005
12.828599	0.66611756
12.839664	0.64176402
12.852857	0.62088684
12.870336	0.60317438
12.887443	0.58938154
12.920385	0.57957805
12.927218	0.57303877
12.952775	0.56913823
12.971116	0.56728856
12.979698	0.56750769
12.995300	0.56947435
13.005762	0.57304538
13.023041	0.57840425
13.030427	0.58530702
13.054045	0.59358100
13.062961	0.60338366
13.088474	0.61503416
13.120323	0.62869648
13.173382	0.64392763
13.192087	0.66019995
13.205798	0.67788238
13.232202	0.69774831
13.240410	0.71947395
13.258170	0.74222125
13.280602	0.76625359
13.297788	0.79253341
13.314966	0.82628996
13.321886	0.86212067
13.337886	0.90029908
13.345581	0.94173997
13.355562	0.98684134
13.364028	1.03401913
13.380636	1.08332771
13.421990	1.13156020
13.432346	1.18417934
13.449190	1.23978670
13.456902	1.29659645
13.465548	1.35342343
13.487653	1.41058235
13.504400	1.46668485
13.514225	1.51940733
13.529059	1.56808014
13.555165	1.61205258
13.564244	1.65120994
13.572755	1.68642001
13.597265	1.71823830
13.615023	1.74719491
13.624114	1.77388411
13.634475	1.79867348
13.647894	1.82237108
13.663763	1.84600741
13.680400	1.87041299
13.697727	1.89528815
13.712835	1.91956201
13.728747	1.94246021
13.773122	1.96442156
13.799306	1.98575101
13.812935	2.00568687
13.829018	2.02333688
13.837798	2.03888136
13.846610	2.05288874
13.887457	2.06661153
13.904084	2.07981784
13.920040	2.09191891
13.929767	2.10318208
13.943262	2.11381244
13.959020	2.12442021
13.972726	2.13520950
13.980285	2.14562215
13.987345	2.15567209
13.995924	2.16610326
14.020992	2.17691446
14.030589	2.18838435
14.039351	2.20010973
14.054346	2.21233338
14.076155	2.22487021
14.093320	2.23746344
14.104981	2.24953017
14.127446	2.26096445
14.136551	2.27120953
14.189007	2.28037122
14.197624	2.28808521
14.223426	2.29426677
14.249849	2.29889571
14.267052	2.30185733
14.283716	2.30308142
14.300444	2.30250315
14.311127	2.29984811
14.320591	2.29523069
14.329618	2.28856346
14.345286	2.27989333
14.370507	2.26970224
14.377564	2.25834309
14.398533	2.24646897
14.419036	2.23392037
14.437487	2.22070756
14.448813	2.20717613
14.465534	2.19389031
14.488029	2.18055885
14.496049	2.16679000
14.507659	2.15172896
14.522401	2.13672621
14.537784	2.12254719
14.547589	2.10835452
14.569011	2.09203562
14.604157	2.07512655
14.688874	2.05913438
14.716192	2.03774490
14.724830	2.01942932
14.740996	2.00066829
14.749040	1.98152787
14.759686	1.96324076
14.768719	1.94480317
14.786913	1.92560450
14.794859	1.91056764
14.820553	1.89082296
14.835756	1.86983568
14.844609	1.84924105
14.855946	1.82996944
14.868843	1.81062033
14.876696	1.79017534
14.902489	1.77128706
14.919070	1.75325731
14.929287	1.73489346
14.944641	1.71437619
14.987064	1.69096440
14.995301	1.66695099
15.011552	1.64271380
15.022103	1.61652154
15.036030	1.58809953
15.045642	1.55868027
15.062836	1.52993399
15.072486	1.50197546
15.079537	1.47206459
15.095336	1.43961245
15.106743	1.40681341
15.123590	1.37484485
15.153635	1.34180195
15.169706	1.30555261
15.188458	1.26642985
15.203784	1.22778844
15.285463	1.19134940
15.293820	1.14980478
15.316990	1.10776745
15.326723	1.06781130
15.337324	1.03273507
15.346001	1.00208758
15.361366	0.97299955
15.373193	0.94456056
15.380477	0.92324242
15.405102	0.90321935
15.419349	0.88364346
15.425164	0.86354560
15.450276	0.84355702
15.458755	0.82558670
15.474640	0.80936110
15.485520	0.79450894
15.498291	0.78118801
15.520524	0.76814416
15.536141	0.75410043
15.547536	0.73962081
15.557180	0.72537442
15.575811	0.71225938
15.593737	0.69984681
15.608013	0.68806844
15.626131	0.67846309
15.666726	0.67222937
15.678324	0.66817067
15.689113	0.66475864
15.720173	0.66138739
15.722871	0.65830299
15.750464	0.65617047
15.780069	0.65450879
15.797148	0.65263521
15.805835	0.65054931
15.813854	0.64856207
15.830710	0.64679510
15.838197	0.64568212
15.853613	0.64508882
15.870457	0.64456469
15.881087	0.64374510
15.898018	0.64293464
15.907262	0.64224080
15.930937	0.64173202
15.947088	0.64126339
15.964731	0.64061669
15.981702	0.63984845
15.990150	0.63927548
16.008390	0.63894606
16.113312	0.63881434
16.123093	0.63870277
16.130964	0.63858131
16.148093	0.63833484
16.156443	0.63809956
16.180136	0.63816363
16.196530	0.63823789
16.204539	0.63814031
16.224214	0.63827554
16.231712	0.63815844
16.235927	0.63772921
16.244063	0.63713685
16.301162	0.63663409
16.310466	0.63647398
16.338987	0.63652674
16.343539	0.63615779
16.359364	0.63609716
16.374725	0.63646780
16.387629	0.63714365
16.406958	0.63802321
16.412495	0.63906294
16.421865	0.64031619
16.425052	0.64196222
16.438608	0.64370051
16.451875	0.64561692
16.463139	0.64749646
16.470870	0.64924014
16.480699	0.65078735
16.508786	0.65209129
16.531347	0.65309157
16.544757	0.65388097
16.578666	0.65448543
16.615352	0.65503942
16.631013	0.65551490
16.647161	0.65596806
16.673641	0.65656732
16.687024	0.65722609
16.701452	0.65787280
16.720520	0.65851776
16.733596	0.65923851
16.742834	0.65999946
16.765717	0.66085184
16.781885	0.66158714
16.785475	0.66235736
16.802226	0.66331199
16.809557	0.66416048
16.834649	0.66490672
16.851353	0.66547544
16.868653	0.66601934
16.879241	0.66650619
16.901098	0.66685910
16.924823	0.66704224
16.937174	0.66744443
16.951382	0.66804314
16.970132	0.66874923
16.979581	0.66927928
16.995325	0.67000840
17.011073	0.67098192
17.022202	0.67199125
17.030831	0.67284797
17.046592	0.67354347
17.051960	0.67417881
17.065376	0.67475265
17.081207	0.67505770
17.202118	0.67525649
17.208973	0.67593304
17.235554	0.67654444
17.241654	0.67715380
17.250123	0.67791952
17.266383	0.67899521
17.285226	0.68019483
17.291581	0.68160350
17.301914	0.68281418
17.315811	0.68426243
17.324696	0.68581838
17.347864	0.68723401
17.370737	0.68842928
17.385939	0.68959005
17.396936	0.69052793
17.406299	0.69120500
17.413599	0.69179294
17.430286	0.69235525
17.445321	0.69292272
17.461094	0.69343014
17.472524	0.69394896
17.494136	0.69443966
17.506554	0.69486546
17.560509	0.69530556
17.570523	0.69582453
17.587055	0.69642663
17.606474	0.69711680
17.615462	0.69780199
17.652140	0.69853478
17.659044	0.69938524
17.670491	0.70030658
17.683165	0.70126209
17.701055	0.70224911
17.710155	0.70330474
17.732049	0.70441820
17.748251	0.70555794
17.765061	0.70670883
17.774744	0.70780123
17.782808	0.70869876
17.799548	0.70946560
17.807195	0.71017045
17.884307	0.71091940
17.901233	0.71175256
17.919882	0.71260048
17.929874	0.71334746
17.949964	0.71411318
17.957873	0.71496947
17.969132	0.71580027
17.980432	0.71659349
17.989681	0.71730889
18.004283	0.71788890
18.021586	0.71850051
18.030847	0.71908040
18.062171	0.71955520
18.086639	0.72001602
18.103027	0.72050524
18.118059	0.72106948
18.122179	0.72170219
18.134181	0.72220846
18.152399	0.72266702
18.162050	0.72312414
18.172712	0.72357485
18.187312	0.72396344
18.194423	0.72428471
18.218624	0.72454070
18.235988	0.72473768
18.253190	0.72502499
18.284142	0.72536653
18.301624	0.72576890
18.318157	0.72628736
18.321234	0.72695464
18.338005	0.72783812
18.371866	0.72889596
18.406187	0.72989844
18.417934	0.73107143
18.429368	0.73263426
18.445820	0.73456137
18.454388	0.73674291
18.473880	0.73915632
18.487856	0.74235511
18.506295	0.74686492
18.512920	0.75288129
18.521868	0.76030902
18.537370	0.76932475
18.548646	0.78021953
18.565850	0.79259932
18.580341	0.80582127
18.613595	0.81930565
18.628800	0.83344688
18.663972	0.84934873
18.676116	0.86622793
18.709724	0.88310023
18.732670	0.90102201
18.747882	0.92125787
18.763635	0.94515704
18.778795	0.97221429
18.794574	1.00086991
18.803835	1.03168832
18.849312	1.06634587
18.864790	1.10425754
18.880697	1.14403939
18.901948	1.18433493
18.917890	1.23135057
18.933995	1.27993917
18.943826	1.32990176
18.952392	1.38015267
18.968844	1.43002472
18.986074	1.47943432
18.994578	1.52832216
19.002248	1.57019771
19.021147	1.61083827
19.030236	1.64984743
19.044473	1.68660745
19.053349	1.72144798
19.069630	1.75476080
19.081021	1.78733305
19.101502	1.81901023
19.117987	1.84895614
19.126782	1.87777358
19.146572	1.90547189
19.167419	1.93241538
19.186006	1.95890184
19.201595	1.98447944
19.219370	2.00957868
19.234372	2.03392175
19.242884	2.05673895
19.269121	2.07906279
19.286838	2.09998973
19.334404	2.11890257
19.351043	2.13535269
19.360146	2.14860260
19.369471	2.15906053
19.378032	2.16778751
19.384962	2.17500530
19.395724	2.18159636
19.419432	2.18819009
19.436354	2.19498643
19.443778	2.20221950
19.459804	2.21040312
19.475496	2.21917723
19.502105	2.22804827
19.534101	2.23709977
19.555350	2.24619829
19.559554	2.25521717
19.586141	2.26398768
19.592848	2.27201497
19.610571	2.27953253
19.617423	2.28680608
19.633592	2.29367908
19.667151	2.30019154
19.674401	2.30648797
19.683634	2.31280141
19.719057	2.31926562
19.729484	2.32526266
19.736887	2.32996801
19.746252	2.33297068
19.754807	2.33383173
19.770898	2.33253647
19.801800	2.32922606
19.815661	2.32413480
19.836143	2.31751914
19.850906	2.30972128
19.895566	2.30108656
19.912374	2.29162036
19.935555	2.28128757
19.951785	2.26972063
19.961586	2.25653673
19.971120	2.24215951
19.979993	2.22729521
19.986148	2.21129686
19.994923	2.19307547
20.020823	2.17328359
20.029621	2.15278695
20.053763	2.13226088
20.061658	2.11082115
20.083532	2.08775864
20.106615	2.06517038
20.131055	2.04576980
20.146916	2.02876285
20.164693	2.01156999
20.180222	1.99474342
20.197413	1.97972991
20.212425	1.96545127
20.221568	1.94993539
20.248498	1.93157664
20.263298	1.91144962
20.271555	1.89264903
20.280880	1.87247665
20.302493	1.85015360
20.317432	1.82763183
20.335633	1.80417274
20.345655	1.77802288
20.354458	1.74903368
20.384982	1.71884046
20.408915	1.68924526
20.427061	1.65761119
20.504372	1.62206270
20.512528	1.58228028
20.527544	1.54680938
20.538202	1.51149993
20.551611	1.47038656
20.559716	1.42463196
20.584954	1.38006384
20.592223	1.33851627
20.603810	1.29922238
20.619658	1.25504057
20.628978	1.21093194
20.635335	1.17178371
20.641006	1.13670627
20.668010	1.10209572
20.676269	1.06713132
20.686023	1.03489006
20.700998	1.00661484
20.730416	0.97942334
20.739197	0.94964315
20.768097	0.91747416
20.774055	0.88524543
20.801616	0.85450050
20.811344	0.82511302
20.847357	0.79636342
20.906226	0.77062268
20.942063	0.75074330
20.966677	0.73434766
20.976761	0.72227057
20.990513	0.71412245
20.999257	0.70888237
21.014747	0.70696496
21.030954	0.70790046
21.050098	0.71122669
21.060672	0.71905633
21.068966	0.72913160
21.083442	0.74120304
21.100260	0.75644064
21.110129	0.77497746
21.120217	0.79687404
21.133480	0.82270719
21.150306	0.85250497
21.158274	0.88389178
21.182444	0.91545360
21.216675	0.94747698
21.235437	0.98021654
21.241684	1.01251666
21.253750	1.04265752
21.269689	1.07053323
21.276106	1.09832560
21.287200	1.12617090
21.301269	1.15297363
21.334229	1.17900755
21.353015	1.20605763
21.359457	1.23591774
21.368786	1.26922973
21.393964	1.30598629
21.433240	1.34687750
21.451203	1.39222840
21.461791	1.44120132
21.483644	1.49269046
21.495153	1.54495636
21.517051	1.59657157
21.533830	1.64726201
21.551124	1.69684146
21.558810	1.74463301
21.570344	1.78934759
21.598167	1.83061372
21.615529	1.86928936
21.625327	1.90536462
21.632616	1.93900503
21.644027	1.97032762
21.659879	1.99940806
21.672547	2.02676028
21.701735	2.05245120
21.712252	2.07653557
21.736080	2.09859136
21.744874	2.11831117
21.752812	2.13544120
21.786286	2.14990279
21.789852	2.16196349
21.805830	2.17256898
21.850016	2.18193808
21.866989	2.19087403
21.883404	2.19930780
21.893173	2.20751113
21.903084	2.21645434
21.917988	2.22654350
21.934469	2.23705881
21.967049	2.24730020
21.986947	2.25736983
21.996311	2.26825370
22.004696	2.28002302
22.022660	2.29232498
22.033257	2.30450766
22.066930	2.31594550
22.084581	2.32628113
22.094664	2.33519117
22.118779	2.34121073
22.133331	2.34372937
22.149445	2.34252999
22.156285	2.33837070
22.164841	2.33211726
22.180989	2.32473596
22.201568	2.31680679
22.207807	2.30907382
22.233186	2.30169761
22.266004	2.29475176
22.281465	2.28798485
22.291167	2.28047671
22.301508	2.27182492
22.312959	2.26120447
22.324604	2.24836650
22.349418	2.23371597
22.366061	2.21706257
22.382909	2.19790705
22.391031	2.17835337
22.407753	2.15861898
22.423506	2.13811102
22.466713	2.11604097
22.482786	2.09422930
22.490850	2.07389405
22.499351	2.05509270
22.515967	2.03337205
22.531986	2.00983651
22.543848	1.98748576
22.563756	1.96781270
22.584404	1.94805235
22.590871	1.92553980
22.617009	1.90107170
22.622838	1.87935169
22.646800	1.85875830
22.670133	1.83694965
22.699414	1.81236840
22.720159	1.78734114
22.723833	1.76421294
22.735973	1.74311489
22.750928	1.72123392
22.770176	1.69875409
22.784029	1.67681729
22.793164	1.65653494
22.802522	1.63642600
22.827652	1.61488981
22.850641	1.59116814
22.859127	1.56730281
22.869565	1.54371553
22.894943	1.51975523
22.904117	1.49580638
22.919294	1.47215343
22.958055	1.44919426
23.012607	1.42704515
23.056729	1.40506111
23.081542	1.38391758
23.099697	1.36369918
23.115760	1.34362714
23.132472	1.32280652
23.149234	1.29759572
23.159076	1.27404265
23.169966	1.25155085
23.184480	1.22949715
23.201344	1.20824470
23.219918	1.18814336
23.233902	1.17003032
23.242228	1.15763329
23.252666	1.14402220
23.268279	1.12953148
23.278170	1.11503316
23.286319	1.10062622
23.295242	1.08559069
23.310493	1.06918917
23.319737	1.05219517
23.344657	1.03597011
23.353076	1.02036616
23.370456	1.00429891
23.434124	0.98818923
23.444352	0.97339806
23.467552	0.96074373
23.499534	0.95011330
23.511365	0.94122215
23.520816	0.93428366
23.552434	0.92930452
23.562904	0.92584800
23.586014	0.92349004
23.595577	0.92245438
23.616732	0.92282464
23.635441	0.92487453
23.644049	0.92831402
23.652762	0.93342108
23.667261	0.94135549
23.676181	0.95187742
23.686548	0.96337251
23.702384	0.97577282
23.717683	0.99031046
23.727263	1.00790746
23.763054	1.02798907
23.778155	1.04954031
23.799749	1.07304258
23.820390	1.09965559
23.833690	1.12961715
23.844187	1.16188059
23.866038	1.19600616
23.874555	1.23325507
23.885873	1.27347224
23.916595	1.31628183
23.935907	1.36197056
23.944711	1.41102185
23.952245	1.46354037
23.966928	1.51851650
23.977313	1.57342193
23.987496	1.62726786
24.009252	1.67903362
24.017226	1.72809842
24.033810	1.77297171
24.042961	1.81238641
24.066195	1.84671083
24.082728	1.87711773
24.101218	1.90484777
24.107232	1.93048790
24.119845	1.95376728
24.160101	1.97548012
24.169509	1.99634836
24.186630	2.01625507
24.196644	2.03609991
24.217844	2.05588044
24.249453	2.07549004
24.268779	2.09481557
24.274519	2.11325892
24.299999	2.13100167
24.307927	2.14829560
24.320137	2.16403583
24.369644	2.17702807
24.377162	2.18831566
24.401538	2.19834290
24.408676	2.20727542
24.433233	2.21476014
24.449571	2.22078450
24.466124	2.22603395
24.473918	2.23126942
24.499767	2.23604723
24.541394	2.24062188
24.566140	2.24513778
24.580720	2.25025309
24.593000	2.25619272
24.602154	2.26313354
24.615452	2.27117920
24.632121	2.28067675
24.651217	2.29194107
24.661023	2.30532065
24.683536	2.31960427
24.689218	2.33412644
24.698833	2.34815282
24.715595	2.36035584
24.730335	2.36920677
24.746608	2.37380022
24.758669	2.37383571
24.769531	2.37021526
24.780156	2.36389289
24.789474	2.35541498
24.805364	2.34601863
24.816581	2.33646948
24.823515	2.32703753
24.850364	2.31723891
24.861067	2.30639443
24.902548	2.29444775
24.918954	2.28132640
24.933046	2.26666517
24.942798	2.25089090
24.968190	2.23443555
24.982919	2.21742356
24.990473	2.20057808
24.998541	2.18351842
25.016196	2.16733601
25.023355	2.15200845
25.092944	2.13635513
25.130003	2.12018732
25.162296	2.10504148
25.177358	2.08616452
25.197362	2.06461730
25.215092	2.04079257
25.232176	2.01534677
25.249146	1.99334677
25.263852	1.97234093
25.272638	1.94884249
25.298610	1.92766156
25.313873	1.90939847
25.331958	1.89252520
25.347004	1.87642572
25.363612	1.85752471
25.371763	1.83917396
25.382668	1.82315563
25.399375	1.80682108
25.410777	1.78801768
25.432817	1.76812029
25.439803	1.74900545
25.448275	1.73030747
25.456923	1.70944353
25.482208	1.68603625
25.515341	1.66334329
25.522469	1.64249208
25.535617	1.62048806
25.550462	1.59408276
25.561109	1.56374214
25.571947	1.53285059
25.586891	1.50292030
25.593250	1.47184415
25.601877	1.43809844
25.635495	1.40428925
25.654078	1.37450095
25.711899	1.34889522
25.720537	1.32426758
25.736987	1.29899639
25.752299	1.27509676
25.762722	1.25507146
25.771263	1.23848968
25.779535	1.22204547
25.795298	1.20410418
25.803720	1.18669093
25.818890	1.17134510
25.852541	1.15759059
25.862095	1.14420593
25.877752	1.13094813
25.901991	1.11905246
25.923850	1.10921190
25.948606	1.10052897
25.967091	1.09232932
25.972584	1.08403189
25.981199	1.07496422
26.039786	1.06518844
26.053937	1.05533857
26.067816	1.04596092
26.073379	1.03732750
26.081227	1.03027978
26.098798	1.02610628
26.106592	1.02525332
26.116627	1.02761108
26.131444	1.03314468
26.149663	1.04182295
26.156288	1.05378074
26.169449	1.06878111
26.181638	1.08647421
26.197537	1.10774678
26.214272	1.13224472
26.222104	1.15906607
26.264940	1.18818839
26.277295	1.21999643
26.282936	1.25434548
26.292971	1.29103729
26.309270	1.32917980
26.320397	1.36811131
26.386092	1.40724834
26.396016	1.44610916
26.409072	1.48405893
26.434911	1.52029367
26.449808	1.55428807
26.474316	1.58687519
26.482881	1.61962700
26.492491	1.65368906
26.501734	1.68939795
26.515963	1.72687651
26.533692	1.76700619
26.551508	1.80950085
26.567978	1.85303795
26.585670	1.89678499
26.602705	1.93912609
26.611282	1.97967987
26.641864	2.01822059
26.653656	2.05360860
26.676515	2.08501487
26.684831	2.11306566
26.694520	2.13721824
26.717266	2.15878697
26.732102	2.17797494
26.750584	2.19401050
26.769363	2.20753583
26.776011	2.21921407
26.784290	2.22871036
26.801143	2.23668799
26.817073	2.24249433
26.860869	2.24623829
26.869191	2.24985823
26.877461	2.25355697
26.900832	2.25696600
26.915184	2.26115688
26.923578	2.26602836
26.933673	2.27250788
26.948458	2.28040553
26.966596	2.29026596
26.981667	2.30179975
27.014928	2.31545841
27.028979	2.32996603
27.065059	2.34496485
27.074951	2.35913513
27.089714	2.37167980
27.099018	2.38062893
27.121004	2.38540772
27.130890	2.38621301
27.151698	2.38316936
27.168905	2.37641084
27.177706	2.36671202
27.186748	2.35502744
27.194987	2.34154701
27.211526	2.32672662
27.220756	2.31067056
27.272635	2.29368362
27.281224	2.27577392
27.303328	2.25717630
27.319052	2.23807164
27.324411	2.21786540
27.333924	2.19734163
27.348171	2.17679891
27.401802	2.15696041
27.410932	2.13734903
27.419063	2.11687447
27.435341	2.09608802
27.452552	2.07770382
27.459733	2.06219526
27.476727	2.04732840
27.485737	2.03106126
27.500818	2.01578570
27.512080	2.00378906
27.518778	1.99328053
27.543160	1.97886160
27.552768	1.95986062
27.571680	1.93986992
27.620342	1.92194454
27.627330	1.90262028
27.635225	1.87789505
27.652435	1.84863089
27.662456	1.82144384
27.675885	1.79762657
27.700171	1.77461528
27.708710	1.74914929
27.750889	1.72319332
27.759260	1.69992195
27.776171	1.67878609
27.786979	1.65482943
27.803363	1.62621950
27.852726	1.59512070
27.862178	1.56351476
27.869677	1.53059853
27.881734	1.49508965
27.892298	1.45774508
27.901931	1.42153816
27.920424	1.38744671
27.936003	1.35443558
27.950665	1.32166125
27.965439	1.29002040
27.983069	1.26098030
28.001029	1.23463419
28.012654	1.20955879
28.027064	1.18477024
28.049392	1.16086850
28.064768	1.13928580
28.100377	1.12024989
28.120942	1.10259289
28.146560	1.08623224
28.155183	1.07214261
28.164528	1.06137754
28.174425	1.05311905
28.184999	1.04571599
28.237693	1.03824947
28.260936	1.03087016
28.276247	1.02425000
28.294564	1.01817775
28.310451	1.01167254
28.318938	1.00541897
28.334786	1.00073694
28.347590	0.99873260
28.364981	0.99993035
28.374923	1.00379700
28.399478	1.01062073
28.407490	1.02092587
28.431971	1.03403851
28.438937	1.04891348
28.447557	1.06481887
28.464496	1.08168252
28.472727	1.09990213
28.480978	1.11898979
28.505610	1.13862327
28.517521	1.15897752
28.534273	1.18095096
28.541630	1.20590018
28.560428	1.23412023
28.581936	1.26557491
28.598114	1.30052417
28.616865	1.33840798
28.650537	1.37817461
28.666190	1.41907830
28.674468	1.46012863
28.698130	1.50091409
28.706825	1.54012943
28.722050	1.57688468
28.733803	1.61244503
28.742529	1.64896385
28.750285	1.68782276
28.785101	1.73051996
28.814780	1.77685057
28.825480	1.82612878
28.868087	1.87860124
28.881212	1.93349409
28.897830	1.98801768
28.909390	2.03900939
28.918036	2.08390592
28.931084	2.12243344
28.952857	2.15509576
28.968372	2.18068727
28.984712	2.19856579
28.994805	2.21146761
29.014797	2.22108642
29.049973	2.22846884
29.065760	2.23225704
29.072863	2.23417363
29.097439	2.23675455
29.114329	2.24169566
29.120384	2.24743038
29.129546	2.25250304
29.146761	2.25696788
29.161375	2.26257431
29.177315	2.26900537
29.213799	2.27585345
29.268043	2.28260182
29.319965	2.29001635
29.346037	2.29867898
29.372316	2.30859962
29.392213	2.31929705
29.407652	2.33149697
29.423551	2.34647563
29.431716	2.36068780
29.446992	2.37275070
29.456167	2.38266639
29.466138	2.38960676
29.480248	2.39365590
29.496848	2.39357392
29.505038	2.38777544
29.513641	2.37957264
29.529991	2.37009210
29.534620	2.36015032
29.546998	2.34963865
29.563606	2.33867239
29.580293	2.32713778
29.596944	2.31440869
29.613609	2.29985688
29.630299	2.28349220
29.646756	2.26611814
29.662647	2.24764906
29.671872	2.22834053
29.695541	2.20851086
29.713557	2.18822057
29.778285	2.16756724
29.794969	2.14847519
29.802726	2.13217535
29.815853	2.11626989
29.826668	2.10159330
29.842119	2.08797709
29.859254	2.07636404
29.866999	2.06741755
29.876259	2.05730179
29.892490	2.04182037
29.910293	2.02598653
29.941427	2.01115336
29.951276	1.99678532
29.966444	1.97849892
29.974070	1.95659938
29.982765	1.93415052
30.010398	1.91541798
30.018145	1.89682316
30.042396	1.87418904
30.058536	1.84827357
30.076258	1.82435211
30.100461	1.80095375
30.107420	1.77518258
30.133013	1.74512211
30.145053	1.71308917
30.161881	1.68204666
30.170202	1.65181655
30.244829	1.61858788
30.254180	1.57645681
30.261496	1.53425948
30.278717	1.49273394
30.293248	1.45115070
30.316783	1.40892615
30.330832	1.36675950
30.338803	1.32723806
30.351140	1.29691470
30.364379	1.26923982
30.371700	1.24612756
30.397230	1.22892133
30.430569	1.21528232
30.437356	1.20270334
30.463403	1.19098580
30.480062	1.18081960
30.494407	1.17121689
30.501086	1.15929263
30.513247	1.14395283
30.530190	1.12746309
30.538621	1.11209676
30.550256	1.09826588
30.561967	1.08566044
30.570055	1.07463304
30.581230	1.06551219
30.605372	1.05812887
30.630110	1.05212572
30.644159	1.04718998
30.666947	1.04326971
30.688032	1.04061425
30.700032	1.03919825
30.708833	1.03898168
30.730502	1.04017565
30.739769	1.04303176
30.782699	1.04765615
30.797220	1.05358791
30.813987	1.06015249
30.822741	1.06728044
30.829896	1.07497159
30.847104	1.08302835
30.853694	1.09117307
30.875599	1.09905321
30.887324	1.10645298
30.916196	1.11316198
30.959120	1.11903316
30.982043	1.12397878
30.989216	1.12780195
30.998124	1.13034880
31.013399	1.13160563
31.022318	1.13168199
31.044541	1.13090867
31.060275	1.12950277
31.068738	1.12773360
31.083080	1.12592989
31.108616	1.12424171
31.133559	1.12264053
31.144322	1.12111682
31.158330	1.11980963
31.181517	1.11864826
31.193092	1.11736506
31.216878	1.11564457
31.221275	1.11338860
31.230261	1.11064452
31.246557	1.10758493
31.262017	1.10409849
31.281883	1.10022799
31.287519	1.09621292
31.310755	1.09250851
31.326601	1.08939868
31.346381	1.08687067
31.372132	1.08477769
31.410813	1.08310004
31.426494	1.08199195
31.442490	1.08139683
31.463054	1.08098730
31.479591	1.08054466
31.487098	1.08014430
31.499329	1.07988063
31.515360	1.07997920
31.546401	1.08076649
31.557759	1.08223083
31.566494	1.08407281
31.575907	1.08609936
31.589678	1.08840356
31.605558	1.09104482
31.621262	1.09365684
31.629784	1.09576023
31.637049	1.09737460
31.656151	1.09872971
31.695422	1.09983007
31.711178	1.10066527
31.721626	1.10153072
31.728094	1.10255240
31.737935	1.10372065
31.746394	1.10508952
31.774748	1.10679876
31.810198	1.10890423
31.826075	1.11116876
31.832917	1.11321015
31.838179	1.11504878
31.891425	1.11666940
31.913013	1.11799654
31.928945	1.11901018
31.933491	1.11982128
31.941221	1.12045561
31.956648	1.12088011
31.972327	1.12120761
31.988344	1.12151810
32.004039	1.12178884
32.029643	1.12198390
32.053901	1.12209402
32.074401	1.12214768
32.084900	1.12217447
32.101045	1.12216460
32.116251	1.12217475
32.126072	1.12212891
32.130866	1.12199677
32.146599	1.12168490
32.163480	1.12117949
32.170174	1.12059136
32.193623	1.11983491
32.209782	1.11892157
32.229444	1.11812878
32.282320	1.11748914
32.293779	1.11707633
32.312574	1.11692197
32.320781	1.11688497
32.331749	1.11708450
32.370746	1.11750507
32.379507	1.11808025
32.396402	1.11860473
32.407260	1.11918092
32.427571	1.11969827
32.435644	1.12014201
32.446282	1.12050092
32.457665	1.12077846
32.462964	1.12066887
32.491983	1.12044464
32.529513	1.12031423
32.547222	1.12042602
32.557860	1.12083758
32.562929	1.12142951
32.579373	1.12221269
32.594581	1.12330610
32.610292	1.12458861
32.626140	1.12595183
32.637924	1.12757533
32.646003	1.12938911
32.665333	1.13102585
32.675244	1.13245367
32.690842	1.13391080
32.713527	1.13549957
32.729259	1.13723661
32.746644	1.13872457
32.762562	1.14006627
32.795985	1.14142414
32.812865	1.14303962
32.829365	1.14472750
32.848160	1.14636809
32.853601	1.14744217
32.862723	1.14835465
32.888446	1.14923362
32.896242	1.15018684
32.908437	1.15057304
32.926000	1.15050683
32.945840	1.15022325
32.962518	1.15018338
32.979360	1.15003526
33.012020	1.14965024
33.029343	1.14905187
33.045960	1.14881738
33.062599	1.14875086
33.079682	1.14886872
33.095997	1.14886541
33.112873	1.14892114
33.121984	1.14879523
33.137841	1.14865841
33.160032	1.14834366
33.162782	1.14801634
33.179420	1.14749301
33.230172	1.14725332
33.236750	1.14699825
33.246299	1.14681555
33.281353	1.14656485
33.290056	1.14629564
33.313607	1.14605018
33.323288	1.14584318
33.332079	1.14539643
33.388398	1.14495301
