arm26_elbow_motion
version=1
nRows=2047
nColumns=2
inDegrees=no
endheader
time	r_elbow_flex
0.110893	0.39533694
0.139563	0.39457809
0.157321	0.39357509
0.168247	0.39247499
0.179461	0.39145010
0.191670	0.39034452
0.200475	0.38909134
0.218057	0.38796290
0.232414	0.38777776
0.241590	0.38780115
0.253468	0.38791131
0.275631	0.38786473
0.295259	0.38777324
0.299983	0.38760075
0.314906	0.38733617
0.332250	0.38704565
0.372510	0.38672647
0.375046	0.38633860
0.401688	0.38596873
0.410527	0.38559399
0.420725	0.38520899
0.427428	0.38484939
0.437832	0.38442840
0.453394	0.38399106
0.486091	0.38355384
0.510875	0.38313533
0.520590	0.38266153
0.540367	0.38223299
0.548130	0.38183895
0.565829	0.38151774
0.577995	0.38126777
0.599007	0.38107899
0.608083	0.38089212
0.617518	0.38075311
0.631172	0.38061684
0.641370	0.38053966
0.668767	0.38049042
0.685896	0.38037379
0.692103	0.38023871
0.706906	0.38015149
0.736671	0.38015255
0.759410	0.38026165
0.775766	0.38043030
0.784870	0.38069781
0.792489	0.38113571
0.819089	0.38157415
0.837450	0.38197177
0.851639	0.38233769
0.857075	0.38265727
0.876116	0.38287778
0.912393	0.38293220
0.921129	0.38277429
1.005238	0.38249347
1.023996	0.38215035
1.038320	0.38165457
1.054533	0.38111012
1.069347	0.38058436
1.081798	0.38011752
1.111329	0.37964147
1.127362	0.37912514
1.143507	0.37867271
1.161213	0.37839611
1.168465	0.37822390
1.175331	0.37815338
1.191180	0.37817926
1.216560	0.37838025
1.222730	0.37875551
1.233779	0.37914201
1.254035	0.37944512
1.270244	0.37958033
1.289255	0.37959218
1.302488	0.37952382
1.329018	0.37940637
1.351365	0.37931349
1.359104	0.37923945
1.368398	0.37917788
1.375311	0.37911783
1.401951	0.37904404
1.418173	0.37894353
1.431856	0.37879542
1.439034	0.37861511
1.447223	0.37859613
1.466075	0.37895261
1.478233	0.37963254
1.508544	0.38041134
1.518374	0.38125404
1.536111	0.38235968
1.543381	0.38365004
1.564351	0.38478537
1.594366	0.38539349
1.628237	0.38555657
1.636242	0.38551569
1.688320	0.38589668
1.696101	0.38632562
1.700927	0.38655902
1.720862	0.38678431
1.722937	0.38712998
1.741326	0.38749752
1.751025	0.38794778
1.755671	0.38801306
1.778938	0.38786282
1.804496	0.38766802
1.806647	0.38734706
1.831708	0.38696288
1.838252	0.38664804
1.846309	0.38635237
1.865596	0.38600028
1.894355	0.38556831
1.906081	0.38508708
1.916924	0.38463534
1.934286	0.38413464
1.992018	0.38356084
2.001277	0.38288311
2.017916	0.38206701
2.023765	0.38119141
2.038649	0.38033879
2.045906	0.37949036
2.083794	0.37873611
2.107019	0.37814566
2.122765	0.37774235
2.132665	0.37745505
2.149006	0.37722847
2.167933	0.37710313
2.173447	0.37701089
2.186793	0.37690107
2.232869	0.37663795
2.261152	0.37623296
2.292630	0.37578633
2.301458	0.37521136
2.317770	0.37458694
2.330897	0.37399589
2.343343	0.37349260
2.351344	0.37328358
2.363333	0.37321656
2.376006	0.37327470
2.384118	0.37350964
2.395875	0.37381905
2.436965	0.37417761
2.460753	0.37451990
2.499247	0.37466954
2.516477	0.37475572
2.532243	0.37475332
2.542859	0.37467408
2.551991	0.37464103
2.564659	0.37472700
2.581594	0.37504464
2.600467	0.37555584
2.617016	0.37619412
2.624573	0.37685695
2.635087	0.37755882
2.653913	0.37821003
2.659646	0.37880731
2.684648	0.37926906
2.689801	0.37964982
2.715073	0.37994938
2.729260	0.38025193
2.751793	0.38062692
2.767179	0.38107570
2.784166	0.38158295
2.789703	0.38215598
2.800158	0.38271019
2.812828	0.38331354
2.820966	0.38398564
2.837500	0.38466955
2.857330	0.38525915
2.881606	0.38571829
2.906622	0.38597038
2.915580	0.38614655
2.932438	0.38624042
2.942874	0.38622518
2.972673	0.38612271
2.985443	0.38610591
3.001827	0.38609496
3.016729	0.38612496
3.032846	0.38614130
3.043479	0.38608406
3.052637	0.38601153
3.098972	0.38595056
3.107840	0.38583408
3.131272	0.38571111
3.149756	0.38560975
3.165285	0.38552733
3.174314	0.38548448
3.184318	0.38545039
3.200891	0.38541963
3.211546	0.38537906
3.232991	0.38529769
3.240099	0.38517434
3.256409	0.38497143
3.270669	0.38479805
3.273870	0.38477825
3.300484	0.38487831
3.309652	0.38508910
3.349130	0.38547248
3.365019	0.38597936
3.390049	0.38660913
3.430613	0.38712237
3.447146	0.38743697
3.462179	0.38761642
3.478896	0.38765776
3.493556	0.38757201
3.509446	0.38740169
3.520025	0.38724828
3.531547	0.38734482
3.547391	0.38762037
3.564326	0.38799950
3.573967	0.38843149
3.583989	0.38882524
3.630334	0.38923662
3.647653	0.38955101
3.664782	0.38968291
3.681207	0.38963007
3.697951	0.38946953
3.708176	0.38923363
3.718803	0.38899403
3.733282	0.38871177
3.742330	0.38849773
3.768616	0.38839148
3.774807	0.38842400
3.783684	0.38851725
3.797060	0.38865029
3.805449	0.38880589
3.821419	0.38899306
3.844581	0.38913353
3.854344	0.38918348
3.877579	0.38917924
3.913920	0.38916706
3.933019	0.38916660
3.938538	0.38919031
3.963331	0.38924805
3.972642	0.38933373
3.980448	0.38944565
3.999820	0.38959338
4.022124	0.38988047
4.047964	0.39041715
4.064111	0.39114729
4.080521	0.39195876
4.090241	0.39279061
4.103292	0.39354697
4.120369	0.39415938
4.134826	0.39452521
4.142579	0.39452769
4.159893	0.39419018
4.168832	0.39360672
4.242046	0.39287942
4.266348	0.39218255
4.274724	0.39160246
4.299732	0.39118743
4.316937	0.39097213
4.332303	0.39097971
4.348556	0.39116154
4.357168	0.39156714
4.367424	0.39211586
4.381538	0.39266681
4.390517	0.39309741
4.398635	0.39340313
4.418025	0.39359412
4.456709	0.39384051
4.488214	0.39404215
4.504301	0.39408913
4.532102	0.39410330
4.547712	0.39418319
4.562021	0.39424935
4.572512	0.39441293
4.580856	0.39445359
4.597778	0.39438799
4.613611	0.39440818
4.622067	0.39452659
4.631798	0.39475092
4.664045	0.39522490
4.679147	0.39587880
4.697113	0.39663357
4.714708	0.39746321
4.723734	0.39817330
4.733122	0.39862481
4.740010	0.39868249
4.747636	0.39836089
4.765604	0.39754331
4.774817	0.39642245
4.808275	0.39527665
4.824279	0.39430265
4.864669	0.39351750
4.882008	0.39320675
4.900793	0.39304435
4.918494	0.39301908
4.926166	0.39316611
4.948231	0.39309811
4.965439	0.39292626
4.971268	0.39264579
4.998107	0.39213232
5.014953	0.39152270
5.023062	0.39093395
5.033369	0.39046321
5.065411	0.39013789
5.077296	0.38993564
5.088627	0.38990499
5.110015	0.38994884
5.120492	0.39030653
5.142272	0.39090257
5.149886	0.39137471
5.164985	0.39176884
5.177346	0.39198484
5.194679	0.39196970
5.214825	0.39216215
5.224546	0.39316975
5.230894	0.39565836
5.264377	0.40027207
5.271516	0.40722048
5.283370	0.41640474
5.298548	0.42821861
5.315103	0.44264521
5.324293	0.46003053
5.375647	0.48001196
5.400713	0.50184997
5.411219	0.52533160
5.430957	0.55092413
5.439081	0.57886160
5.448282	0.60935433
5.464887	0.64149864
5.474133	0.67511034
5.483018	0.71016166
5.498375	0.74630872
5.507211	0.78315400
5.525985	0.82014800
5.557300	0.85657256
5.580985	0.89242142
5.619577	0.92809117
5.668313	0.96394259
5.691272	1.00014650
5.706999	1.04278667
5.729903	1.08337931
5.748173	1.12866703
5.762036	1.17376922
5.770135	1.21779418
5.786189	1.26081987
5.796424	1.30299845
5.814226	1.33847158
5.821290	1.37571722
5.829495	1.40775929
5.837827	1.43937428
5.853698	1.47059796
5.863110	1.50117295
5.879907	1.53170936
5.948713	1.56211817
5.963427	1.59179629
5.973416	1.62008852
6.013369	1.64673285
6.020430	1.67205192
6.030435	1.69611357
6.037796	1.71841199
6.063142	1.73895124
6.079694	1.75791773
6.097948	1.77560572
6.104570	1.79210789
6.115333	1.80778700
6.130352	1.82283024
6.138845	1.83762853
6.163001	1.85173099
6.170038	1.86547430
6.182563	1.87974716
6.193747	1.89487274
6.218664	1.91064763
6.222960	1.92698502
6.232966	1.94319083
6.246545	1.95962729
6.264964	1.97614148
6.277052	1.99219934
6.313047	2.00741652
6.325006	2.02133189
6.352516	2.03360706
6.357538	2.04422979
6.384730	2.05279211
6.399400	2.05911457
6.431730	2.06322261
6.440651	2.06506977
6.453187	2.06476135
6.480035	2.06240976
6.497111	2.05805950
6.507035	2.05173150
6.515881	2.04375491
6.529791	2.03418929
6.546464	2.02310700
6.568341	2.01061273
6.580684	1.99692693
6.591200	1.98202379
6.617247	1.96618054
6.632718	1.94940527
6.650289	1.93112496
6.665046	1.91200131
6.675813	1.89224375
6.691723	1.87250563
6.707928	1.85273901
6.729510	1.83204770
6.751021	1.81102309
6.755451	1.79028162
6.782905	1.77007695
6.800749	1.74992942
6.806472	1.72916561
6.838811	1.70887401
6.848081	1.68997207
6.864243	1.67286860
6.879711	1.65591796
6.899644	1.63781870
6.947149	1.61984277
6.958074	1.60250226
6.978163	1.58498212
6.996966	1.56491476
7.007974	1.54080631
7.017819	1.51536959
7.026028	1.49030468
7.034249	1.46495166
7.046010	1.43753583
7.063438	1.40685340
7.078866	1.37653263
7.109010	1.34777795
7.115978	1.31951106
7.194946	1.28933294
7.228817	1.24559966
7.243684	1.19779471
7.262705	1.14927700
7.283022	1.10104968
7.309541	1.05098651
7.319352	0.99825472
7.327078	0.93858892
7.346668	0.88958388
7.362566	0.84281339
7.370886	0.79577477
7.396119	0.74657498
7.412542	0.69767856
7.429238	0.65003803
7.436904	0.60902119
7.446312	0.56855438
7.471126	0.52970176
7.482532	0.49379995
7.498435	0.46106561
7.514590	0.43034117
7.530666	0.40193403
7.547156	0.37706635
7.555388	0.35657691
7.563741	0.33987610
7.580718	0.32606533
7.597422	0.31476405
7.607708	0.30693438
7.628070	0.30297190
7.637782	0.30177412
7.653722	0.30252254
7.680600	0.30464049
7.687544	0.30780413
7.712692	0.31178764
7.721021	0.31554226
7.739310	0.31845121
7.746258	0.32067736
7.777772	0.32202520
7.796912	0.32261339
7.814043	0.32315147
7.842536	0.32424331
7.863139	0.32699176
7.879644	0.33189183
7.901207	0.33912145
7.908722	0.34984833
7.932390	0.36504076
7.954376	0.38394425
7.965893	0.40610143
7.969965	0.43058419
7.995504	0.45746057
8.012355	0.48722759
8.028375	0.51940059
8.037023	0.55312405
8.045405	0.58890812
8.054196	0.62690156
8.069865	0.66772280
8.081438	0.71063586
8.189408	0.75434015
8.214084	0.79829192
8.229618	0.84706795
8.245519	0.90275196
8.261175	0.95775841
8.276973	1.01200416
8.296784	1.06547003
8.313098	1.11835789
8.330410	1.17083757
8.345883	1.21835623
8.357388	1.25670452
8.378894	1.29477775
8.398189	1.33211694
8.413670	1.36826744
8.421007	1.40353192
8.447311	1.43801551
8.453793	1.47188363
8.463618	1.50665565
8.479070	1.54026618
8.486128	1.57294066
8.509755	1.60507705
8.520836	1.63680907
8.541631	1.66759728
8.557265	1.69697698
8.573187	1.72469914
8.589324	1.75114314
8.605440	1.77585615
8.613927	1.79913992
8.631095	1.82079691
8.638970	1.84061121
8.647753	1.85870128
8.655977	1.87615274
8.679602	1.89293902
8.712713	1.90949348
8.745837	1.92574338
8.763256	1.94168901
8.770728	1.95760652
8.780389	1.97374903
8.796444	1.98984625
8.811437	2.00614511
8.833865	2.02250884
8.837208	2.03897145
8.861360	2.05552189
8.880399	2.07210917
8.886683	2.08859193
8.896841	2.10443447
8.947095	2.11896028
8.967192	2.13151363
8.977838	2.14142809
8.986230	2.14839986
8.996068	2.15224993
9.005482	2.15272635
9.015301	2.14982646
9.065033	2.14370563
9.080225	2.13489408
9.088827	2.12393796
9.097601	2.11101960
9.113106	2.09626687
9.125614	2.07989766
9.150075	2.06218775
9.163949	2.04355884
9.174510	2.02428128
9.191176	2.00443080
9.208384	1.98362323
9.240419	1.96246853
9.256714	1.94118021
9.266139	1.91964094
9.276825	1.89832668
9.296618	1.87685112
9.306305	1.85517087
9.321695	1.83414163
9.332330	1.81318335
9.346976	1.79226848
9.363463	1.77224124
9.373222	1.75280763
9.424644	1.73339776
9.450356	1.71389803
9.464765	1.69445561
9.478764	1.67583897
9.497170	1.65750574
9.512157	1.63826483
9.520100	1.61794146
9.536460	1.59582421
9.547003	1.57448915
9.556224	1.55328450
9.566714	1.53087744
9.581504	1.50809139
9.608063	1.48502908
9.624573	1.46185809
9.666064	1.44037532
9.671093	1.41748997
9.690184	1.39322350
9.695035	1.36786789
9.706768	1.34109759
9.847774	1.31347677
9.883559	1.26872678
9.903250	1.20862296
9.911680	1.14706473
9.937799	1.08412110
9.943584	1.02045089
9.953664	0.95553864
9.963259	0.88925268
9.978490	0.83772568
9.988309	0.79903278
10.009610	0.76012024
10.029907	0.72107651
10.037258	0.68182921
10.045403	0.64364273
10.061594	0.60744953
10.079754	0.57323598
10.088382	0.54087632
10.096442	0.51070184
10.146526	0.48349017
10.163891	0.46018073
10.180284	0.44053415
10.191268	0.42326126
10.196342	0.40788454
10.213893	0.39478956
10.220997	0.38460362
10.230988	0.37708811
10.247123	0.37088829
10.262969	0.36635106
10.272537	0.36480084
10.297634	0.36599847
10.303127	0.36907122
10.330085	0.37339528
10.349083	0.37885831
10.396982	0.38612169
10.415104	0.39465926
10.430341	0.40379036
10.445801	0.41453401
10.455882	0.42800681
10.465238	0.44452260
10.480658	0.46427169
10.490887	0.48723036
10.508389	0.51337590
10.524489	0.54276308
10.535809	0.57549156
10.548269	0.61133303
10.594088	0.64921901
10.610001	0.68827685
10.618405	0.72860079
10.657568	0.77035832
10.665706	0.81338630
10.690405	0.85697089
10.714479	0.90033398
10.720698	0.94181767
10.736143	0.98317441
10.748135	1.02433212
10.755913	1.06527050
10.762634	1.10606728
10.773190	1.14667858
10.805024	1.18716086
10.820821	1.22951259
10.833732	1.27192747
10.842196	1.31390196
10.859511	1.35498877
10.889392	1.39450518
10.906743	1.43314618
10.920917	1.47137158
10.936553	1.50842342
10.946187	1.54394073
10.956670	1.57870100
10.961161	1.61310686
10.980839	1.64734464
11.005992	1.68044207
11.015617	1.71215336
11.022663	1.74280532
11.118433	1.77232553
11.146772	1.80000121
11.163086	1.83062331
11.171908	1.86129435
11.189062	1.89051648
11.199441	1.91824926
11.211805	1.94515860
11.228814	1.97205741
11.239777	1.99885390
11.255585	2.02025567
11.265039	2.03930893
11.275881	2.05799902
11.313471	2.07626142
11.328604	2.09383914
11.339168	2.11031542
11.380753	2.12570942
11.396060	2.13958020
11.406494	2.15123796
11.415153	2.16065026
11.431165	2.16762396
11.449502	2.17167386
11.463428	2.17277400
11.477962	2.17103728
11.494117	2.16675787
11.503121	2.16055676
11.511549	2.15239038
11.527843	2.14246702
11.537712	2.13096106
11.563742	2.11799779
11.568740	2.10373278
11.595806	2.08835320
11.609477	2.07178284
11.617986	2.05427423
11.627503	2.03575882
11.643722	2.01627452
11.661740	1.99632601
11.670115	1.97584149
11.712827	1.95478583
11.718961	1.93341762
11.746018	1.91241734
11.750940	1.89197772
11.764510	1.87063344
11.775405	1.84967607
11.823632	1.82864013
11.842605	1.80747272
11.847178	1.78568867
11.867398	1.76287646
11.872555	1.74012089
11.895166	1.71817454
11.911164	1.69608841
11.920155	1.67455261
11.928785	1.65291191
11.945133	1.63157410
11.955766	1.61065244
11.979374	1.58921875
12.004561	1.56816811
12.015352	1.54658233
12.036168	1.52415589
12.062146	1.50142773
12.091528	1.47816371
12.100528	1.45413894
12.124167	1.42984774
12.132519	1.40519472
12.159268	1.37907532
12.180737	1.35097520
12.192770	1.32227631
12.208788	1.29362970
12.218197	1.26464309
12.240608	1.23311243
12.256459	1.19812457
12.280254	1.16118053
12.289883	1.12388984
12.297790	1.08457480
12.314512	1.04057599
12.328728	0.99211154
12.357785	0.94244891
12.363488	0.89365326
12.414580	0.84491360
12.423339	0.79440466
12.470582	0.74342829
12.480152	0.69512339
12.495070	0.64960794
12.506705	0.60535577
12.515160	0.56142295
12.519167	0.51864568
12.527986	0.47891060
12.572609	0.44260083
12.588816	0.40942412
12.599074	0.37928653
12.613794	0.35276488
12.622231	0.33051778
12.664335	0.31306689
12.679290	0.29977208
12.696041	0.28928686
12.716145	0.28123588
12.722629	0.27567028
12.761624	0.27212317
12.797395	0.27000867
12.812773	0.26883203
12.836948	0.26747637
12.845766	0.27141770
12.856143	0.27774555
12.880393	0.28763725
12.889115	0.30118752
12.900186	0.31854773
12.907027	0.34014722
12.980675	0.36734178
12.989974	0.40506185
13.010675	0.45204294
13.018942	0.50165967
13.041771	0.55393926
13.060797	0.60863067
13.075011	0.66496540
13.082732	0.72219169
13.106692	0.76996260
13.122708	0.81229837
13.134890	0.85450707
13.144931	0.89585172
13.159173	0.93654285
13.169016	0.97743631
13.175827	1.01902938
13.187528	1.06072629
13.197808	1.10213388
13.205752	1.14343522
13.229229	1.18516468
13.244651	1.22737802
13.260812	1.26921326
13.280085	1.30989282
13.287478	1.34966389
13.296057	1.38907197
13.321343	1.42786149
13.332286	1.46589414
13.397499	1.50298080
13.412780	1.53885280
13.421458	1.57378070
13.429370	1.60861103
13.447536	1.64288149
13.484754	1.67593054
13.517869	1.70740862
13.542567	1.73631782
13.560420	1.76107560
13.573053	1.78449592
13.589533	1.80678242
13.606410	1.83252725
13.612853	1.85754460
13.620881	1.88177913
13.628402	1.90564515
13.645057	1.93128529
13.653345	1.95565749
13.669409	1.97786226
13.677824	1.99356739
13.720569	2.00732318
13.736386	2.01945840
13.747846	2.03038095
13.756265	2.04020794
13.778487	2.04919289
13.795934	2.05760037
13.806897	2.06557585
13.845318	2.07339490
13.853630	2.08064644
13.861373	2.08691646
13.869996	2.09149284
13.880535	2.09410777
13.897081	2.09438394
13.907426	2.09204678
13.929542	2.08696113
13.946148	2.07949808
13.954202	2.07006422
13.977746	2.05895244
13.994962	2.04645043
14.011009	2.03311359
14.027899	2.01910693
14.038882	2.00439958
14.044265	1.98904954
14.076321	1.97355020
14.084950	1.95784836
14.110607	1.94175684
14.141899	1.92502300
14.157529	1.90767957
14.180773	1.88998888
14.210802	1.87214890
14.226910	1.85350673
14.236482	1.83419832
14.245585	1.81504382
14.257314	1.79644423
14.278550	1.77792154
14.285805	1.75912879
14.311097	1.73961171
14.318586	1.72031776
14.328532	1.70186020
14.344918	1.68339727
14.361386	1.66397791
14.369566	1.64357136
14.380678	1.62328493
14.403385	1.60361361
14.429106	1.58185545
14.435652	1.55804961
14.460150	1.53301634
14.479407	1.50783183
14.490389	1.48224467
14.504662	1.45582319
14.520320	1.42868838
14.528845	1.40307973
14.553687	1.37807721
14.578073	1.35160684
14.595384	1.32326771
14.611364	1.29398811
14.647924	1.26405239
14.653468	1.23240267
14.661926	1.19752301
14.679220	1.15957340
14.688122	1.12038792
14.705735	1.08046952
14.730405	1.03939730
14.747801	0.99538828
14.764699	0.94846578
14.773498	0.90077675
14.794071	0.85321382
14.811715	0.80536805
14.828571	0.75828279
14.838430	0.71263015
14.853958	0.66892407
14.880515	0.62833479
14.896485	0.59102289
14.913440	0.55684530
14.923866	0.52565691
14.936950	0.49593344
14.954113	0.46808513
14.971323	0.44341453
14.979621	0.42154774
15.010736	0.40175963
15.036217	0.38394721
15.045432	0.36827967
15.086032	0.35550797
15.125136	0.34553091
15.141080	0.33758887
15.157590	0.33174350
15.172475	0.32811841
15.188527	0.32672014
15.202888	0.32763519
15.216569	0.33052152
15.229365	0.33533740
15.236784	0.34289705
15.246327	0.35381891
15.261495	0.36884001
15.310438	0.38795195
15.326720	0.41007879
15.343911	0.43648464
15.355292	0.46828554
15.371301	0.50429921
15.389055	0.54348434
15.405177	0.58485177
15.428529	0.62830202
15.444920	0.67517732
15.453195	0.72377037
15.463925	0.77217222
15.479127	0.82109239
15.495816	0.87077091
15.512582	0.92053049
15.520993	0.96981227
15.543251	1.01845212
15.551737	1.06568746
15.566401	1.11204502
15.581547	1.15760908
15.599285	1.20193089
15.618148	1.24545564
15.631851	1.28804956
15.643601	1.32956594
15.670988	1.37068384
15.681729	1.41049960
15.698750	1.44847231
15.705266	1.48534574
15.720844	1.52195090
15.736744	1.55806262
15.747020	1.59341754
15.757529	1.62872687
15.780793	1.66524388
15.797828	1.70225450
15.815254	1.73767811
15.826375	1.77088103
15.849470	1.80184009
15.857348	1.83129353
15.880285	1.85880409
15.888462	1.88375888
15.908076	1.90703740
15.938574	1.92930622
15.957521	1.95080426
15.972054	1.97213954
15.979245	1.99260859
15.993787	2.01214346
16.022573	2.03020016
16.033892	2.04703107
16.059834	2.06426092
16.090300	2.08192466
16.108337	2.10024970
16.121502	2.11888388
16.133246	2.13724129
16.146928	2.15531944
16.177316	2.17209640
16.188006	2.18655446
16.203711	2.19752490
16.215455	2.20411125
16.231301	2.20647634
16.236864	2.20485395
16.259469	2.19937439
16.276099	2.19077624
16.322641	2.17964980
16.353356	2.16676511
16.392756	2.15263577
16.401988	2.13461075
16.424801	2.11545929
16.440791	2.09549273
16.450886	2.07109824
16.461662	2.04553034
16.468895	2.01851473
16.477982	1.99039281
16.494577	1.96466322
16.511140	1.93893311
16.529313	1.91260569
16.536108	1.88969950
16.546553	1.86672624
16.558828	1.84428384
16.571725	1.82267174
16.592749	1.80163039
16.609464	1.77953230
16.643522	1.75826144
16.650665	1.73717697
16.675940	1.71640913
16.716272	1.69548197
16.739676	1.67445352
16.760035	1.65378123
16.770924	1.63505343
16.792697	1.61723605
16.809576	1.59971195
16.825220	1.57994695
16.832274	1.55865517
16.841477	1.53614013
16.850070	1.51188141
16.859817	1.48600062
16.868149	1.45770711
16.884898	1.42813472
16.896021	1.39869894
16.909939	1.36865768
16.921462	1.33739944
16.959930	1.30580175
16.975685	1.27462256
16.985233	1.24259905
17.009504	1.20858787
17.069198	1.17383283
17.084387	1.13944776
17.096806	1.10577444
17.104762	1.07099463
17.126893	1.03277015
17.176123	0.99276428
17.191499	0.95337352
17.199793	0.91481196
17.225847	0.87537701
17.234918	0.82954037
17.251066	0.78373811
17.264373	0.73897769
17.283964	0.69570613
17.289045	0.65358168
17.309640	0.61365825
17.326312	0.57565024
17.345196	0.54321078
17.350638	0.51127524
17.377882	0.48255538
17.382503	0.45753627
17.399311	0.43502159
17.410256	0.41352182
17.417497	0.39381395
17.425754	0.37785940
17.446466	0.36607278
17.453891	0.35714135
17.494951	0.35037032
17.503289	0.34555498
17.515571	0.34224909
17.531439	0.34114069
17.536310	0.34156688
17.562346	0.34256809
17.583067	0.34341666
17.601028	0.34416138
17.611442	0.34516180
17.619759	0.34676964
17.631221	0.34877690
17.681472	0.35101634
17.687927	0.35334448
17.699085	0.35547670
17.715131	0.35747336
17.723090	0.35941468
17.738572	0.36161170
17.762256	0.36388743
17.790327	0.36638325
17.804587	0.36944449
17.832517	0.37308138
17.837547	0.37677201
17.846513	0.38032418
17.889033	0.38356185
17.908353	0.38652716
17.929559	0.38936653
17.933804	0.39177837
17.965548	0.39367368
17.973665	0.39542339
17.992365	0.39711657
18.020558	0.39878119
18.090797	0.40038272
18.113894	0.40115842
18.147790	0.40265148
18.157476	0.40380211
18.165535	0.40506823
18.182307	0.40617902
18.195429	0.40709994
18.201911	0.40781366
18.210692	0.40904175
18.215300	0.40939471
18.239324	0.41001448
18.255327	0.41036890
18.263911	0.41074512
18.287633	0.41126528
18.310904	0.41196296
18.322230	0.41267472
18.330097	0.41334971
18.338366	0.41394969
18.353899	0.41443374
18.370538	0.41472627
18.386820	0.41483075
18.403333	0.41475739
18.411597	0.41459930
18.427992	0.41434892
18.458045	0.41414789
18.478167	0.41402122
18.525517	0.41399150
18.541811	0.41396616
18.558827	0.41388188
18.566355	0.41384192
18.575572	0.41393245
18.595379	0.41406294
18.608007	0.41425611
18.615710	0.41459709
18.628550	0.41507412
18.642162	0.41556225
18.649623	0.41595179
18.723765	0.41623348
18.740141	0.41657585
18.749484	0.41686474
18.763388	0.41697821
18.775281	0.41700529
18.781961	0.41702776
18.790307	0.41702963
18.806229	0.41695083
18.815223	0.41660112
18.873550	0.41617431
18.907000	0.41574288
18.946953	0.41523734
18.956379	0.41459794
18.972372	0.41400316
18.985736	0.41345772
18.992426	0.41301747
19.008495	0.41257312
19.024024	0.41206061
19.042257	0.41143686
19.052261	0.41077420
19.075818	0.40998754
19.091886	0.40917260
19.100843	0.40834738
19.161480	0.40745414
19.176416	0.40656071
19.193105	0.40575227
19.199242	0.40516699
19.209130	0.40475011
19.227926	0.40444302
19.243324	0.40421279
19.249359	0.40408605
19.260629	0.40404340
19.273113	0.40413825
19.289334	0.40423435
19.306006	0.40436905
19.325824	0.40450788
19.343171	0.40465608
19.354313	0.40491285
19.378244	0.40521613
19.392234	0.40549614
19.403540	0.40580133
19.419250	0.40606758
19.434817	0.40621926
19.450708	0.40625711
19.459863	0.40604050
19.476583	0.40571086
19.486240	0.40530249
19.496231	0.40485465
19.503483	0.40437606
19.559497	0.40390610
19.567304	0.40343374
19.579258	0.40309785
19.592403	0.40291170
19.600005	0.40285197
19.607978	0.40284849
19.628629	0.40287171
19.645328	0.40288629
19.655527	0.40294677
19.717304	0.40297955
19.743846	0.40292508
19.762158	0.40288356
19.779079	0.40282503
19.785701	0.40276517
19.801522	0.40277843
19.817965	0.40279745
19.833801	0.40285987
19.843426	0.40297980
19.849824	0.40307427
19.860379	0.40317857
19.876272	0.40330147
19.882838	0.40340712
19.895364	0.40351006
19.909701	0.40369518
19.928466	0.40380799
19.983825	0.40375733
19.999963	0.40360355
20.009126	0.40352876
20.018573	0.40355477
20.028349	0.40358842
20.035973	0.40350393
20.070737	0.40337068
20.078461	0.40318603
20.088290	0.40291366
20.102914	0.40244266
20.112014	0.40181829
20.135855	0.40111831
20.144004	0.40043096
20.159115	0.39977858
20.176359	0.39930790
20.192149	0.39901336
20.208458	0.39883001
20.233756	0.39873439
20.254887	0.39876083
20.259341	0.39885102
20.292767	0.39904543
20.299906	0.39926187
20.326643	0.39947911
20.334321	0.39971393
20.420067	0.39999737
20.430354	0.40025585
20.438617	0.40062602
20.449404	0.40106239
20.459584	0.40141571
20.469997	0.40169479
20.484877	0.40193314
20.493140	0.40210603
20.502846	0.40224924
20.513828	0.40220294
20.528667	0.40196638
20.536679	0.40172452
20.552753	0.40144298
20.584887	0.40113538
20.611399	0.40084578
20.618937	0.40061005
20.634670	0.40048266
20.643689	0.40044940
20.655150	0.40044965
20.668570	0.40054731
20.712870	0.40076391
20.718222	0.40105449
20.741448	0.40135603
20.750483	0.40160236
20.768783	0.40187518
20.775748	0.40245100
20.787416	0.40336897
20.819739	0.40470282
20.851867	0.40626718
20.863757	0.40856007
20.880368	0.41164388
20.893535	0.41562109
20.909210	0.42056276
20.944242	0.42744115
20.952665	0.43671355
20.970635	0.44850682
20.975825	0.46288326
20.992711	0.48070658
21.009275	0.50194061
21.034787	0.52660199
21.050796	0.55411260
21.062818	0.58403191
21.078212	0.61744748
21.092792	0.65283405
21.126647	0.68965764
21.143147	0.72851829
21.184974	0.76917074
21.200821	0.81099988
21.208939	0.85449130
21.226459	0.89856676
21.234474	0.94442325
21.243893	0.99185982
21.259544	1.03997471
21.271436	1.08910639
21.280055	1.13937525
21.288766	1.18933247
21.308024	1.23873574
21.318271	1.28747243
21.336500	1.33625626
21.345721	1.38549005
21.370588	1.43264585
21.386524	1.47835443
21.451097	1.52466080
21.472293	1.57134689
21.492939	1.61690755
21.508881	1.66018995
21.517623	1.70089376
21.525658	1.74105859
21.536064	1.78008784
21.585080	1.81679994
21.594907	1.85162227
21.609419	1.88563903
21.620081	1.91867983
21.625793	1.95026247
21.641414	1.98039076
21.656004	2.00923558
21.664413	2.03675284
21.688693	2.06281450
21.698879	2.08742598
21.706032	2.11033845
21.714915	2.13215000
21.738302	2.15203349
21.754891	2.16995859
21.771348	2.18547913
21.779442	2.19824931
21.805290	2.20808747
21.827778	2.21542772
21.835913	2.21975381
21.844509	2.22175208
21.853013	2.22104525
21.870021	2.21791041
21.877558	2.21256513
21.904497	2.20550373
21.913094	2.19675044
21.937073	2.18684967
21.946274	2.17604429
21.969376	2.16446857
21.978278	2.15207838
22.001600	2.13923152
22.017577	2.12585603
22.041560	2.11206096
22.059496	2.09773484
22.067840	2.08268070
22.087538	2.06689851
22.101163	2.05044232
22.115702	2.03341648
22.125770	2.01633720
22.149251	1.99926714
22.161598	1.98109903
22.186908	1.96262861
22.211679	1.94407426
22.220740	1.92523009
22.238612	1.90568189
22.255117	1.88578054
22.268732	1.86554128
22.282577	1.84647757
22.292438	1.82738468
22.303613	1.80746209
22.327391	1.78763984
22.351024	1.76829955
22.367799	1.74887782
22.422151	1.72790724
22.439063	1.70538737
22.450102	1.68287993
22.477906	1.66097336
22.497029	1.63756753
22.502187	1.61282055
22.510178	1.58631961
22.527635	1.56035760
22.535726	1.53387356
22.546725	1.50577681
22.551974	1.47558571
22.607472	1.44482159
22.624140	1.41409793
22.642919	1.38315459
22.659764	1.35031308
22.693618	1.31616191
22.698779	1.28135878
22.708832	1.24650080
22.726095	1.21019933
22.738894	1.17100943
22.755371	1.12955043
22.765195	1.08754795
22.774966	1.04407518
22.838012	0.99803380
22.846675	0.94943617
22.873161	0.89936357
22.880011	0.84853918
22.888389	0.79716423
22.904099	0.74452657
22.913376	0.69195447
22.921058	0.64103395
22.929656	0.59291851
22.937383	0.54877014
22.960668	0.50881635
22.967696	0.47332372
23.040603	0.44283912
23.058158	0.41766823
23.070306	0.39682752
23.090616	0.37763438
23.108341	0.36192021
23.113930	0.34957374
23.124010	0.33979985
23.141200	0.33199206
23.147467	0.32555140
23.173133	0.32071813
23.181552	0.31906241
23.204525	0.31797497
23.220563	0.31749309
23.244257	0.31816248
23.259920	0.31998457
23.275447	0.32315498
23.290997	0.32773241
23.299180	0.33463857
23.307968	0.34469691
23.318481	0.35798472
23.333975	0.37391235
23.352031	0.39222345
23.378236	0.41328050
23.386540	0.43764108
23.409188	0.46452712
23.426854	0.49323784
23.443021	0.52320059
23.459955	0.55515789
23.475915	0.58966672
23.485974	0.62615103
23.507720	0.66323041
23.523804	0.70067290
23.533182	0.73832174
23.543562	0.77669746
23.549734	0.81583624
23.575817	0.85596800
23.591093	0.89702418
23.611919	0.93915843
23.618892	0.98242823
23.623852	1.02680492
23.654689	1.07124867
23.671323	1.11489751
23.690907	1.15730512
23.707936	1.19851611
23.726270	1.23924916
23.759114	1.27955402
23.777406	1.31823713
23.783508	1.35582683
23.795388	1.39366268
23.808537	1.43218446
23.826554	1.47216372
23.831822	1.51260433
23.896924	1.55288025
23.923853	1.59337160
23.934631	1.63368718
23.952420	1.67293747
23.973608	1.70995429
23.990393	1.74984099
23.998150	1.78602359
24.006966	1.82017293
24.022214	1.85345425
24.038140	1.88704681
24.047449	1.92141728
24.057848	1.95696813
24.075063	1.98756166
24.083333	2.01867425
24.116548	2.04897627
24.128166	2.07766120
24.143328	2.10369330
24.154622	2.12606811
24.162395	2.14439663
24.191485	2.15838382
24.200503	2.16898262
24.224612	2.17572602
24.235399	2.17872479
24.259710	2.17812427
24.274713	2.17407321
24.310586	2.16704529
24.325417	2.15752616
24.332874	2.14604725
24.356891	2.13302252
24.373779	2.11878832
24.384946	2.10353772
24.405406	2.08720078
24.415040	2.07011708
24.425121	2.05229838
24.434481	2.03377300
24.443896	2.01419846
24.487141	1.99386048
24.511041	1.97267559
24.524130	1.95143694
24.535443	1.92978384
24.557349	1.90732737
24.573603	1.88443971
24.590362	1.86134752
24.599445	1.83825305
24.611431	1.81538360
24.623940	1.79180020
24.643042	1.76764732
24.658468	1.74377539
24.674052	1.71955205
24.683321	1.69463275
24.707085	1.67036853
24.725084	1.64666323
24.742202	1.62312776
24.757351	1.59736642
24.768073	1.57047267
24.778901	1.54581151
24.822028	1.52228226
24.832657	1.49664271
24.853657	1.46888902
24.869695	1.44008730
24.891150	1.41268184
24.941355	1.38348629
24.956852	1.34994136
24.975093	1.31564900
24.990029	1.28091021
24.998321	1.24239432
25.008973	1.20233338
25.023444	1.16230130
25.040368	1.12126330
25.048319	1.07728688
25.057525	1.02923742
25.073509	0.98077868
25.126732	0.93502554
25.132888	0.88752802
25.143425	0.83689728
25.157164	0.78732778
25.173001	0.74056855
25.182409	0.69492234
25.191426	0.64800947
25.208777	0.60185879
25.214228	0.55916308
25.239971	0.51946200
25.248846	0.48223484
25.260146	0.44797846
25.274345	0.41793961
25.293761	0.39266753
25.298240	0.37129596
25.357208	0.35304658
25.365402	0.33802673
25.377190	0.32603894
25.390320	0.31649405
25.399894	0.30914052
25.423793	0.30333923
25.448735	0.29816420
25.458405	0.29386077
25.476366	0.29121003
25.490101	0.29020349
25.499696	0.29057528
25.533331	0.29277579
25.592463	0.29743503
25.609609	0.30537929
25.624703	0.31711347
25.631804	0.33226121
25.645702	0.35058861
25.656626	0.37267751
25.664530	0.39800515
25.674563	0.42603634
25.682046	0.45677278
25.711474	0.48970202
25.725938	0.52446723
25.745300	0.56101136
25.759475	0.59930650
25.810771	0.63958349
25.830189	0.68944871
25.838551	0.74095393
25.842620	0.79334569
25.851697	0.84638618
25.867775	0.90040375
25.885103	0.95523211
25.903031	1.01075476
25.923048	1.05885420
25.931336	1.10627232
25.939481	1.15324696
25.996335	1.20035534
26.024136	1.24651159
26.032140	1.29142951
26.048087	1.33522505
26.060455	1.37783528
26.076027	1.42001280
26.091639	1.46192634
26.109604	1.50355227
26.131351	1.54528085
26.143390	1.58645148
26.157703	1.62624650
26.175384	1.66463200
26.189802	1.70145442
26.206318	1.74191162
26.222486	1.78049079
26.230541	1.81705510
26.256116	1.85171885
26.273205	1.88475836
26.280687	1.91745894
26.290026	1.94979835
26.325523	1.97643482
26.331374	2.00254004
26.342376	2.02787107
26.358001	2.05316229
26.365486	2.07832672
26.373750	2.10215086
26.391165	2.12384264
26.406878	2.14372556
26.428822	2.16146121
26.438544	2.17639215
26.451067	2.18815709
26.459353	2.19675636
26.472820	2.20194639
26.504433	2.20382534
26.522697	2.20196303
26.539632	2.19631953
26.557710	2.18775760
26.565915	2.17615654
26.583423	2.16138004
26.594268	2.14378057
26.609462	2.12361673
26.620541	2.10102862
26.639843	2.07653557
26.653324	2.05020648
26.669280	2.02192999
26.711693	1.99300810
26.720743	1.96420345
26.737828	1.93542851
26.746798	1.90707482
26.765596	1.87918754
26.776205	1.85191392
26.823472	1.82594600
26.839478	1.80106391
26.856120	1.77752547
26.883339	1.75605227
26.894996	1.73553286
26.910509	1.71553533
26.923052	1.69576060
26.931148	1.67646325
26.944475	1.65561931
26.955881	1.63175798
26.972535	1.60541175
26.980866	1.57843434
27.001952	1.55095240
27.008928	1.52294634
27.058712	1.49363515
27.073585	1.46450362
27.093278	1.43610439
27.146411	1.40776672
27.183764	1.37806150
27.201679	1.33568625
27.222487	1.29576257
27.238618	1.25548158
27.255824	1.20873111
27.265671	1.16171900
27.272470	1.11342416
27.283775	1.06329257
27.289146	1.02291809
27.303149	0.97802397
27.339014	0.93123381
27.354284	0.88806961
27.372359	0.84276406
27.386061	0.79669992
27.392058	0.75113311
27.404294	0.70546207
27.436821	0.65944598
27.449416	0.61438368
27.469606	0.57163386
27.477753	0.53167419
27.492254	0.49418632
27.505954	0.45986145
27.523530	0.43023536
27.556037	0.40568464
27.563929	0.38549360
27.572916	0.36900736
27.589715	0.35627323
27.605894	0.34729812
27.614880	0.34094147
27.631195	0.33615603
27.641303	0.33295686
27.672869	0.33161856
27.682012	0.33186655
27.689924	0.33285186
27.707156	0.33450895
27.728503	0.33768910
27.761900	0.34274782
27.769123	0.34887095
27.778703	0.35589849
27.792092	0.36435202
27.810095	0.37498023
27.822492	0.38830683
27.841365	0.40405141
27.850045	0.42264043
27.866266	0.44467717
27.876297	0.46970312
27.962455	0.49749166
28.007084	0.52791356
28.022354	0.56584397
28.030617	0.61348306
28.041092	0.66372743
28.050544	0.71614758
28.067340	0.77112412
28.077214	0.82851467
28.092968	0.88786978
28.103410	0.94358999
28.142103	0.99291367
28.149976	1.04241868
28.176282	1.09261139
28.182014	1.14338889
28.191512	1.19420615
28.205903	1.24528882
28.225597	1.29633311
28.230946	1.34689772
28.238150	1.39629580
28.271113	1.44360401
28.282260	1.48779959
28.294834	1.52926941
28.301271	1.56790205
28.321851	1.60346655
28.323859	1.63634333
28.356456	1.66661245
28.389955	1.69533247
28.402619	1.72385334
28.417178	1.75262086
28.442708	1.78139834
28.473743	1.81021416
28.511346	1.84056163
28.536295	1.87288594
28.541167	1.90271756
28.657354	1.93195219
28.677481	1.97755545
28.704329	2.02129246
28.721073	2.06344460
28.739044	2.10240383
28.750505	2.13757069
28.760603	2.17261807
28.775205	2.20481391
28.791286	2.21650537
28.806767	2.22520575
28.820479	2.23068147
28.837152	2.23325712
28.871862	2.23320840
28.888507	2.22854427
28.901417	2.22107654
28.925784	2.21120202
28.929965	2.19681222
28.954183	2.18079009
28.972360	2.16309877
28.983662	2.14389775
28.993101	2.12521131
29.045851	2.10567072
29.073892	2.08176310
29.082612	2.05716920
29.091552	2.03161206
29.109002	2.00596077
29.115889	1.98054248
29.147672	1.95510421
29.171872	1.92973907
29.180355	1.90838281
29.205163	1.88997342
29.221799	1.87218641
29.236704	1.85428782
29.245937	1.83587253
29.255429	1.81707529
29.267375	1.79843185
29.286146	1.77950374
29.294320	1.76077378
29.310784	1.74142478
29.331803	1.72225551
29.340721	1.70389370
29.350766	1.68462471
29.366733	1.66437205
29.382990	1.64409960
29.395799	1.62317576
29.399949	1.60025992
29.486638	1.57363618
29.499819	1.54395421
29.512685	1.51549106
29.537987	1.48514792
29.545678	1.45165862
29.562267	1.41613273
29.569960	1.38085232
29.581442	1.34622673
29.592827	1.31015334
29.640990	1.26943583
29.655621	1.21931155
29.664047	1.16780951
29.754685	1.11488828
29.765557	1.04492393
29.771370	0.96652538
29.788393	0.88797626
29.795537	0.80972494
29.806297	0.74002575
29.856698	0.67268667
29.868126	0.60800335
29.886129	0.56144163
29.902970	0.52564821
29.921487	0.49398881
29.938072	0.46664653
29.954792	0.44309478
29.971297	0.42271936
29.981442	0.40488053
29.999135	0.38995219
30.005811	0.37760886
30.015852	0.36728939
30.025338	0.35941369
30.040752	0.35389784
30.110109	0.35009323
30.116936	0.34788497
30.127051	0.34701881
30.138031	0.34695333
30.146008	0.34787454
30.161650	0.34967847
30.173183	0.35202446
30.188208	0.35489993
30.198932	0.35835438
30.207435	0.36264449
30.223983	0.36831020
30.240723	0.37578905
30.257346	0.38609760
30.284309	0.39949385
30.301198	0.41616486
30.311445	0.43778251
30.323323	0.46559987
30.337902	0.49782173
30.365673	0.53325372
30.388615	0.57219400
30.405364	0.61507272
30.414751	0.66097259
30.423043	0.70750484
30.439572	0.75319496
30.454663	0.79934945
30.458020	0.84735530
30.487942	0.89603126
30.504533	0.94388861
30.513019	0.99110422
30.558279	1.03826078
30.577751	1.08606616
30.585864	1.13519712
30.600976	1.18447398
30.609310	1.23334886
30.624473	1.28214668
30.632531	1.33136261
30.642015	1.38063833
30.654612	1.42925468
30.671314	1.47707454
30.688899	1.52422704
30.704504	1.57059143
30.714464	1.61568845
30.769643	1.65949735
30.784644	1.70256323
30.801422	1.74465992
30.817110	1.78485423
30.834837	1.82358166
30.843073	1.86114467
30.852731	1.89800644
30.951364	1.93266452
30.961487	1.97157856
30.973562	2.01103211
30.989930	2.04829341
30.996130	2.08309606
31.006247	2.11495302
31.012783	2.14468389
31.036122	2.17318959
31.051983	2.19372597
31.071068	2.20944328
31.134991	2.22288894
31.148047	2.23350327
31.161599	2.24062780
31.175049	2.24335449
31.190047	2.24149611
31.200119	2.23502851
31.216061	2.22445640
31.225599	2.21021368
31.267499	2.19256725
31.311177	2.17229700
31.326812	2.14639567
31.333094	2.11421566
31.352052	2.08028211
31.365342	2.04483769
31.374162	2.00831485
31.389521	1.97104014
31.400210	1.93324205
31.415907	1.89940678
31.431916	1.87090057
31.531678	1.84304488
31.539074	1.80816136
31.555046	1.77421087
31.571734	1.74176797
31.588850	1.71120900
31.643355	1.68038902
31.651216	1.63851599
31.655685	1.59964544
31.671756	1.56886463
31.688446	1.53734728
31.696321	1.50350646
31.755989	1.46846268
31.778515	1.43643049
31.794460	1.40033531
31.806273	1.35800536
31.824717	1.31414691
31.839968	1.27008530
31.851743	1.22430303
31.856719	1.17400441
31.865351	1.11842800
31.882340	1.07587117
31.889021	1.03357357
31.900496	0.98797255
31.915522	0.93782172
31.931179	0.88647084
31.947012	0.83649461
31.955754	0.78555697
31.988729	0.73247123
31.997253	0.67869833
32.014242	0.62710695
32.023428	0.57936723
32.039301	0.53566041
32.057865	0.49578128
32.072479	0.46028256
32.091429	0.43023124
32.106022	0.40626289
32.132919	0.38730062
32.142480	0.37205524
32.166768	0.35964590
32.192413	0.34982115
32.221787	0.34312882
32.230022	0.33943042
32.254313	0.33689658
32.262807	0.33520926
32.274552	0.33508652
32.289613	0.33654155
32.306219	0.33892121
32.318511	0.34109546
32.337667	0.34279493
32.367141	0.34505656
32.399965	0.34820299
32.415995	0.35131776
32.431840	0.35398815
32.440870	0.35638756
32.448152	0.35896688
32.456775	0.36188824
32.473786	0.36473582
32.481610	0.36715171
32.491736	0.36953628
32.506521	0.37211664
32.523229	0.37478279
32.539229	0.37752677
32.557233	0.38049356
32.590037	0.38361236
32.608546	0.38712619
32.632669	0.39116565
32.653219	0.39567703
32.685397	0.40068821
32.693613	0.40599827
32.719955	0.41125878
32.735426	0.41670975
32.751427	0.42239332
32.763636	0.42829922
32.772605	0.43465217
32.789523	0.44140240
32.806776	0.44833832
32.816589	0.45572420
32.822890	0.46335842
32.831140	0.47079608
32.852964	0.47798328
32.861551	0.48459061
32.885944	0.49046979
32.896122	0.49560972
32.939119	0.49967924
32.948968	0.50255562
32.955427	0.50434655
32.971319	0.50491900
32.980749	0.50432181
32.990550	0.50269377
33.008575	0.50022572
33.039871	0.49724458
33.049536	0.49408255
33.059369	0.49092220
33.074071	0.48807850
33.090564	0.48560500
33.102369	0.48351618
33.118778	0.48180594
33.133984	0.48032928
33.149794	0.47902525
33.191933	0.47780423
33.199633	0.47649747
33.208117	0.47526286
33.215726	0.47406834
33.240703	0.47299011
33.248196	0.47218094
33.274571	0.47168909
33.328920	0.47161949
33.355052	0.47209711
33.363535	0.47303233
33.390051	0.47441625
33.399922	0.47611305
33.419250	0.47791357
33.428454	0.47978300
33.453937	0.48173340
33.463794	0.48370765
33.472310	0.48566251
33.481112	0.48769673
33.520537	0.48986528
33.530143	0.49215375
33.541645	0.49437820
33.560678	0.49649288
33.571098	0.49836167
33.586950	0.50005404
33.602183	0.50151040
33.617513	0.50277455
33.632883	0.50384243
33.649525	0.50483902
33.664553	0.50574993
33.673537	0.50669056
33.687568	0.50758632
33.720941	0.50837643
33.754861	0.50905169
33.763244	0.50962722
33.772927	0.51012762
33.789234	0.51055536
33.800805	0.51080552
33.808067	0.51089964
33.829879	0.51084902
33.844896	0.51068491
33.858609	0.51046717
33.872264	0.51025226
33.887849	0.50995387
33.901089	0.50964770
33.921695	0.50945045
33.938948	0.50929852
33.947036	0.50924158
33.962475	0.50935062
33.988613	0.50945503
34.021168	0.50967557
34.043074	0.50995411
34.058217	0.51009760
34.071074	0.51024950
34.079458	0.51027448
34.091468	0.51020400
34.101970	0.51019702
34.110269	0.51019483
34.120302	0.51034403
34.140140	0.51081170
34.150597	0.51158886
34.167211	0.51263911
34.176152	0.51387572
34.201062	0.51524024
34.226528	0.51661752
34.238324	0.51778908
34.270293	0.51859888
34.278823	0.51891926
34.288182	0.51884828
34.304951	0.51845019
34.321219	0.51775412
34.330348	0.51685583
34.355090	0.51587078
34.422935	0.51486281
34.440140	0.51392400
34.446811	0.51309138
34.454943	0.51238362
34.463651	0.51175637
34.479030	0.51121296
34.503284	0.51076154
34.511269	0.51042090
34.535249	0.51026697
34.562893	0.51028892
34.571324	0.51047279
34.588298	0.51080035
34.605062	0.51128996
34.622317	0.51183491
34.639148	0.51238886
34.655228	0.51285560
34.671727	0.51319559
34.689395	0.51336912
34.706285	0.51337898
34.715049	0.51325845
34.738418	0.51314096
34.747523	0.51309565
34.757385	0.51315770
34.773320	0.51322334
34.788827	0.51317770
34.797601	0.51305092
34.821557	0.51282274
34.840613	0.51238416
34.863868	0.51177815
34.871456	0.51098306
34.881773	0.51013096
34.901026	0.50936491
34.914206	0.50869586
34.930093	0.50808447
34.939896	0.50761994
34.965781	0.50727190
34.988596	0.50700061
34.998334	0.50672876
35.014865	0.50642172
35.029710	0.50613907
35.045893	0.50593307
35.055400	0.50584151
35.074600	0.50586858
35.083636	0.50604191
35.114020	0.50634525
35.129987	0.50677265
35.138421	0.50722223
35.188360	0.50763667
35.197716	0.50797093
35.221465	0.50821353
35.231204	0.50836945
35.254271	0.50848855
35.263360	0.50858217
35.288216	0.50871365
35.299107	0.50890746
35.315674	0.50916354
35.331726	0.50944617
35.348520	0.50970803
35.356145	0.50994480
35.364234	0.51015643
