arm26_elbow_motion
version=1
nRows=2548
nColumns=2
inDegrees=no
endheader
time	r_elbow_flex
0.092682	0.35297192
0.106804	0.34673699
0.145835	0.34002537
0.161733	0.33291165
0.178214	0.32536829
0.189842	0.31790782
0.206569	0.31159820
0.214885	0.30666438
0.224141	0.30527404
0.247615	0.30440019
0.261796	0.30411074
0.273325	0.30449243
0.289032	0.30532184
0.313654	0.30645741
0.324426	0.30776111
0.331354	0.30925725
0.340815	0.31116035
0.356925	0.31328241
0.373600	0.31552907
0.398836	0.31797204
0.403496	0.32067556
0.429182	0.32372149
0.436648	0.32704383
0.452965	0.33053614
0.466281	0.33428048
0.482834	0.33824058
0.499307	0.34221301
0.506084	0.34613568
0.524530	0.35018033
0.549724	0.35439964
0.557842	0.35844863
0.582402	0.36219484
0.602863	0.36566824
0.644707	0.36898131
0.651513	0.37208759
0.659258	0.37466095
0.673997	0.37636210
0.689812	0.37777268
0.705840	0.37913014
0.721480	0.38012930
0.737520	0.38059297
0.755694	0.38084476
0.842936	0.38096647
0.884053	0.38113578
0.896071	0.37951154
0.912965	0.37773553
0.929767	0.37569500
0.944979	0.37319019
0.955932	0.36994187
0.963035	0.36633101
0.979516	0.36248923
0.987737	0.35988629
1.016886	0.35678384
1.028171	0.35372012
1.036226	0.35105012
1.057472	0.34892674
1.064549	0.34703304
1.076039	0.34531540
1.094767	0.34386598
1.104861	0.34267357
1.128320	0.34173898
1.144758	0.34112892
1.161350	0.34058043
1.177432	0.34007488
1.195234	0.33977071
1.202367	0.33981651
1.211420	0.34012513
1.246218	0.34041370
1.253057	0.34070328
1.269094	0.34124515
1.279545	0.34220236
1.348842	0.34331625
1.363744	0.34436638
1.381723	0.34566199
1.412677	0.34740701
1.428729	0.34936445
1.444908	0.35147249
1.464139	0.35455540
1.472279	0.35821510
1.482175	0.36226393
1.497210	0.36663592
1.513689	0.37128194
1.530343	0.37605099
1.547436	0.38100527
1.553672	0.38533227
1.565205	0.38940887
1.578217	0.39324332
1.594851	0.39650958
1.611864	0.39931578
1.629481	0.40163389
1.637095	0.40284353
1.648481	0.40266573
1.665741	0.40127201
1.680762	0.39901228
1.694859	0.39621961
1.706845	0.39283296
1.715234	0.38906740
1.732669	0.38543141
1.748572	0.38214697
1.778155	0.37912302
1.789142	0.37618505
1.813453	0.37345760
1.822991	0.37141857
1.832660	0.37036066
1.861365	0.37013747
1.869790	0.37055307
1.880097	0.37180432
1.894756	0.37406636
1.920564	0.37690448
1.944792	0.37980704
1.952015	0.38293090
1.961189	0.38641244
1.981389	0.38997069
1.996196	0.39330142
2.030069	0.39648064
2.035879	0.39999856
2.048119	0.40414534
2.079406	0.40880822
2.087770	0.41404726
2.111416	0.42001250
2.120873	0.42644237
2.131778	0.43277576
2.148294	0.43844735
2.178285	0.44307018
2.186103	0.44623800
2.200169	0.44782378
2.230380	0.44805021
2.237650	0.44760694
2.279402	0.44716911
2.297062	0.44697000
2.313481	0.44698698
2.331537	0.44739043
2.346203	0.44813157
2.354465	0.44931949
2.362772	0.45083131
2.379849	0.45203288
2.399216	0.45267765
2.413119	0.45313231
2.430221	0.45368431
2.437120	0.45434160
2.447286	0.45504149
2.462565	0.45580097
2.480277	0.45711079
2.497149	0.45914753
2.545849	0.46157036
2.597321	0.46418514
2.607365	0.46718824
2.627670	0.47050085
2.636013	0.47400086
2.661793	0.47752278
2.677689	0.48093939
2.695175	0.48430039
2.711199	0.48749392
2.718811	0.49039837
2.743221	0.49322922
2.754755	0.49611390
2.775418	0.49899236
2.791896	0.50189170
2.800193	0.50482245
2.861478	0.50768509
2.877795	0.51031252
2.896558	0.51261170
2.914128	0.51445910
2.929825	0.51548201
2.945929	0.51599672
2.954163	0.51645452
2.962476	0.51644371
2.970793	0.51605290
2.978919	0.51537046
2.987893	0.51443931
3.014622	0.51354772
3.030459	0.51241216
3.041813	0.51084418
3.052212	0.50946296
3.096030	0.50832003
3.114371	0.50731852
3.127790	0.50632775
3.136651	0.50545357
3.148284	0.50481510
3.161016	0.50423633
3.179229	0.50362694
3.190465	0.50311194
3.210871	0.50271426
3.244094	0.50243967
3.261797	0.50228866
3.296517	0.50225450
3.313049	0.50224107
3.322157	0.50228606
3.330760	0.50240383
3.344368	0.50256310
3.360750	0.50276547
3.378111	0.50288474
3.387421	0.50290645
3.398268	0.50292380
3.414124	0.50293780
3.462185	0.50284422
3.474146	0.50262287
3.494464	0.50233786
3.510711	0.50212509
3.530217	0.50182801
3.546699	0.50163512
3.553962	0.50175617
3.564327	0.50217743
3.578132	0.50273691
3.586000	0.50339000
3.611990	0.50420039
3.625420	0.50531743
3.637076	0.50653136
3.661675	0.50774724
3.678959	0.50891007
3.696635	0.51017363
3.711144	0.51162428
3.720665	0.51333906
3.746624	0.51546901
3.754141	0.51811508
3.764220	0.52093195
3.776664	0.52361032
3.810977	0.52618025
3.845917	0.52874887
3.862575	0.53112679
3.870787	0.53299859
3.879585	0.53433984
3.900652	0.53548437
3.904594	0.53664283
3.913695	0.53752108
3.927485	0.53797367
3.944202	0.53817044
3.961159	0.53828078
3.995056	0.53812216
4.011038	0.53739981
4.027640	0.53625320
4.045912	0.53508188
4.054384	0.53398718
4.080564	0.53276437
4.097099	0.53128325
4.113436	0.52950431
4.128906	0.52755303
4.144423	0.52559891
4.152282	0.52366225
4.162363	0.52172326
4.177826	0.51983026
4.195942	0.51808100
4.203095	0.51668392
4.210677	0.51567370
4.338062	0.51479884
4.343611	0.51358743
4.358976	0.51226899
4.362796	0.51133226
4.375973	0.51077825
4.393987	0.51031955
4.410423	0.50996593
4.419863	0.51003562
4.436151	0.51084463
4.446510	0.51208775
4.462807	0.51327740
4.478799	0.51425651
4.494185	0.51515231
4.504310	0.51602423
4.515306	0.51681774
4.528893	0.51759260
4.544384	0.51824349
4.561978	0.51867706
4.577027	0.51891008
4.593753	0.51899323
4.611198	0.51899823
4.628108	0.51890022
4.637394	0.51862203
4.655856	0.51800271
4.677302	0.51706668
4.717261	0.51588865
4.727675	0.51440760
4.743818	0.51253708
4.763227	0.51027726
4.772452	0.50772841
4.782697	0.50501149
4.795153	0.50217273
4.802238	0.49935213
4.814755	0.49669423
4.830824	0.49412941
4.849138	0.49153637
4.877421	0.48882086
4.895360	0.48611136
4.929355	0.48351108
4.938265	0.48106400
4.950864	0.47879386
4.962349	0.47680293
4.979079	0.47524498
5.021080	0.47425404
5.030982	0.47366267
5.044863	0.47338637
5.062950	0.47346484
5.078201	0.47400238
5.088433	0.47512118
5.097527	0.47657657
5.128626	0.47820053
5.138495	0.48034978
5.147350	0.48301891
5.163908	0.48593766
5.178961	0.48894345
5.195468	0.49192606
5.221125	0.49486642
5.230905	0.49764892
5.245904	0.49996071
5.262562	0.50197218
5.303121	0.50392811
5.325866	0.50575314
5.341089	0.50702243
5.357002	0.50773058
5.372864	0.50801338
5.389154	0.50814596
5.405022	0.50837242
5.420703	0.50856763
5.436448	0.50849470
5.452504	0.50828658
5.467919	0.50824294
5.483831	0.50839379
5.494002	0.50839853
5.510890	0.50781810
5.527363	0.50673096
5.544306	0.50561109
5.560580	0.50475507
5.568205	0.50398161
5.577288	0.50321720
5.593642	0.50260502
5.601402	0.50225779
5.627070	0.50224823
5.636436	0.50249094
5.644465	0.50268694
5.677138	0.50293050
5.693126	0.50364951
5.760412	0.50501754
5.778124	0.50717887
5.785763	0.50994068
5.793542	0.51261004
5.810022	0.51566659
5.817476	0.51928511
5.855685	0.52302240
5.871339	0.52676805
5.887366	0.53036320
5.902991	0.53382225
5.912528	0.53773974
5.922198	0.54201645
5.946115	0.54634822
5.959799	0.55091951
6.003308	0.55575522
6.028235	0.56077760
6.056334	0.56619306
6.066128	0.57271153
6.074346	0.57965730
6.095461	0.58626054
6.109741	0.59294283
6.119448	0.59999553
6.140149	0.60768571
6.149841	0.61566420
6.174635	0.62301318
6.190232	0.62950838
6.198900	0.63608623
6.224529	0.64358397
6.239427	0.65186605
6.257513	0.66003061
6.267953	0.66814675
6.280512	0.67628449
6.298215	0.68602019
6.312828	0.69798728
6.321460	0.71024208
6.343066	0.72240902
6.347011	0.73568117
6.360823	0.75069038
6.378664	0.76769398
6.395258	0.78602691
6.404099	0.80520010
6.427216	0.82600722
6.443594	0.84863163
6.491682	0.87259803
6.500459	0.89706211
6.527008	0.92181084
6.541958	0.94670236
6.552696	0.97141840
6.569339	0.99603853
6.579833	1.02103257
6.591213	1.04643267
6.607456	1.07241970
6.615203	1.09926280
6.624391	1.12700186
6.639692	1.15616871
6.655559	1.18629425
6.696380	1.21690260
6.700384	1.24768271
6.715609	1.27827292
6.726343	1.30867679
6.743729	1.33938993
6.753423	1.36983874
6.761184	1.39979113
6.796121	1.42929495
6.802694	1.45873875
6.814616	1.48900708
6.827874	1.52012125
6.844884	1.55137112
6.876903	1.58204828
6.910701	1.61226656
6.919818	1.64195575
6.929868	1.67194783
6.946527	1.70192865
6.953182	1.73119748
6.962663	1.75972276
6.969966	1.78750566
6.994512	1.81424266
7.028450	1.84063506
7.044842	1.86567801
7.094914	1.88866256
7.103022	1.90999788
7.113093	1.92941478
7.129174	1.94737010
7.144467	1.96457936
7.153675	1.98021519
7.164882	1.99407766
7.178009	2.00690358
7.194515	2.01895019
7.236596	2.03065872
7.246788	2.04253580
7.262056	2.05484918
7.280735	2.06798197
7.309451	2.08221519
7.327860	2.09747379
7.343307	2.11361267
7.353537	2.13043798
7.363528	2.14754598
7.372197	2.16409540
7.395574	2.17933400
7.410293	2.19270419
7.420433	2.20394604
7.445554	2.21258718
7.465398	2.21823119
7.470298	2.22067524
7.478541	2.22022776
7.495281	2.21713632
7.509554	2.21168148
7.518813	2.20385480
7.529219	2.19399775
7.546829	2.18238874
7.589021	2.16897078
7.609542	2.15378247
7.626563	2.13682060
7.659511	2.11819881
7.666725	2.09788794
7.675595	2.07622374
7.683783	2.05380946
7.694663	2.03108326
7.711293	2.00785888
7.727927	1.98500758
7.732136	1.96283899
7.778675	1.94079597
7.785346	1.91878598
7.793723	1.89646705
7.809481	1.87407466
7.826082	1.85269916
7.862491	1.82935363
7.875867	1.80423061
7.892459	1.78105386
7.912023	1.75931352
7.928163	1.73699645
7.937824	1.71373416
7.963640	1.68926425
7.984478	1.66760763
7.996898	1.64751812
8.010951	1.62393025
8.017972	1.59854205
8.027205	1.57392585
8.042180	1.55009696
8.059725	1.52637024
8.126204	1.50017060
8.140909	1.47156405
8.157728	1.44285144
8.169182	1.41535961
8.179758	1.38679951
8.191000	1.35578001
8.199390	1.32214953
8.208419	1.28987823
8.217883	1.26218658
8.227398	1.23517939
8.242975	1.20357186
8.278727	1.16860173
8.290748	1.13685547
8.310506	1.10652281
8.323984	1.07112520
8.357502	1.02830630
8.364560	0.98577332
8.379926	0.94920037
8.397054	0.91621052
8.410786	0.87868100
8.429754	0.83950614
8.442604	0.80488686
8.452537	0.77605414
8.462208	0.74725996
8.470300	0.71403679
8.489362	0.67997123
8.509072	0.64989688
8.582150	0.62393891
8.593706	0.59909769
8.602831	0.57342020
8.612536	0.54938137
8.620930	0.52954477
8.629944	0.51347742
8.643237	0.49939170
8.658912	0.48668240
8.663650	0.47628521
8.744269	0.46935177
8.752129	0.46625818
8.763299	0.46548328
8.795419	0.46736961
8.805590	0.47231621
8.821532	0.48127229
8.846576	0.49427425
8.853407	0.50946045
8.880110	0.52511193
8.895016	0.54209645
8.904031	0.56108560
8.912281	0.58273329
8.937818	0.60571007
8.958819	0.62848949
8.975830	0.65165837
8.994341	0.67673681
9.003563	0.70508220
9.013366	0.73580698
9.029300	0.76685149
9.042336	0.79835614
9.051032	0.83218276
9.062827	0.86939480
9.070582	0.90842013
9.125869	0.94733018
9.135188	0.98585068
9.145417	1.02499590
9.163200	1.06451410
9.169691	1.10275052
9.178569	1.13994400
9.194285	1.17742959
9.212083	1.21471020
9.222285	1.25133274
9.242311	1.28787534
9.258296	1.32485511
9.275079	1.36219890
9.286241	1.39905701
9.312742	1.43538935
9.330917	1.47261219
9.344314	1.51052221
9.352484	1.54871675
9.363773	1.58651076
9.377160	1.62431112
9.393649	1.66256841
9.410619	1.70024622
9.426020	1.73643701
9.434244	1.77166899
9.462655	1.80464800
9.478626	1.83483223
9.494025	1.86300731
9.502498	1.88961584
9.525396	1.91537321
9.542302	1.93972260
9.560993	1.96227624
9.578011	1.98411750
9.594537	2.00590878
9.604795	2.02757667
9.628833	2.04891778
9.642524	2.06970275
9.677325	2.09086568
9.692436	2.11237461
9.700577	2.13420795
9.708406	2.15621802
9.750456	2.17778731
9.760862	2.19808086
9.769128	2.21661062
9.779089	2.23265300
9.785474	2.24597517
9.794334	2.25610613
9.812441	2.26322480
9.827827	2.26731071
9.861321	2.26862125
9.875751	2.26734697
9.894512	2.26365842
9.902714	2.25786841
9.927924	2.25013135
9.942324	2.24012961
9.950441	2.22782896
9.978754	2.21347622
9.993905	2.19707985
10.031490	2.17874430
10.041614	2.15879320
10.060629	2.13770385
10.068949	2.11551335
10.078341	2.09215256
10.093181	2.06791492
10.106105	2.04305244
10.112663	2.01701433
10.126507	1.99058748
10.144067	1.96433345
10.174760	1.93750454
10.185292	1.91128343
10.202965	1.88513303
10.212396	1.85867857
10.237279	1.83241099
10.260617	1.80652416
10.294218	1.77959126
10.328281	1.75207890
10.347021	1.72404062
10.361829	1.69681596
10.368753	1.67058200
10.395627	1.64424717
10.400740	1.61571546
10.416960	1.58682582
10.427819	1.55942542
10.444891	1.53215710
10.452092	1.50225426
10.461984	1.47058230
10.476775	1.43914653
10.495090	1.40956520
10.503136	1.37945156
10.513242	1.34720430
10.535373	1.31535169
10.542615	1.28577676
10.575577	1.25489444
10.595710	1.22098210
10.613837	1.18543863
10.628002	1.15284486
10.636203	1.12224417
10.698009	1.08852781
10.704310	1.05077219
10.745595	1.01387539
10.756002	0.98058978
10.777840	0.94789594
10.796128	0.91035731
10.810309	0.86823814
10.820824	0.82570522
10.828669	0.78587815
10.838094	0.74839521
10.847498	0.71059775
10.863140	0.67245964
10.881757	0.63762805
10.895497	0.60915062
10.912266	0.58586995
10.929274	0.56411520
10.946199	0.54208551
10.952163	0.52176314
10.960599	0.50508925
10.975521	0.49117572
10.983790	0.47853666
10.993856	0.46702668
11.023016	0.45799374
11.033246	0.45213280
11.043054	0.44854542
11.078720	0.44686705
11.086963	0.44684557
11.112033	0.44798039
11.127956	0.45087880
11.143622	0.45575497
11.154194	0.46196254
11.174960	0.46976581
11.192833	0.47948136
11.210860	0.49182333
11.226731	0.50670945
11.243784	0.52280363
11.328989	0.54047978
11.335148	0.56637767
11.354666	0.59467289
11.360906	0.62453479
11.375062	0.65606125
11.395852	0.69021990
11.410515	0.72749017
11.427295	0.76714772
11.438644	0.80325919
11.445859	0.84122616
11.457845	0.88130800
11.476946	0.92282772
11.526726	0.96475217
11.535226	1.00563712
11.548068	1.04660778
11.562281	1.08769040
11.578381	1.12864688
11.592825	1.16887411
11.618895	1.20755219
11.628420	1.24553448
11.642126	1.28505172
11.659898	1.32486900
11.663678	1.36363372
11.676555	1.40117604
11.693705	1.43833844
11.710191	1.47654563
11.729268	1.51491901
11.744532	1.55254801
11.764257	1.58897060
11.774630	1.62411726
11.786479	1.66026911
11.824892	1.69816239
11.841432	1.73439597
11.858458	1.76947558
11.877275	1.80386532
11.886792	1.83743099
11.898256	1.87029423
11.917263	1.90032506
11.925488	1.92597478
11.941523	1.94935243
11.960423	1.97027652
11.967839	1.98936236
11.976074	2.00745123
11.994026	2.02503335
12.003507	2.04233453
12.011651	2.05977401
12.043649	2.07791362
12.054465	2.09666510
12.074744	2.11537808
12.089168	2.13339356
12.106272	2.15076253
12.130813	2.16717263
12.144917	2.18233833
12.159885	2.19551058
12.167805	2.20635294
12.194637	2.21449199
12.204561	2.22029284
12.224765	2.22351287
12.240787	2.22413199
12.257214	2.22221738
12.278494	2.21810689
12.292207	2.21192795
12.308031	2.20373704
12.314129	2.19352674
12.340764	2.18153443
12.354802	2.16806743
12.391610	2.15301720
12.408774	2.13610485
12.420456	2.11713359
12.461246	2.09662922
12.475347	2.07476275
12.491581	2.05169424
12.503214	2.02704913
12.524365	2.00214234
12.540175	1.97667937
12.548863	1.95134877
12.557940	1.92579197
12.574611	1.89984438
12.583641	1.87427944
12.593048	1.84954688
12.601932	1.82521800
12.612055	1.80128902
12.674263	1.77559683
12.682909	1.75053688
12.707531	1.72748061
12.722784	1.70421059
12.740993	1.67802587
12.751780	1.64940942
12.770896	1.62035431
12.790819	1.59311048
12.798192	1.56528062
12.820794	1.53411257
12.829750	1.49954949
12.837380	1.46371568
12.845647	1.42934815
12.870053	1.39563974
12.886278	1.35837736
12.912488	1.31455994
12.920458	1.26662603
12.937280	1.22235572
12.974422	1.18425787
12.990777	1.14226587
12.998572	1.09122623
13.016178	1.03799066
13.024673	0.99201280
13.034867	0.95276456
13.044987	0.91032642
13.094062	0.86062089
13.101378	0.81334865
13.117385	0.77605491
13.127889	0.74523349
13.141058	0.71237736
13.151660	0.67837554
13.161304	0.65000787
13.176877	0.62952923
13.191469	0.61175954
13.201916	0.59317743
13.209867	0.57517800
13.228711	0.56035474
13.240818	0.54758632
13.291276	0.53362894
13.297438	0.51842076
13.310001	0.50472715
13.327647	0.49376764
13.334496	0.48470929
13.357863	0.47742082
13.376284	0.47232699
13.393240	0.47073872
13.424107	0.47286432
13.432266	0.47628034
13.447824	0.47968824
13.460731	0.48437486
13.476201	0.49133326
13.499794	0.50019893
13.524165	0.51003213
13.530565	0.52109623
13.587898	0.53478095
13.612265	0.55337802
13.626161	0.57683790
13.642951	0.60304321
13.652339	0.63139287
13.677030	0.66239291
13.693726	0.69568023
13.702215	0.73143415
13.706939	0.76917342
13.717735	0.80766190
13.730540	0.84765671
13.739079	0.89002556
13.760233	0.93537151
13.765882	0.98295444
13.775898	1.03207925
13.790708	1.08204061
13.807221	1.13301478
13.823965	1.18599343
13.835050	1.24073698
13.844552	1.29476675
13.860384	1.34827153
13.878702	1.40183275
13.889055	1.45507471
13.926970	1.50711183
13.935930	1.55746278
13.962204	1.60546666
13.969666	1.65124266
13.995023	1.69482293
14.000946	1.73565005
14.012744	1.77442283
14.022086	1.81201761
14.040548	1.84838092
14.076156	1.88325518
14.142337	1.91678410
14.147514	1.94912293
14.156020	1.98105832
14.171918	2.01175662
14.180165	2.04082340
14.193313	2.06764476
14.209236	2.09304215
14.211826	2.11773340
14.225945	2.14184197
14.242678	2.16555084
14.293127	2.18867926
14.302601	2.21107403
14.317642	2.23269763
14.337360	2.25233618
14.352348	2.26971590
14.374832	2.28440586
14.393443	2.29516220
14.409295	2.30193270
14.417540	2.30473966
14.444058	2.30367994
14.461639	2.29965905
14.471523	2.29263204
14.487843	2.28257612
14.504066	2.26999722
14.520604	2.25487105
14.535669	2.23743862
14.559587	2.21789534
14.573821	2.19670518
14.593105	2.17440869
14.602718	2.15081432
14.613324	2.12658497
14.630250	2.10243974
14.643589	2.07927290
14.658384	2.05530012
14.675106	2.03069420
14.683480	2.00694128
14.691622	1.98491509
14.709078	1.96488323
14.716194	1.94316829
14.809595	1.91758857
14.884531	1.89382363
14.901968	1.85933231
14.912457	1.82683130
14.927093	1.77973938
14.939926	1.73022356
14.951611	1.68140683
14.961396	1.63505293
14.983668	1.58607652
14.999334	1.54520162
15.008198	1.49954587
15.023402	1.46577298
15.040588	1.43039245
15.056779	1.39292813
15.075737	1.35256278
15.092201	1.31173479
15.106781	1.27237380
15.140263	1.23176180
15.150831	1.18890704
15.173456	1.14321639
15.188329	1.09581299
15.208100	1.04829297
15.224921	1.00015040
15.233150	0.95079932
15.241467	0.90082819
15.250100	0.85146968
15.258229	0.80684048
15.274892	0.76931641
15.284611	0.73837499
15.301107	0.71131729
15.310984	0.68652959
15.341426	0.66501928
15.356788	0.64731853
15.408798	0.63077643
15.423486	0.61276300
15.442579	0.59315607
15.451268	0.57455499
15.475401	0.55855297
15.488864	0.54490786
15.496126	0.53350502
15.520652	0.52484909
15.529317	0.51887363
15.539905	0.51511479
15.546162	0.51323014
15.554974	0.51374098
15.579021	0.51691283
15.589781	0.52178777
15.609419	0.52781993
15.631061	0.53523540
15.654253	0.54438910
15.660499	0.55494626
15.672999	0.56673823
15.688318	0.58005899
15.706820	0.59515886
15.723496	0.61181633
15.764257	0.63005789
15.768398	0.65077638
15.775594	0.67490820
15.792476	0.70175721
15.806606	0.72994046
15.823184	0.76073378
15.831072	0.79548728
15.856839	0.83417116
15.908208	0.87508684
15.914909	0.91730803
15.941070	0.96122328
15.948542	1.00764704
15.976047	1.05549019
15.992518	1.10320395
16.007066	1.14983315
16.061023	1.19593836
16.068098	1.24091211
16.093826	1.28513029
16.109642	1.32796523
16.116624	1.36795510
16.126537	1.40671926
16.133905	1.44493705
16.159034	1.48208863
16.166151	1.52002164
16.174590	1.55802638
16.192588	1.59634135
16.199732	1.63557236
16.215612	1.67459478
16.234935	1.71289631
16.250882	1.75086516
16.259513	1.78642761
16.267642	1.81870009
16.292439	1.84932429
16.310723	1.87917865
16.326984	1.90779171
16.359020	1.93522999
16.366664	1.96155297
16.376224	1.98727801
16.391268	2.01380954
16.407370	2.03960303
16.416221	2.06392373
16.441364	2.08696431
16.458117	2.10899035
16.475076	2.12994857
16.506970	2.15037394
16.515162	2.17003269
16.540199	2.18869350
16.558477	2.20655412
16.593215	2.22306162
16.606301	2.23781159
16.622916	2.25087605
16.630787	2.26184059
16.640682	2.27036775
16.651875	2.27665715
16.659858	2.28056979
16.690503	2.28268563
16.699515	2.28315732
16.709908	2.28179224
16.718880	2.27865211
16.741115	2.27403984
16.756967	2.26802504
16.769326	2.26065269
16.807021	2.25170729
16.814866	2.24142053
16.831594	2.22980243
16.843072	2.21695247
16.869696	2.20287019
16.889366	2.18768797
16.906100	2.17154549
16.922891	2.15435994
16.941460	2.13637717
16.949022	2.11800603
16.959197	2.09951791
16.976515	2.08070301
16.989852	2.06087771
17.023253	2.04013866
17.030672	2.02001832
17.039947	2.00063859
17.054028	1.98093690
17.070273	1.95976099
17.140910	1.93714878
17.159071	1.91522635
17.174020	1.89257880
17.182614	1.86826145
17.191715	1.84349873
17.206728	1.81947934
17.215104	1.79633270
17.249580	1.77381763
17.271877	1.75163904
17.280376	1.73051760
17.292294	1.70410750
17.300656	1.67738529
17.323638	1.65100841
17.332407	1.62450252
17.343301	1.59683097
17.406746	1.56772399
17.425234	1.53918033
17.440639	1.51686061
17.472714	1.49224435
17.487704	1.45297086
17.496352	1.41337467
17.504734	1.37472664
17.512731	1.33478750
17.523707	1.29020168
17.549002	1.24250117
17.574963	1.19644480
17.581120	1.16299837
17.596812	1.12721212
17.608310	1.08854597
17.625242	1.05013060
17.642708	1.01601690
17.659349	0.98579611
17.672745	0.95489518
17.706443	0.92315779
17.716699	0.89351598
17.723859	0.86831856
17.742615	0.84632649
17.759038	0.82507255
17.765882	0.80365013
17.808560	0.78453675
17.822574	0.76889416
17.839446	0.75607649
17.847596	0.74459525
17.877580	0.73322389
17.890746	0.72187028
17.898377	0.71056842
17.911924	0.69952587
17.924507	0.68893148
17.932007	0.67801428
17.944315	0.66603637
17.957333	0.65334895
17.974328	0.63984723
17.985135	0.62574982
18.009323	0.61243118
18.027435	0.59942855
18.040680	0.58740775
18.060761	0.57739368
18.062864	0.56974147
18.076147	0.56488815
18.091002	0.56312074
18.124938	0.56229778
18.143057	0.56167390
18.157523	0.56116093
18.166913	0.56075394
18.186128	0.56049347
18.208574	0.56051357
18.218366	0.56070049
18.224594	0.56099660
18.257831	0.56164513
18.273182	0.56246459
18.290267	0.56302899
18.307829	0.56352424
18.318117	0.56408735
18.336560	0.56420490
18.358971	0.56366588
18.388862	0.56282672
18.400839	0.56197407
18.420913	0.56104296
18.439545	0.55956876
18.456082	0.55734150
18.473410	0.55484779
18.481089	0.55257314
18.497327	0.55037338
18.508128	0.54782955
18.525251	0.54512844
18.533936	0.54277046
18.542551	0.54098717
18.573474	0.53964633
18.589659	0.53843001
18.606176	0.53722983
18.622917	0.53628000
18.630812	0.53568045
18.647804	0.53549758
18.674036	0.53556296
18.691028	0.53546233
18.700203	0.53515303
18.723867	0.53488249
18.742182	0.53484004
18.759957	0.53484837
18.776262	0.53487949
18.786258	0.53508289
18.809367	0.53566031
18.842731	0.53668556
18.856032	0.53806904
18.863461	0.53937832
18.873319	0.54009661
18.888561	0.54030677
18.907439	0.54018178
18.924392	0.53994726
18.964197	0.53935836
18.972190	0.53778892
18.981814	0.53563275
18.990804	0.53381866
18.999245	0.53216837
19.025022	0.53057566
19.032487	0.52878434
19.056542	0.52712207
19.084208	0.52589115
19.110682	0.52485519
19.121856	0.52371721
19.129667	0.52237647
19.155266	0.52079195
19.171949	0.51928436
19.188723	0.51777702
19.199320	0.51641674
19.208086	0.51502121
19.222045	0.51375374
19.230276	0.51258068
19.246486	0.51136867
19.273901	0.51008150
19.283967	0.50849909
19.299992	0.50665972
19.323839	0.50488660
19.370173	0.50298695
19.440326	0.50087808
19.455708	0.49830814
19.471825	0.49582225
19.488467	0.49335070
19.506296	0.49110043
19.523455	0.48894273
19.540488	0.48692716
19.557259	0.48525471
19.566734	0.48415377
19.576035	0.48305221
19.599437	0.48221168
19.608356	0.48160380
19.624249	0.48136344
19.633228	0.48115455
19.641800	0.48099915
19.658512	0.48110456
19.665637	0.48142000
19.674939	0.48195744
19.682289	0.48240458
19.692431	0.48275226
19.727109	0.48332340
19.733587	0.48409262
19.771637	0.48479506
19.793100	0.48538961
19.808263	0.48597861
19.820743	0.48678919
19.840013	0.48759200
19.846025	0.48824931
19.857637	0.48884495
19.870347	0.48944411
19.880510	0.48998201
19.889371	0.49047781
19.923942	0.49088508
19.939684	0.49148402
19.958610	0.49233693
19.975412	0.49313779
20.016733	0.49383917
20.025721	0.49453177
20.040614	0.49510368
20.057116	0.49556269
20.075471	0.49565860
20.090491	0.49547509
20.106553	0.49519605
20.123336	0.49499513
20.132807	0.49483158
20.174242	0.49471666
20.182785	0.49453451
20.205007	0.49439505
20.213255	0.49425696
20.222043	0.49409534
20.247558	0.49376876
20.262895	0.49330065
20.318577	0.49276362
20.325816	0.49222088
20.339612	0.49166439
20.348046	0.49105918
20.356424	0.49038882
20.372403	0.48975680
20.390677	0.48916167
20.405266	0.48868035
20.423850	0.48831164
20.430083	0.48803699
20.437901	0.48783354
20.456465	0.48773504
20.463680	0.48778492
20.488228	0.48803236
20.502836	0.48835702
20.510698	0.48881047
20.522323	0.48942039
20.534530	0.49017862
20.550859	0.49105897
20.567097	0.49201488
20.583652	0.49306790
20.591464	0.49417837
20.647299	0.49528639
20.657172	0.49647216
20.668169	0.49777417
20.672721	0.49907181
20.684524	0.50029480
20.700240	0.50144006
20.708313	0.50256725
20.742537	0.50372680
20.749479	0.50483417
20.775200	0.50578635
20.782927	0.50663545
20.824881	0.50743792
20.835135	0.50819487
20.850446	0.50880634
20.866399	0.50923995
20.890787	0.50956280
20.905067	0.50982992
20.923780	0.51004993
20.935007	0.51023083
20.940905	0.51028976
20.955131	0.51032002
20.969353	0.51038456
20.975669	0.51042524
21.003477	0.51044114
21.013123	0.51047882
21.058555	0.51057682
21.074908	0.51076018
21.100279	0.51099203
21.122437	0.51113888
21.138386	0.51124855
21.155240	0.51145689
21.191683	0.51169719
21.199934	0.51187548
21.208596	0.51206287
21.221558	0.51220072
21.238837	0.51237673
21.249919	0.51261672
21.271142	0.51286729
21.286070	0.51325214
21.294192	0.51384321
21.320141	0.51440436
21.327797	0.51498949
21.340659	0.51556648
21.356794	0.51607698
21.365539	0.51652099
21.375312	0.51689470
21.394707	0.51719822
21.410293	0.51764144
21.423889	0.51819149
21.460293	0.51886970
21.476351	0.51962338
21.488273	0.52039723
21.506699	0.52113849
21.516848	0.52192303
21.525425	0.52280173
21.538577	0.52373451
21.555266	0.52462416
21.579337	0.52552140
21.598037	0.52652865
21.607761	0.52767877
21.616888	0.52883993
21.633148	0.52990113
21.660004	0.53087114
21.669308	0.53177427
21.674954	0.53263331
21.699934	0.53340079
21.724153	0.53411134
21.737813	0.53485831
21.785555	0.53562696
21.791320	0.53652958
21.805765	0.53763494
21.823528	0.53906417
21.840517	0.54075077
21.856062	0.54268110
21.872422	0.54478201
21.882350	0.54727198
21.890656	0.55036008
21.906957	0.55428720
21.917002	0.55913698
21.937714	0.56475034
21.953939	0.57108129
21.973208	0.57880659
21.978927	0.58867727
22.004642	0.60156980
22.021166	0.61655618
22.041086	0.63279029
22.073017	0.65102540
22.087614	0.67139546
22.104143	0.69350107
22.134327	0.71616168
22.141418	0.73850808
22.154074	0.76147574
22.169800	0.78561976
22.185516	0.81151918
22.194704	0.83995803
22.237510	0.87068972
22.254197	0.90404772
22.270872	0.93981007
22.286511	0.97793481
22.291760	1.01907186
22.306849	1.06241585
22.337439	1.10674928
22.354249	1.15164585
22.362261	1.19697441
22.378061	1.24326512
22.390641	1.28991919
22.405246	1.33564645
22.413263	1.38013840
22.446729	1.42381882
22.456659	1.46696046
22.464091	1.50918596
22.479799	1.55000439
22.486811	1.58966595
22.538469	1.62868597
22.555026	1.66654016
22.563517	1.70290712
22.572080	1.73763532
22.588346	1.77051390
22.596622	1.80154233
22.609384	1.82976733
22.637278	1.85481160
22.654711	1.87731877
22.671314	1.89790297
22.678918	1.91644840
22.704572	1.93354691
22.720591	1.94963629
22.727826	1.96648209
22.737394	1.98499926
22.771805	2.00452666
22.788430	2.02402332
22.804734	2.04335718
22.869525	2.06296034
22.887262	2.08547155
22.895399	2.10714713
22.903925	2.12751687
22.912356	2.14719680
22.939515	2.16703881
22.956120	2.18766029
22.961780	2.20850890
22.986021	2.22607577
23.005250	2.24251418
23.021157	2.25774269
23.037378	2.27126672
23.051613	2.28213028
23.060198	2.28958311
23.084198	2.29315398
23.100089	2.29285540
23.116000	2.28933105
23.139766	2.28251028
23.148419	2.27250361
23.158952	2.25981153
23.174730	2.24514610
23.184553	2.22886301
23.192267	2.21122622
23.257497	2.19226907
23.274817	2.17263518
23.281334	2.15220351
23.291022	2.13109060
23.306572	2.10828569
23.325414	2.08461618
23.342057	2.06125089
23.349206	2.03851636
23.375848	2.01491343
23.390037	1.99053169
23.405806	1.96588134
23.415341	1.94356895
23.440528	1.92260659
23.448060	1.89970255
23.455971	1.87478968
23.464364	1.85140883
23.476675	1.82971507
23.492678	1.80749689
23.510131	1.78173515
23.522761	1.75374401
23.529225	1.72634129
23.589300	1.70025455
23.597790	1.67047426
23.608040	1.63625337
23.650337	1.60306546
23.657986	1.57195764
23.676645	1.53938528
23.708007	1.50300831
23.714659	1.46432654
23.729323	1.42833209
23.786965	1.39425842
23.808850	1.35600080
23.831729	1.31336656
23.847729	1.27344628
23.853564	1.23090245
23.870151	1.17805195
23.877501	1.12666029
23.901886	1.07862109
23.920292	1.03269859
23.928725	0.98956963
23.957244	0.94817530
23.971824	0.91726336
23.984569	0.90175423
24.005085	0.88693889
24.021750	0.87183010
24.030133	0.85986322
24.038407	0.85131831
24.047386	0.84279750
24.056859	0.83277701
24.071624	0.82169272
24.081891	0.81034538
24.097925	0.79983317
24.107478	0.79026717
24.130160	0.78110181
24.142627	0.77342585
24.180822	0.76823982
24.205661	0.76528825
24.222326	0.76362278
24.227656	0.76312481
24.255855	0.76475205
24.260850	0.76922196
24.271770	0.77511777
24.278539	0.78087567
24.305689	0.78733635
24.322271	0.79562593
24.327235	0.80571106
24.351680	0.81714520
24.367458	0.82972227
24.388421	0.84309728
24.403630	0.85690117
24.422452	0.87140473
24.437894	0.88762942
24.446177	0.90616426
24.475828	0.92630982
24.486775	0.94715024
24.511777	0.96976490
24.521292	0.99578297
24.538927	1.02556092
24.557131	1.05764762
24.562831	1.09094601
24.571609	1.12593079
24.589695	1.16288123
24.622196	1.20185930
24.627953	1.24172833
24.639892	1.28164334
24.655658	1.32171282
24.663321	1.36188179
24.672780	1.40108349
24.719993	1.43916672
24.737017	1.47571867
24.745172	1.51117305
24.788182	1.54473745
24.807789	1.57595184
24.848789	1.60676043
24.873621	1.63915030
24.882701	1.67725465
24.907829	1.71566900
24.914387	1.75402045
24.923419	1.79480374
24.941325	1.83736690
24.955882	1.87879029
24.961615	1.91855577
24.988711	1.95395052
24.996334	1.98969058
25.009156	2.02519166
25.047547	2.05753161
25.067317	2.08786729
25.088911	2.11816011
25.105861	2.14756323
25.121676	2.17410706
25.128320	2.19822683
25.139115	2.22055262
25.153337	2.24159642
25.161061	2.26096002
25.188670	2.27774055
25.194103	2.29216097
25.203401	2.30470889
25.217580	2.31554144
25.241251	2.32453703
25.256963	2.33183043
25.272116	2.33760619
25.289548	2.34166868
25.305614	2.34368398
25.314646	2.34380741
25.337312	2.34193984
25.345734	2.33803746
25.354377	2.33192952
25.365044	2.32330670
25.391280	2.31228381
25.405689	2.29870124
25.413249	2.28277095
25.426187	2.26446763
25.439591	2.24375974
25.472847	2.22086398
25.479934	2.19609217
25.499007	2.17020354
25.520158	2.14382680
25.553192	2.11623965
25.569056	2.08847664
25.592826	2.06197381
25.604762	2.03732063
25.620008	2.01210641
25.629870	1.98606404
25.641943	1.96059261
25.654654	1.93736142
25.663086	1.91458720
25.688505	1.88897723
25.696704	1.85917397
25.741174	1.83075386
25.757271	1.80493674
25.763247	1.77722201
25.789007	1.74658262
25.804156	1.71215384
25.821953	1.68004039
25.837318	1.65246682
25.848051	1.62515980
25.858824	1.59362487
25.871831	1.56071653
25.886497	1.53017121
25.895081	1.50248105
25.938863	1.47228835
25.944746	1.43821667
25.985108	1.40228524
25.993840	1.36765471
26.020980	1.33178588
26.036517	1.29066540
26.044071	1.24935976
26.054459	1.21073293
26.070581	1.17276746
26.076930	1.13516980
26.092492	1.09989143
26.130414	1.07074281
26.157081	1.04842668
26.172524	1.02949247
26.203023	1.01212905
26.212811	0.99677884
26.222146	0.98284799
26.237851	0.96949785
26.257668	0.95602036
26.264520	0.94224060
26.289530	0.92836525
26.305561	0.91547585
26.316027	0.90559563
26.340291	0.89904198
26.347400	0.89494152
26.372427	0.89298096
26.389753	0.89299767
26.397831	0.89462392
26.406073	0.89745441
26.421462	0.90094735
26.438978	0.90501588
26.473270	0.91009436
26.490247	0.91621405
26.505316	0.92308840
26.513442	0.93082035
26.522401	0.93963630
26.538019	0.94991066
26.558805	0.96267259
26.563904	0.97584010
26.572788	0.98915352
26.581027	1.00506931
26.591262	1.02589301
26.614193	1.05130219
26.640238	1.07949913
26.652840	1.10813353
26.674290	1.13895938
26.690114	1.17370359
26.704011	1.21087053
26.713416	1.24739415
26.731237	1.28267635
26.758239	1.31813413
26.764819	1.35471173
26.772075	1.39275136
26.791210	1.43120604
26.838375	1.46911431
26.857415	1.50674381
26.889357	1.54467046
26.907089	1.58368990
26.924970	1.62291405
26.927517	1.66136816
26.948899	1.69870262
26.986786	1.73617959
26.997878	1.77443142
27.013608	1.81202641
27.038540	1.84791136
27.054280	1.88338189
27.068185	1.91875928
27.088012	1.95332191
27.095946	1.98501424
27.113154	2.01311845
27.121598	2.03907567
27.130843	2.06410671
27.139692	2.08878916
27.153749	2.11210622
27.163584	2.13469416
27.171406	2.15742312
27.187662	2.18039033
27.196936	2.20377175
27.212793	2.22616730
27.223806	2.24618610
27.254051	2.26453945
27.272000	2.28080243
27.283301	2.29568610
27.335794	2.30919860
27.352873	2.32042950
27.366767	2.32998702
27.371267	2.33792527
27.388958	2.34416835
27.402426	2.34865320
27.417944	2.35055514
27.427466	2.34974666
27.471807	2.34651316
27.495912	2.34063965
27.514809	2.33261671
27.538962	2.32268340
27.555446	2.31097094
27.572165	2.29755034
27.585689	2.28267559
27.602769	2.26636446
27.620078	2.24873197
27.639524	2.22967983
27.652830	2.20891279
27.669694	2.18624693
27.685567	2.16250301
27.703750	2.13803166
27.711820	2.11240880
27.721149	2.08598799
27.737140	2.05967666
27.753836	2.03456187
27.785566	2.01041841
27.818977	1.98631900
27.829149	1.95830269
27.838232	1.93132969
27.848029	1.90507274
27.855851	1.87838956
27.867615	1.85129688
27.875782	1.82456869
27.885854	1.79860194
27.904076	1.77712201
27.914024	1.75481179
27.938037	1.73334942
27.954260	1.71153872
27.970381	1.68860282
27.977597	1.66331685
28.046846	1.63806520
28.073233	1.61518293
28.088588	1.59307212
28.107809	1.56755045
28.115831	1.53958956
28.121435	1.51252511
28.136196	1.48873639
28.152226	1.46325106
28.160502	1.43108938
28.168920	1.39648016
28.179149	1.36587699
28.188999	1.33858181
28.226161	1.30687355
28.321676	1.26865126
28.339878	1.22835184
28.362720	1.19408870
28.383117	1.15979210
28.391840	1.12567197
28.404282	1.09141825
28.420116	1.06292489
28.438834	1.04251079
28.453790	1.02839052
28.470248	1.01436355
28.473109	1.00465815
28.487265	0.99609757
28.505374	0.99112309
28.551958	0.98870243
28.587623	0.98717387
28.599083	0.98535316
28.607955	0.98491606
28.618361	0.98635763
28.635291	0.98928573
28.652007	0.99315274
28.669429	0.99746326
28.685361	1.00245223
28.702040	1.00935596
28.707524	1.01703712
28.718805	1.02532387
28.736165	1.03422545
28.751926	1.04455714
28.760285	1.05687006
28.768446	1.07050679
28.859913	1.08584009
28.880819	1.10854259
28.896607	1.13510131
28.906298	1.17287300
28.915876	1.21384908
28.937749	1.25719720
28.954674	1.30367148
28.961763	1.35222518
28.971746	1.39764081
28.989870	1.44510778
29.004293	1.48663348
29.012781	1.52776007
29.021754	1.56760262
29.038457	1.60518326
29.052356	1.64142129
29.061812	1.67660338
29.087636	1.70888786
29.093813	1.73845830
29.136169	1.76625270
29.145923	1.79409375
29.157373	1.82334539
29.161020	1.85288259
29.193054	1.88002449
29.220638	1.90481239
29.225266	1.92783119
29.251807	1.95007917
29.259604	1.97181453
29.276190	1.99357569
29.285983	2.01540498
29.302556	2.03967541
29.313229	2.06543483
29.353570	2.09165878
29.360185	2.11693028
29.368358	2.14048441
29.385390	2.16059668
29.418592	2.17903752
29.433415	2.19526144
29.450775	2.21083385
29.458992	2.22599925
29.474664	2.24171543
29.483035	2.25704561
29.499991	2.27294977
29.508267	2.28797836
29.554530	2.30170807
29.568571	2.31318905
29.581675	2.32197257
29.597703	2.32730850
29.623033	2.32970434
29.631053	2.32848043
29.654383	2.32391399
29.671731	2.31642710
29.688501	2.30616761
29.693434	2.29318863
29.719313	2.27767373
29.729748	2.26033223
29.738666	2.24090451
29.755606	2.21893123
29.764451	2.19448164
29.787560	2.16794953
29.794877	2.14002784
29.818776	2.11113189
29.836062	2.08208310
29.855757	2.05432059
29.874710	2.02739900
29.881044	2.00099500
29.889796	1.97479320
29.903661	1.95163770
29.913446	1.93147786
29.923908	1.91092752
30.006388	1.88753023
30.013004	1.86379207
30.021849	1.84233222
30.037790	1.82236059
30.060208	1.79972242
30.087469	1.77437868
30.096417	1.75074679
30.111804	1.72916036
30.136309	1.70536661
30.152274	1.67617998
30.168717	1.64513528
30.185050	1.61504142
30.201619	1.58497351
30.220797	1.55049301
30.229035	1.51036049
30.255548	1.46818042
30.264254	1.43026209
30.290463	1.39337745
30.294480	1.35230965
30.304162	1.30664558
30.321490	1.26171178
30.340338	1.22593910
30.345533	1.19876676
30.357316	1.17142305
30.368407	1.14397656
30.404630	1.12292546
30.438348	1.11224322
30.444151	1.10760849
30.452606	1.10119973
30.462577	1.09239524
30.520361	1.08544252
30.528387	1.08125209
30.555795	1.07684778
30.560228	1.07001854
30.568616	1.06257372
30.588667	1.05675281
30.622722	1.05307388
30.629310	1.05140101
30.645497	1.05155524
30.670428	1.05320391
30.676668	1.05613173
30.688103	1.06012713
30.700037	1.06504130
30.724654	1.07100542
30.743110	1.07791126
30.751708	1.08606158
30.774161	1.09590671
30.779982	1.10637839
30.801879	1.11651345
30.816875	1.12686337
30.833365	1.13880914
30.842697	1.15144516
30.866704	1.16386840
30.900654	1.17799346
30.919488	1.19722360
30.971578	1.22278807
30.990089	1.27467316
31.002772	1.33122645
31.011770	1.39156292
31.023366	1.45521181
31.038899	1.52073612
31.044528	1.58558840
31.057070	1.64866557
31.072376	1.68890229
31.086390	1.72582720
31.094749	1.76045736
31.120061	1.79445642
31.139098	1.82795035
31.145037	1.86001361
31.173025	1.89032763
31.184447	1.91888666
31.193259	1.94786718
31.202922	1.97713445
31.219679	2.00464363
31.261767	2.02878819
31.271507	2.05167506
31.288961	2.07415167
31.303528	2.09483692
31.312135	2.11256054
31.338931	2.12868572
31.346704	2.14349916
31.369896	2.15882992
31.387416	2.17437481
31.401380	2.18960639
31.418095	2.20700038
31.429597	2.22608275
31.440187	2.24547720
31.452674	2.26579900
31.472324	2.28599799
31.487679	2.30532665
31.536006	2.32300655
31.546534	2.33817787
31.569674	2.35048067
31.586952	2.36027016
31.601369	2.36697569
31.610906	2.37045019
31.622198	2.37009404
31.626298	2.36688225
31.651719	2.36064492
31.667865	2.35159686
31.683258	2.33967001
31.702705	2.32568560
31.718048	2.30968670
31.729509	2.29197864
31.753855	2.27254588
31.768255	2.25156547
31.785645	2.22889671
31.794520	2.20514567
31.818614	2.18025219
31.836524	2.15384678
31.851660	2.12626408
31.859850	2.09863923
31.884798	2.07177849
31.900843	2.04560907
31.915941	2.01883610
31.921759	1.99274298
31.957884	1.96812280
31.976570	1.94461413
31.986676	1.92033035
32.003210	1.89528157
32.020027	1.87078787
32.029869	1.84631204
32.051559	1.82113114
32.070933	1.79459243
32.086331	1.76841932
32.095617	1.74524937
32.105633	1.72184150
32.121126	1.69735512
32.173212	1.67367922
32.184547	1.65231124
32.201463	1.63405800
32.212685	1.61471421
32.236481	1.59100999
32.252607	1.56738114
32.260598	1.54568371
32.321494	1.52333029
32.329793	1.49657918
32.339685	1.46852856
32.389054	1.44102395
32.403643	1.41391016
32.419029	1.38735985
32.427491	1.35981212
32.438318	1.33329779
32.456253	1.30916346
32.461236	1.28425332
32.469101	1.25678469
32.490086	1.23301397
32.496217	1.21091355
32.520071	1.19001207
32.525974	1.17061653
32.535776	1.15340954
32.550786	1.13827629
32.558275	1.12754594
32.582170	1.11648471
32.592014	1.10555808
32.611451	1.09510006
32.621794	1.08450257
32.652205	1.07374727
32.661110	1.06338252
32.700952	1.05406786
32.712044	1.04579983
32.723847	1.03757635
32.735520	1.02846361
32.751838	1.01819060
32.762082	1.00711977
32.771215	0.99590599
32.794578	0.98526630
32.809933	0.97566843
32.820925	0.96726453
32.846246	0.96015303
32.862242	0.95498341
32.886364	0.95155834
32.895551	0.94913914
32.942134	0.94676468
32.953440	0.94394676
32.969600	0.94084253
32.986611	0.93818687
32.996777	0.93626035
33.005459	0.93482413
33.021754	0.93321851
33.038497	0.93142459
33.059223	0.92994186
33.070305	0.92888364
33.102681	0.92812911
33.112272	0.92740659
33.120426	0.92683517
33.136589	0.92640961
33.273788	0.92605716
33.287639	0.92544236
33.300287	0.92521161
33.317105	0.92510691
33.334029	0.92525188
33.350536	0.92541408
33.358256	0.92556212
33.385882	0.92587836
33.391287	0.92665157
33.400151	0.92743187
33.417107	0.92837097
33.424483	0.92916977
33.432785	0.92990969
33.449549	0.93075899
33.466477	0.93160554
33.482692	0.93215748
33.492267	0.93260364
33.515421	0.93312402
33.541451	0.93391874
33.549641	0.93507408
33.562055	0.93652559
33.583483	0.93830038
33.591026	0.94064041
33.639387	0.94318493
33.653032	0.94584959
33.664684	0.94890228
33.686581	0.95292213
33.698480	0.95827757
33.712523	0.96479160
33.721515	0.97157986
33.737536	0.97879937
33.752986	0.98739817
33.769194	0.99764601
33.783487	1.00751480
33.803059	1.01759041
33.819361	1.02831793
33.828700	1.04022200
33.842138	1.05399767
33.856226	1.06913567
33.875025	1.08413611
33.887356	1.10010465
33.926648	1.11605261
33.939619	1.13242859
33.962972	1.15015081
33.979213	1.16861273
33.990646	1.18705246
33.999145	1.20638946
34.015500	1.22696287
34.030789	1.24872406
34.045853	1.27085340
34.062102	1.29315015
34.070191	1.31562630
34.088262	1.33867081
34.102924	1.36283563
34.116820	1.38820559
34.135412	1.41526542
34.151973	1.44413253
34.181434	1.47429335
34.191423	1.50515814
34.217154	1.53654886
34.224108	1.56872854
34.249930	1.60118997
34.258960	1.63234493
34.267524	1.66256546
34.280614	1.69212136
34.296181	1.72151398
34.334096	1.75122177
34.349983	1.78007685
34.367043	1.80810183
34.385088	1.83662489
34.402706	1.86419066
34.419077	1.89182633
34.451759	1.91867809
34.470205	1.94371421
34.484371	1.96769213
34.499881	1.99145020
34.509368	2.01381563
34.517464	2.03708650
34.534720	2.06011287
34.567594	2.08146176
34.583877	2.10214959
34.600014	2.12187972
34.616598	2.13988835
34.626837	2.15773079
34.652318	2.17540602
34.660004	2.19248859
34.668860	2.21126857
34.684727	2.23033555
34.720391	2.24930061
34.726437	2.26801196
34.737265	2.28558267
34.784620	2.30063456
34.793458	2.31268123
34.804370	2.32108213
34.819584	2.32612782
34.835428	2.32759343
34.852890	2.32560792
34.868938	2.32033622
34.886051	2.31167610
34.901336	2.30026690
34.917869	2.28636165
34.926285	2.27060870
34.934310	2.25336771
34.942412	2.23398190
34.984517	2.21276752
35.001918	2.19006720
35.052079	2.16629466
35.068100	2.14085319
35.084621	2.11460727
35.101180	2.08788932
35.116844	2.05625226
35.133077	2.02540447
35.149694	1.99677384
35.167050	1.96891704
35.181815	1.94136160
35.200428	1.91090514
35.216884	1.87981623
35.224540	1.85594678
35.240881	1.83454721
35.250598	1.80975554
35.266215	1.78077676
35.276042	1.75028124
35.301049	1.72532081
35.310324	1.70405853
35.326428	1.68062102
35.343306	1.65000047
35.366033	1.61681011
35.382629	1.58719537
35.393558	1.56003980
35.402143	1.52405518
35.416234	1.47926522
35.467228	1.43647299
35.485498	1.40141597
35.500589	1.36945244
35.515115	1.33556660
35.519588	1.30191010
35.535358	1.27810315
35.542686	1.26519291
35.558737	1.25528722
35.568817	1.24376231
35.589648	1.23355909
35.604498	1.22596124
35.618660	1.22011993
35.637253	1.21441612
35.650676	1.20751336
35.666313	1.19989712
35.675984	1.19413844
35.700813	1.19270759
35.716241	1.19614292
35.761985	1.20336656
35.787074	1.21296190
35.797718	1.22479475
35.816407	1.24046297
35.826311	1.26061892
35.834419	1.28296405
35.866523	1.30627823
35.885532	1.33126742
35.896703	1.35786719
35.919858	1.38592027
35.928117	1.41531854
35.951763	1.44811756
35.969261	1.48548755
35.976078	1.52588536
35.984582	1.56710324
36.001860	1.60894694
36.018449	1.65133224
36.025748	1.69285633
36.033833	1.73272501
36.049958	1.77089773
36.057892	1.80708480
36.068642	1.84355003
36.093701	1.88028002
36.117132	1.91705247
36.127348	1.95315402
36.149467	1.98470677
36.158543	2.01188309
36.182351	2.03835582
36.218701	2.06141716
36.241577	2.08329475
36.253680	2.10515219
36.268055	2.12634182
36.285180	2.15077588
36.293853	2.17873137
36.310061	2.20879405
36.325898	2.24146240
36.351716	2.27435302
36.368421	2.30618902
36.375021	2.33778720
36.388546	2.36735122
36.394134	2.39322085
36.418373	2.41374692
36.432255	2.42879097
36.451453	2.43772875
36.484156	2.44029613
36.500695	2.43664071
36.518800	2.42636535
36.550135	2.41041333
36.568357	2.38979930
36.574118	2.36453471
36.590311	2.33478426
36.599724	2.30105904
36.607750	2.26312236
36.632639	2.22188104
36.641428	2.18092740
36.666436	2.14123912
36.677345	2.10127108
36.699119	2.06237164
36.715769	2.02451523
36.732835	1.98780537
36.753386	1.95080353
36.766223	1.91116823
36.788525	1.86374940
36.802048	1.81485110
36.812453	1.76953924
36.825673	1.72536595
36.845192	1.67623796
36.860162	1.62426945
36.872051	1.57612212
36.896919	1.53535334
36.909915	1.49393218
36.950547	1.44538961
36.965879	1.39842171
36.982951	1.36554166
36.990632	1.34238156
37.005878	1.31816795
37.015926	1.29546233
37.033545	1.28093168
37.084261	1.27372573
37.100599	1.26632863
37.116914	1.25233532
37.133715	1.23524637
37.144154	1.21980423
37.168143	1.20674547
37.182482	1.19445218
37.199341	1.18428243
37.208961	1.17830922
37.234648	1.17812621
37.243031	1.18692455
37.265683	1.19994731
37.275274	1.21661090
37.301221	1.23685972
37.308549	1.26126358
37.321785	1.28815786
37.332920	1.31656481
37.349388	1.34376000
37.366293	1.37325726
37.382709	1.40293731
37.391023	1.43109672
37.399766	1.45760791
37.416051	1.48574550
37.433902	1.51652151
37.440802	1.54865587
37.448932	1.58034831
37.502308	1.61079130
37.516403	1.64167226
37.532890	1.67521363
37.541017	1.70860698
37.570131	1.73947707
37.582462	1.76907335
37.590056	1.80017396
37.599638	1.83256426
37.617287	1.86564154
37.625684	1.89805190
37.653420	1.92725664
37.668810	1.95897611
37.677113	1.99068715
37.699423	2.02223206
37.716225	2.05581333
37.735004	2.09306920
37.745868	2.13390609
37.764349	2.18020094
37.813217	2.22585903
37.864681	2.27174057
37.888204	2.31598069
37.891714	2.35665858
37.900582	2.38922254
37.915490	2.41241145
37.932146	2.42655969
37.947361	2.43196955
37.950123	2.42835005
37.958668	2.41612661
37.983174	2.39595103
38.016137	2.37024197
38.028214	2.33900004
38.034626	2.30284057
38.080734	2.26221064
38.101114	2.21913686
38.110435	2.17539698
38.119296	2.13116366
38.135682	2.08517637
38.152144	2.04151378
38.160622	1.99837182
38.169215	1.95551655
38.186448	1.91372421
38.203440	1.87427616
38.217158	1.83842329
38.233795	1.80492036
38.251862	1.76751008
38.268437	1.72564240
38.275794	1.68278086
38.286110	1.64301965
38.319206	1.60181678
38.326241	1.55443515
38.351385	1.50535023
38.385807	1.46325683
38.432632	1.43213946
38.442077	1.40017206
38.467471	1.36829095
38.485782	1.34002848
38.490409	1.31924615
38.506118	1.30279832
38.518979	1.28488751
38.525512	1.26520298
38.533609	1.25228150
38.549410	1.23924217
38.568062	1.22613047
38.577242	1.21673552
38.597368	1.21331626
38.606556	1.21284409
38.622548	1.21348039
38.632194	1.21841287
38.640841	1.22897366
38.676506	1.24235300
38.685802	1.25413952
38.751023	1.26569131
38.767469	1.28256275
38.784532	1.30706529
38.792361	1.33378062
38.804797	1.36161975
38.819282	1.39318696
38.833688	1.42910267
38.837801	1.46607045
38.850456	1.50166978
38.867767	1.53543797
38.876867	1.57038514
38.900758	1.60575077
38.949341	1.64017929
38.958584	1.67535258
38.969377	1.71315151
38.976301	1.75061708
38.985975	1.78447058
39.002785	1.81517787
39.013891	1.84446506
39.026618	1.87286038
39.035895	1.90048641
39.050568	1.92726512
39.067388	1.95298294
39.076068	1.98059463
39.101493	2.01261194
39.127082	2.04497160
39.136187	2.07464589
39.152483	2.09805929
39.166751	2.11530106
39.183116	2.12950666
39.193527	2.14198482
39.211017	2.15193553
39.227620	2.16360835
39.246735	2.18005074
39.272253	2.20426461
39.288046	2.23478826
39.308222	2.27034137
39.319918	2.30744861
39.367629	2.34356993
39.384171	2.37664566
39.390579	2.40493638
39.433194	2.42640067
39.439512	2.44125525
39.455096	2.44346095
39.467466	2.44346095
39.474708	2.44346095
39.500940	2.43715264
39.516650	2.42043819
39.534174	2.39802513
39.540051	2.36994196
39.550603	2.33685986
39.568405	2.29999885
39.572587	2.26075813
39.582154	2.21988755
39.615252	2.17790577
39.621958	2.13420494
39.648532	2.09178753
39.655404	2.05063301
39.665388	2.00996180
39.681776	1.96618282
39.700675	1.92095851
39.723315	1.87758141
39.739959	1.83635154
39.759136	1.79198492
39.772355	1.74160548
39.799605	1.68503789
39.805552	1.62556714
39.814682	1.56736498
39.831154	1.51656820
39.839376	1.47543684
39.881269	1.44183553
39.888055	1.41711094
39.912551	1.40262429
39.920780	1.39656575
39.945196	1.39076631
39.961143	1.37539302
39.992480	1.35088006
40.003852	1.32478412
40.020163	1.30097802
40.034740	1.27999655
40.044607	1.26452527
40.065298	1.25654449
40.085688	1.25584470
40.099686	1.26020873
40.108315	1.26743697
40.118565	1.27628733
40.132895	1.28610808
40.150953	1.29608223
40.184191	1.30662851
40.199002	1.31871552
40.217179	1.33352222
40.225513	1.35124796
40.252867	1.37058604
40.265047	1.39116541
40.272931	1.41314245
40.300458	1.43631817
40.308348	1.45975386
40.334884	1.48291503
40.344638	1.50646636
40.367415	1.53063947
40.383695	1.55563975
40.415031	1.58113242
40.432778	1.60771618
40.450398	1.63646051
40.462087	1.66744974
40.469778	1.69965970
40.481483	1.73293868
40.501521	1.76475157
40.519732	1.79471792
40.528204	1.82260569
40.541383	1.84756144
40.551777	1.86989682
40.599467	1.89259304
40.617111	1.91436993
40.636629	1.93585810
40.651236	1.95727072
40.668743	1.97778308
40.674562	1.99694953
40.684263	2.01773240
40.698338	2.03513833
40.708205	2.05056570
40.717717	2.06747094
40.725532	2.08356563
40.751991	2.10326186
40.784733	2.12795903
40.788959	2.15441294
40.835570	2.18344006
40.843423	2.21563007
40.931444	2.24704876
40.942682	2.28193502
40.964933	2.31349497
40.980839	2.33999327
40.990655	2.35867202
41.017690	2.37095274
41.033067	2.37342316
41.039296	2.36917518
41.050287	2.35644731
41.062119	2.33794755
41.071666	2.31436729
41.073687	2.28785183
41.092124	2.25791165
41.104079	2.22671061
41.128081	2.19163322
41.134114	2.15410572
41.159672	2.11781179
41.167830	2.08426076
41.177203	2.05327936
41.192862	2.02124678
41.201601	1.98974729
41.226877	1.96223047
41.253437	1.93970338
41.262099	1.91796840
41.281754	1.89470494
41.297881	1.86703960
41.347894	1.83960410
41.354946	1.81469033
41.363161	1.79089878
41.378993	1.76455248
41.388806	1.73552954
41.414605	1.70500160
41.430509	1.67640601
41.440126	1.64877886
41.462802	1.61933175
41.483323	1.58786414
41.489357	1.55512980
41.499070	1.52125016
41.511695	1.48889134
41.519834	1.46076654
41.561186	1.43673812
41.571919	1.41462394
41.597783	1.39419505
41.604832	1.37731962
41.612916	1.36476241
41.628911	1.35310608
41.640045	1.33897124
41.647665	1.32266699
41.672026	1.30637240
41.747832	1.29075835
41.764386	1.27573687
41.775943	1.26077197
41.797799	1.24682593
41.806736	1.23469131
41.821949	1.22484197
41.833465	1.21674152
41.850265	1.20952855
41.859811	1.20266632
41.875786	1.19653752
41.884056	1.19011668
41.900625	1.18205267
41.910870	1.17322096
41.927391	1.16420116
41.945655	1.15628507
41.970695	1.15004557
41.977723	1.14591423
41.994520	1.14435801
42.009007	1.14605385
42.033984	1.14963866
42.049246	1.15466232
42.067569	1.16012670
42.083838	1.16524032
42.096302	1.16997444
42.103477	1.17418687
42.126497	1.17784110
42.142389	1.18058119
42.184081	1.18265438
42.199721	1.18412056
42.209705	1.18453791
42.233346	1.18326409
42.240166	1.18045562
42.255457	1.17639824
42.276993	1.17171160
42.292275	1.16641531
42.300008	1.16009788
42.361649	1.15285340
42.400929	1.14568996
42.409235	1.13877288
42.415586	1.13111892
42.431423	1.12278864
42.439621	1.11365373
42.448914	1.10388907
42.463984	1.09337759
42.473105	1.08142011
42.500823	1.06851807
42.515973	1.05619384
42.534297	1.04434773
42.546850	1.03315455
42.556079	1.02280587
42.567215	1.01362622
42.606525	1.00582461
42.612957	0.99915743
42.623449	0.99334612
42.649597	0.98801646
42.663997	0.98303799
42.672540	0.97856008
42.694896	0.97450976
42.714279	0.97087157
42.724384	0.96821258
42.751148	0.96701845
42.759485	0.96751053
42.786709	0.96972167
42.813850	0.97349208
42.824814	0.97979061
42.840073	0.98772870
42.852356	0.99660835
42.867864	1.00574798
42.881016	1.01475039
42.897600	1.02329160
42.914023	1.03118357
42.923469	1.03748148
42.947435	1.04313739
42.964061	1.04813024
42.974914	1.05255140
42.999370	1.05658701
43.009185	1.06034830
43.020086	1.06387779
43.025207	1.06718979
43.051721	1.06994520
43.067312	1.07205632
43.081441	1.07351028
43.100736	1.07442122
43.116522	1.07501768
43.135802	1.07529290
43.149470	1.07497192
43.164280	1.07412395
43.172111	1.07310999
43.196888	1.07223063
43.212464	1.07154375
43.228261	1.07079273
43.232821	1.06986587
43.264553	1.06886151
43.280243	1.06771417
43.298529	1.06614053
43.314624	1.06392625
43.322713	1.06119232
43.348260	1.05853268
43.365433	1.05608491
43.398196	1.05397575
